,name,lat,lng,zip
0,Pet Supermarket,34.050338,-84.088098,30024
1,Pet Supplies Plus Marietta,34.0347179,-84.4660212,30066
2,Pets Unleashed,34.6148062,-83.52665019999999,30523
3,Mountain Pets & Water Gardens,35.0861323,-84.0358558,28906
4,EarthWise Pet Supply & Grooming Buford,34.0932649,-83.9382257,30519
5,Pet Supermarket,34.0039643,-83.9873179,30043
6,Pet Supplies Plus Maryville,35.7403093,-83.99182619999999,37801
7,Pet Supplies Plus Acworth,34.0902536,-84.5859964,30102
8,Pet Supermarket,34.0175627,-84.1868429,30097
9,Pet Supermarket,34.0881059,-84.482433,30188
10,Top Dogs Pet Boutique,34.0438827,-84.3381412,30076
11,Petsense by Tractor Supply,33.99537,-83.33536169999999,30601
12,Petco,34.7882286,-84.9972627,30720
13,PetSmart,34.04437619999999,-84.2909114,30022
14,Petsense by Tractor Supply,34.2507468,-83.458443,30529
15,Top Dogs Pet Boutique,34.0131371,-84.5671072,30144
16,Pet Supermarket,34.0110159,-84.7555079,30132
17,Petland Kennesaw,34.0093481,-84.576357,30144
18,Pet Supplies Plus Gainesville,34.3001403,-83.8591537,30501
19,Petsense by Tractor Supply,34.4658092,-84.46055679999999,30143
20,Pet Supermarket,34.050338,-84.088098,30024
21,Pet Supplies Plus Marietta,34.0347179,-84.4660212,30066
22,Pets Unleashed,34.6148062,-83.52665019999999,30523
23,Mountain Pets & Water Gardens,35.0861323,-84.0358558,28906
24,EarthWise Pet Supply & Grooming Buford,34.0932649,-83.9382257,30519
25,Pet Supermarket,34.0039643,-83.9873179,30043
26,Pet Supplies Plus Maryville,35.7403093,-83.99182619999999,37801
27,Pet Supplies Plus Acworth,34.0902536,-84.5859964,30102
28,Pet Supermarket,34.0175627,-84.1868429,30097
29,Pet Supermarket,34.0881059,-84.482433,30188
30,Top Dogs Pet Boutique,34.0438827,-84.3381412,30076
31,Petsense by Tractor Supply,33.99537,-83.33536169999999,30601
32,Petco,34.7882286,-84.9972627,30720
33,PetSmart,34.04437619999999,-84.2909114,30022
34,Petsense by Tractor Supply,34.2507468,-83.458443,30529
35,Top Dogs Pet Boutique,34.0131371,-84.5671072,30144
36,Pet Supermarket,34.0110159,-84.7555079,30132
37,Petland Kennesaw,34.0093481,-84.576357,30144
38,Pet Supplies Plus Gainesville,34.3001403,-83.8591537,30501
39,Petsense by Tractor Supply,34.4658092,-84.46055679999999,30143
40,Pet Supermarket,34.050338,-84.088098,30024
41,Pet Supplies Plus Smyrna,33.8757611,-84.5335336,30080
42,PetSmart,33.926773,-84.3466064,30346
43,Petco,33.9539698,-84.1339562,30096
44,Pet Supermarket,33.8598862,-84.5166071,30080
45,Pet Supplies Plus Marietta,34.0347179,-84.4660212,30066
46,PetSmart,33.8411152,-84.3727066,30305
47,Pet Supermarket,33.9672094,-84.48862980000001,30062
48,Pet Supplies Plus Athens,33.9470167,-83.4069671,30606
49,Pet Supermarket,34.0039643,-83.9873179,30043
50,PetSmart,33.952895,-84.1371649,30096
51,Pet Supplies Plus Acworth,34.0902536,-84.5859964,30102
52,Petco,33.858025,-84.38276859999999,30342
53,Pet Supermarket,34.0175627,-84.1868429,30097
54,Pets Unleashed,34.6148062,-83.52665019999999,30523
55,City Dog Market,33.8671134,-84.3362671,30319
56,Pet Supermarket,34.0881059,-84.482433,30188
57,Mountain Pets & Water Gardens,35.0861323,-84.0358558,28906
58,Pet Supermarket,33.9521809,-84.6503024,30064
59,Pet Supplies Plus Lilburn,33.8700069,-84.0935969,30047
60,Garden City Pet,33.5266443,-82.0713817,30907
61,Petco,33.5241175,-82.1175269,30809
62,PetSmart,33.4912763,-82.0812179,30909
63,Pet Supermarket,33.9859382,-81.2458797,29072
64,Petsense by Tractor Supply,33.4818,-82.19407,30813
65,Hollywood Feed,33.4968561,-82.0789274,30907
66,Petsense by Tractor Supply,33.99537,-83.33536169999999,30601
67,PetSmart,33.4973344,-81.9622741,29841
68,Petco,33.5201575,-81.7224911,29803
69,PetSmart,33.5055279,-81.7126246,29803
70,PetSmart,33.1063855,-83.25482029999999,31061
71,PetSmart,34.20401260000001,-82.1908636,29649
72,Peachy Paws,34.4358541,-83.10576089999999,30553
73,Petsense by Tractor Supply,34.4879036,-82.6762392,29624
74,Modern Companion Pet Boutique,34.1580416,-81.3493812,29036
75,Harmony Pet Supplies,33.4253588,-83.2675768,31024
76,"Downtown Dog - Aiken, SC",33.5601693,-81.7228834,29801
77,Barkmart,33.573912,-81.83620379999999,29829
78,Lazy Creek Pet Food Center,33.917466,-81.51519569999999,29070
79,Puddle Jumper Pups,33.4762866,-82.19829589999999,30813
80,Garden City Pet,33.5266443,-82.0713817,30907
81,Pet Supplies Plus West Columbia,33.9837972,-81.0998171,29169
82,Petco,33.5241175,-82.1175269,30809
83,PetSmart,33.4912763,-82.0812179,30909
84,Pet Supermarket,33.9859382,-81.2458797,29072
85,Petsense by Tractor Supply,33.4818,-82.19407,30813
86,Lazy Creek Pet Food Center,33.9956757,-81.22161570000002,29072
87,Pet Supplies Plus Irmo,34.0869569,-81.1863517,29063
88,Petco,34.0010072,-81.2159432,29072
89,PetSmart,34.0693835,-81.1594822,29212
90,PetSmart,33.4973344,-81.9622741,29841
91,Hollywood Feed,33.4968561,-82.0789274,30907
92,Petco,34.0704591,-81.157184,29212
93,Hollywood Feed,34.0062145,-81.20444119999999,29072
94,Petco,33.5201575,-81.7224911,29803
95,PetSmart,34.005499,-81.19574,29072
96,PetSmart,33.5055279,-81.7126246,29803
97,PetSmart,34.20401260000001,-82.1908636,29649
98,Woody’s Pet Supplies and Grooming,34.0012619,-81.1009297,29169
99,Peachy Paws,34.4358541,-83.10576089999999,30553
100,PetSmart,33.4912763,-82.0812179,30909
101,Pet Supplies Plus Irmo,34.0869569,-81.1863517,29063
102,Pet Supermarket,33.9859382,-81.2458797,29072
103,Garden City Pet,33.5266443,-82.0713817,30907
104,Petsense by Tractor Supply,33.4818,-82.19407,30813
105,PetSmart,34.0693835,-81.1594822,29212
106,PetSmart,34.005499,-81.19574,29072
107,PetSmart,33.4973344,-81.9622741,29841
108,PetSmart,33.1063855,-83.25482029999999,31061
109,PetSmart,33.5055279,-81.7126246,29803
110,Lazy Creek Pet Food Center,33.9956757,-81.22161570000002,29072
111,Petco,33.5241175,-82.1175269,30809
112,Petco,34.0010072,-81.2159432,29072
113,Petsense by Tractor Supply,32.5425036,-82.9519353,31021
114,Hollywood Feed,33.4968561,-82.0789274,30907
115,Hollywood Feed,34.0062145,-81.20444119999999,29072
116,Pets With Style,34.077884,-81.15648829999999,29212
117,Petco,34.0704591,-81.157184,29212
118,Petco,33.5201575,-81.7224911,29803
119,Harmony Pet Supplies,33.4253588,-83.2675768,31024
120,Garden City Pet,33.5266443,-82.0713817,30907
121,Petco,33.5241175,-82.1175269,30809
122,PetSmart,33.4912763,-82.0812179,30909
123,Pet Supermarket,33.9859382,-81.2458797,29072
124,Petsense by Tractor Supply,33.4818,-82.19407,30813
125,Hollywood Feed,33.4968561,-82.0789274,30907
126,Petsense by Tractor Supply,33.99537,-83.33536169999999,30601
127,PetSmart,33.4973344,-81.9622741,29841
128,Petco,33.5201575,-81.7224911,29803
129,Petsense by Tractor Supply,32.5425036,-82.9519353,31021
130,PetSmart,33.5055279,-81.7126246,29803
131,PetSmart,33.1063855,-83.25482029999999,31061
132,PetSmart,34.20401260000001,-82.1908636,29649
133,Modern Companion Pet Boutique,34.1580416,-81.3493812,29036
134,Harmony Pet Supplies,33.4253588,-83.2675768,31024
135,"Downtown Dog - Aiken, SC",33.5601693,-81.7228834,29801
136,Barkmart,33.573912,-81.83620379999999,29829
137,Lazy Creek Pet Food Center,33.917466,-81.51519569999999,29070
138,Puddle Jumper Pups,33.4762866,-82.19829589999999,30813
139,Fetch 501,33.4734265,-81.958969,30901
140,Garden City Pet,33.5266443,-82.0713817,30907
141,Pet Supplies Plus West Columbia,33.9837972,-81.0998171,29169
142,Petco,33.5241175,-82.1175269,30809
143,PetSmart,33.4912763,-82.0812179,30909
144,Pet Supermarket,33.9859382,-81.2458797,29072
145,Petsense by Tractor Supply,33.4818,-82.19407,30813
146,Lazy Creek Pet Food Center,33.9956757,-81.22161570000002,29072
147,Pet Supplies Plus Irmo,34.0869569,-81.1863517,29063
148,Petco,34.0010072,-81.2159432,29072
149,PetSmart,34.0693835,-81.1594822,29212
150,PetSmart,33.4973344,-81.9622741,29841
151,Hollywood Feed,33.4968561,-82.0789274,30907
152,Petco,34.0704591,-81.157184,29212
153,Hollywood Feed,34.0062145,-81.20444119999999,29072
154,Petco,33.5201575,-81.7224911,29803
155,PetSmart,34.005499,-81.19574,29072
156,PetSmart,33.5055279,-81.7126246,29803
157,PetSmart,34.20401260000001,-82.1908636,29649
158,Woody’s Pet Supplies and Grooming,34.0012619,-81.1009297,29169
159,Modern Companion Pet Boutique,34.1580416,-81.3493812,29036
160,Pet Supplies Plus Columbia - Five Points,34.00291199999999,-81.0184402,29205
161,Garden City Pet,33.5266443,-82.0713817,30907
162,Petco,33.5241175,-82.1175269,30809
163,PetSmart,33.4912763,-82.0812179,30909
164,Pet Supermarket,33.9859382,-81.2458797,29072
165,Petsense by Tractor Supply,33.4818,-82.19407,30813
166,Lazy Creek Pet Food Center,33.9956757,-81.22161570000002,29072
167,Pet Supplies Plus West Columbia,33.9837972,-81.0998171,29169
168,Petco,34.0010072,-81.2159432,29072
169,Pet Supplies Plus Irmo,34.0869569,-81.1863517,29063
170,PetSmart,34.0693835,-81.1594822,29212
171,PetSmart,33.4973344,-81.9622741,29841
172,Hollywood Feed,33.4968561,-82.0789274,30907
173,Petco,34.0704591,-81.157184,29212
174,Hollywood Feed,34.0062145,-81.20444119999999,29072
175,Petco,33.5201575,-81.7224911,29803
176,PetSmart,34.005499,-81.19574,29072
177,PetSmart,33.5055279,-81.7126246,29803
178,PetSmart,34.20401260000001,-82.1908636,29649
179,Woody’s Pet Supplies and Grooming,34.0012619,-81.1009297,29169
180,Pet Supermarket,30.2624511,-81.6237929,32217
181,Pet Supermarket,30.2640955,-81.55840649999999,32216
182,Pet Supermarket,30.1875604,-81.62707739999999,32257
183,Pet Supermarket,30.2054568,-81.7591583,32244
184,Pet Supermarket,29.675545,-82.33880669999999,32609
185,Pet Supermarket,30.2873056,-81.7213709,32210
186,Pet Supermarket,29.8795038,-81.326146,32084
187,Pet Supermarket,30.2885374,-81.3956323,32250
188,Pet Supermarket,30.3175559,-81.4726537,32225
189,Pet Supermarket,30.1422699,-81.7658136,32065
190,Pet Supermarket,29.5540932,-81.22952409999999,32137
191,Pet Supermarket,29.2690141,-81.10086919999999,32174
192,PetSmart,30.3274361,-81.5482442,32225
193,PetSmart,30.4763902,-81.6426602,32218
194,Pet Supplies Plus Atlantic Beach,30.3259848,-81.4109848,32233
195,PetSmart,29.6229983,-82.3805296,32608
196,PetSmart,30.2711295,-81.3900309,32250
197,Pet Creations,30.4515094,-81.63737479999999,32218
198,Pet Supermarket,29.26164709999999,-81.02814049999999,32118
199,PetSmart,30.19998589999999,-81.5502113,32256
200,Pet Supermarket,30.2624511,-81.6237929,32217
201,Pet Supplies Plus Atlantic Beach,30.3259848,-81.4109848,32233
202,Pet Supermarket,30.2873056,-81.7213709,32210
203,Pet Supermarket,30.2640955,-81.55840649999999,32216
204,Pet Supermarket,29.8795038,-81.326146,32084
205,Pet Supermarket,30.1875604,-81.62707739999999,32257
206,Pet Supermarket,30.2054568,-81.7591583,32244
207,Pet Supermarket,29.675545,-82.33880669999999,32609
208,Pet Supermarket,30.3175559,-81.4726537,32225
209,Pet Supermarket,29.5540932,-81.22952409999999,32137
210,Pet Supermarket,30.2848241,-81.4610276,32224
211,Pet Creations,30.4515094,-81.63737479999999,32218
212,Pet Supermarket,30.3524532,-81.5812534,32277
213,Pet Supplies Plus Orange Park,30.155529,-81.7490349,32073
214,Pet and Feed Store,30.2473951,-81.7999338,32210
215,Earth Pets Natural Pet Market - San Marco,30.3082793,-81.65425330000001,32207
216,Pet Supermarket,30.1422699,-81.7658136,32065
217,EarthWise Pet,30.2903108,-81.3923713,32250
218,Petco,29.6571701,-82.4156051,32605
219,Pet Supermarket,30.1929248,-81.5487701,32256
220,Pet Supermarket,30.2624511,-81.6237929,32217
221,Pet Supplies Plus Atlantic Beach,30.3259848,-81.4109848,32233
222,Pet Supermarket,30.2873056,-81.7213709,32210
223,Pet Supermarket,30.2640955,-81.55840649999999,32216
224,Pet Supermarket,29.8795038,-81.326146,32084
225,Pet Supermarket,30.1875604,-81.62707739999999,32257
226,Pet Supermarket,29.675545,-82.33880669999999,32609
227,Pet Supermarket,30.2054568,-81.7591583,32244
228,Pet Supermarket,29.5540932,-81.22952409999999,32137
229,Pet Supermarket,30.3175559,-81.4726537,32225
230,Pet Supermarket,30.2848241,-81.4610276,32224
231,Pet Supermarket,30.3524532,-81.5812534,32277
232,Pet Supplies Plus Orange Park,30.155529,-81.7490349,32073
233,Pet Creations,30.4515094,-81.63737479999999,32218
234,Pet and Feed Store,30.2473951,-81.7999338,32210
235,Earth Pets Natural Pet Market - San Marco,30.3082793,-81.65425330000001,32207
236,Pet Supermarket,30.1422699,-81.7658136,32065
237,EarthWise Pet,30.2903108,-81.3923713,32250
238,Petco,29.6571701,-82.4156051,32605
239,Pet Supermarket,30.1929248,-81.5487701,32256
240,Pet Supermarket,30.2624511,-81.6237929,32217
241,Pet Supplies Plus Atlantic Beach,30.3259848,-81.4109848,32233
242,Pet Supermarket,30.2873056,-81.7213709,32210
243,Pet Supermarket,30.2640955,-81.55840649999999,32216
244,Pet Supermarket,29.8795038,-81.326146,32084
245,Pet Supermarket,30.1875604,-81.62707739999999,32257
246,Pet Supermarket,30.2054568,-81.7591583,32244
247,Pet Supermarket,29.675545,-82.33880669999999,32609
248,Pet Supermarket,30.3175559,-81.4726537,32225
249,Pet Supermarket,29.5540932,-81.22952409999999,32137
250,Pet Supermarket,30.2848241,-81.4610276,32224
251,Pet Creations,30.4515094,-81.63737479999999,32218
252,Pet Supermarket,30.3524532,-81.5812534,32277
253,Pet Supplies Plus Orange Park,30.155529,-81.7490349,32073
254,Pet and Feed Store,30.2473951,-81.7999338,32210
255,Earth Pets Natural Pet Market - San Marco,30.3082793,-81.65425330000001,32207
256,Pet Supermarket,30.1422699,-81.7658136,32065
257,Pet Supplies Plus Brunswick,31.2187829,-81.4944343,31520
258,EarthWise Pet,30.2903108,-81.3923713,32250
259,Petco,29.6571701,-82.4156051,32605
260,Pet Supermarket,30.2624511,-81.6237929,32217
261,Pet Supplies Plus Atlantic Beach,30.3259848,-81.4109848,32233
262,Pet Supermarket,30.2873056,-81.7213709,32210
263,Pet Supermarket,30.2640955,-81.55840649999999,32216
264,Pet Supermarket,29.8795038,-81.326146,32084
265,Pet Supermarket,30.1875604,-81.62707739999999,32257
266,Pet Supermarket,30.2054568,-81.7591583,32244
267,Pet Supermarket,29.675545,-82.33880669999999,32609
268,Pet Supermarket,30.3175559,-81.4726537,32225
269,Pet Supermarket,30.2848241,-81.4610276,32224
270,Pet Creations,30.4515094,-81.63737479999999,32218
271,Pet Supermarket,30.3524532,-81.5812534,32277
272,Pet Supplies Plus Orange Park,30.155529,-81.7490349,32073
273,Pet and Feed Store,30.2473951,-81.7999338,32210
274,Earth Pets Natural Pet Market - San Marco,30.3082793,-81.65425330000001,32207
275,Pet Supermarket,30.1422699,-81.7658136,32065
276,Pet Supplies Plus Brunswick,31.2187829,-81.4944343,31520
277,EarthWise Pet,30.2903108,-81.3923713,32250
278,Pet Supermarket,30.1929248,-81.5487701,32256
279,Pet Supermarket,30.2885374,-81.3956323,32250
280,Pet Supermarket,30.2054568,-81.7591583,32244
281,EarthWise Pet Gainesville,29.6741944,-82.3866566,32606
282,Pet Supplies Plus Orange Park,30.155529,-81.7490349,32073
283,Earth Pets Natural Pet Market Gainesville,29.6574197,-82.4070868,32607
284,Mia’s Blessing Pet Shop,30.2707199,-81.7382075,32210
285,Pet Supermarket,30.2873056,-81.7213709,32210
286,Pet Supermarket,29.675545,-82.33880669999999,32609
287,Pet Supermarket,30.1422699,-81.7658136,32065
288,Pet Supermarket,30.1804526,-82.6671503,32055
289,Pet Supermarket,29.187339,-82.1098148,34470
290,Petsense by Tractor Supply,29.1943796,-82.0882281,34470
291,Pet and Feed Store,30.2473951,-81.7999338,32210
292,Petco,29.6571701,-82.4156051,32605
293,McKinneys Pet Lovers Food And Supply Co.,30.8769217,-83.2903417,31602
294,Petsense,30.0621195,-81.8782332,32068
295,PetSmart,29.6229983,-82.3805296,32608
296,Petco,30.1042049,-81.708795,32003
297,PetSmart,29.6719119,-82.3878944,32605
298,Macclenny Pets & Supplies,30.2818823,-82.1283895,32063
299,PetSmart,30.188568,-81.7354083,32073
300,Pet Supermarket,30.2624511,-81.6237929,32217
301,PetSmart,30.19998589999999,-81.5502113,32256
302,Pet Supermarket,30.2640955,-81.55840649999999,32216
303,PetSmart,30.3274361,-81.5482442,32225
304,Pet Supermarket,30.1875604,-81.62707739999999,32257
305,PetSmart,30.4763902,-81.6426602,32218
306,Pet Supermarket,30.2054568,-81.7591583,32244
307,Pet Supermarket,29.675545,-82.33880669999999,32609
308,Pet Supermarket,30.2873056,-81.7213709,32210
309,Pet Supermarket,30.1422699,-81.7658136,32065
310,PetSmart,29.6229983,-82.3805296,32608
311,Pet Creations,30.4515094,-81.63737479999999,32218
312,PetSmart,30.1995024,-81.82314559999999,32222
313,PetSmart,30.188568,-81.7354083,32073
314,Pet Supermarket,30.3524532,-81.5812534,32277
315,Pet Supermarket,30.1929248,-81.5487701,32256
316,Pet Supermarket,30.1804526,-82.6671503,32055
317,Pet Supplies Plus Orange Park,30.155529,-81.7490349,32073
318,PetSmart,30.1598637,-81.6339273,32223
319,PetSmart,29.6719119,-82.3878944,32605
320,Pet Supermarket,30.2624511,-81.6237929,32217
321,Pet Supplies Plus Atlantic Beach,30.3259848,-81.4109848,32233
322,Pet Supermarket,30.2873056,-81.7213709,32210
323,Pet Supermarket,30.2640955,-81.55840649999999,32216
324,Pet Supermarket,29.8795038,-81.326146,32084
325,Pet Supermarket,30.1875604,-81.62707739999999,32257
326,Pet Supermarket,30.2054568,-81.7591583,32244
327,Pet Supermarket,29.675545,-82.33880669999999,32609
328,Pet Supermarket,29.187339,-82.1098148,34470
329,Pet Supermarket,30.3175559,-81.4726537,32225
330,Pet Supermarket,29.5540932,-81.22952409999999,32137
331,Pet Supermarket,30.2848241,-81.4610276,32224
332,Pet Creations,30.4515094,-81.63737479999999,32218
333,Pet Supermarket,30.3524532,-81.5812534,32277
334,Pet Supplies Plus Orange Park,30.155529,-81.7490349,32073
335,Pet and Feed Store,30.2473951,-81.7999338,32210
336,Earth Pets Natural Pet Market - San Marco,30.3082793,-81.65425330000001,32207
337,Pet Supermarket,30.1422699,-81.7658136,32065
338,EarthWise Pet,30.2903108,-81.3923713,32250
339,Petco,29.6571701,-82.4156051,32605
340,Pet Supermarket,30.2624511,-81.6237929,32217
341,Pet Supplies Plus Atlantic Beach,30.3259848,-81.4109848,32233
342,Pet Supermarket,30.2873056,-81.7213709,32210
343,Pet Supermarket,30.2640955,-81.55840649999999,32216
344,Pet Supermarket,29.8795038,-81.326146,32084
345,Pet Supermarket,30.1875604,-81.62707739999999,32257
346,Pet Supermarket,30.2054568,-81.7591583,32244
347,Pet Supermarket,29.675545,-82.33880669999999,32609
348,Pet Supermarket,30.3175559,-81.4726537,32225
349,Pet Supermarket,29.5540932,-81.22952409999999,32137
350,Pet Supermarket,30.2848241,-81.4610276,32224
351,Pet Creations,30.4515094,-81.63737479999999,32218
352,Pet Supermarket,30.3524532,-81.5812534,32277
353,Pet Supplies Plus Orange Park,30.155529,-81.7490349,32073
354,Pet and Feed Store,30.2473951,-81.7999338,32210
355,Earth Pets Natural Pet Market - San Marco,30.3082793,-81.65425330000001,32207
356,Pet Supermarket,30.1422699,-81.7658136,32065
357,EarthWise Pet,30.2903108,-81.3923713,32250
358,Petco,29.6571701,-82.4156051,32605
359,Pet Supermarket,30.1929248,-81.5487701,32256
360,Pet Supermarket,30.2640955,-81.55840649999999,32216
361,Pet Supermarket,29.187339,-82.1098148,34470
362,Pet Supermarket,30.2848241,-81.4610276,32224
363,Pet Supermarket,30.1875604,-81.62707739999999,32257
364,Pet Supermarket,30.2054568,-81.7591583,32244
365,Pet Supermarket,30.2873056,-81.7213709,32210
366,Pet Supermarket,30.2624511,-81.6237929,32217
367,Pet Supermarket,30.3175559,-81.4726537,32225
368,Pet Supermarket,28.9142272,-81.29114059999999,32763
369,Pet Supermarket,29.1263381,-81.00240389999999,32127
370,Pet Supermarket,30.1929248,-81.5487701,32256
371,Pet Supermarket,29.675545,-82.33880669999999,32609
372,Pet Supermarket,28.9870754,-81.2975503,32720
373,Pet Supermarket,29.8795038,-81.326146,32084
374,Pet Supermarket,30.3524532,-81.5812534,32277
375,Pet Supermarket,29.5540932,-81.22952409999999,32137
376,Pet Supermarket,30.1422699,-81.7658136,32065
377,EarthWise Pet Gainesville,29.6741944,-82.3866566,32606
378,Pet Supermarket,29.26164709999999,-81.02814049999999,32118
379,Pet Supermarket,28.88227779999999,-81.23992229999999,32725
380,Pet Supermarket,30.2624511,-81.6237929,32217
381,Pet Supplies Plus Atlantic Beach,30.3259848,-81.4109848,32233
382,Pet Creations,30.4515094,-81.63737479999999,32218
383,Pet Supermarket,30.2873056,-81.7213709,32210
384,Pet Supermarket,30.2640955,-81.55840649999999,32216
385,Pet Supermarket,29.8795038,-81.326146,32084
386,Pet Supermarket,30.1875604,-81.62707739999999,32257
387,Pet Supermarket,30.2054568,-81.7591583,32244
388,Pet Supermarket,30.3175559,-81.4726537,32225
389,Pet Supermarket,30.2848241,-81.4610276,32224
390,Pet Supermarket,30.3524532,-81.5812534,32277
391,Pet Supplies Plus Orange Park,30.155529,-81.7490349,32073
392,Pet and Feed Store,30.2473951,-81.7999338,32210
393,Earth Pets Natural Pet Market - San Marco,30.3082793,-81.65425330000001,32207
394,Pet Supermarket,30.1422699,-81.7658136,32065
395,Pet Supplies Plus Brunswick,31.2187829,-81.4944343,31520
396,EarthWise Pet,30.2903108,-81.3923713,32250
397,Pet Supermarket,30.1929248,-81.5487701,32256
398,Pet Supermarket,30.2885374,-81.3956323,32250
399,Petco,30.17193219999999,-81.6266911,32223
400,Pet Supermarket,30.2624511,-81.6237929,32217
401,Pet Supplies Plus Atlantic Beach,30.3259848,-81.4109848,32233
402,Pet Creations,30.4515094,-81.63737479999999,32218
403,Pet Supermarket,30.2873056,-81.7213709,32210
404,Pet Supermarket,30.2640955,-81.55840649999999,32216
405,Pet Supermarket,29.8795038,-81.326146,32084
406,Pet Supermarket,30.1875604,-81.62707739999999,32257
407,Pet Supermarket,30.2054568,-81.7591583,32244
408,Pet Supermarket,30.3175559,-81.4726537,32225
409,Pet Supermarket,30.2848241,-81.4610276,32224
410,Pet Supermarket,30.3524532,-81.5812534,32277
411,Pet Supplies Plus Orange Park,30.155529,-81.7490349,32073
412,Pet and Feed Store,30.2473951,-81.7999338,32210
413,Earth Pets Natural Pet Market - San Marco,30.3082793,-81.65425330000001,32207
414,Pet Supermarket,30.1422699,-81.7658136,32065
415,Pet Supplies Plus Brunswick,31.2187829,-81.4944343,31520
416,EarthWise Pet,30.2903108,-81.3923713,32250
417,Pet Supermarket,30.1929248,-81.5487701,32256
418,Pet Supermarket,30.2885374,-81.3956323,32250
419,Petco,30.17193219999999,-81.6266911,32223
420,Pet Supermarket,30.2054568,-81.7591583,32244
421,PetSmart,29.6229983,-82.3805296,32608
422,Pet Supermarket,29.675545,-82.33880669999999,32609
423,PetSmart,30.1995024,-81.82314559999999,32222
424,Pet Supermarket,30.2873056,-81.7213709,32210
425,PetSmart,30.188568,-81.7354083,32073
426,Pet Supermarket,30.1422699,-81.7658136,32065
427,PetSmart,29.1524562,-82.18069539999999,34474
428,Pet Supermarket,29.187339,-82.1098148,34470
429,Pet Supermarket,30.1804526,-82.6671503,32055
430,Pet Supplies Plus Orange Park,30.155529,-81.7490349,32073
431,PetSmart,29.6719119,-82.3878944,32605
432,EarthWise Pet Gainesville,29.6741944,-82.3866566,32606
433,Petsense by Tractor Supply,29.1943796,-82.0882281,34470
434,Pet and Feed Store,30.2473951,-81.7999338,32210
435,PetSmart,30.1813981,-82.6632782,32055
436,Lake City Pets and Supplies & Grooming,30.18679599999999,-82.6527431,32055
437,Earth Pets Natural Pet Market Gainesville,29.6574197,-82.4070868,32607
438,Petsense,30.0621195,-81.8782332,32068
439,Mia’s Blessing Pet Shop,30.2707199,-81.7382075,32210
440,Pet Supermarket,30.2624511,-81.6237929,32217
441,Pet Supermarket,30.2640955,-81.55840649999999,32216
442,Pet Supermarket,30.1875604,-81.62707739999999,32257
443,Pet Supermarket,30.2054568,-81.7591583,32244
444,Pet Supermarket,29.675545,-82.33880669999999,32609
445,Pet Supermarket,30.2873056,-81.7213709,32210
446,Pet Supermarket,29.8795038,-81.326146,32084
447,Pet Supermarket,30.2885374,-81.3956323,32250
448,Pet Supermarket,30.3175559,-81.4726537,32225
449,Pet Supermarket,30.1422699,-81.7658136,32065
450,Pet Supermarket,29.5540932,-81.22952409999999,32137
451,PetSmart,30.19998589999999,-81.5502113,32256
452,PetSmart,30.3274361,-81.5482442,32225
453,PetSmart,30.4763902,-81.6426602,32218
454,Pet Supplies Plus Atlantic Beach,30.3259848,-81.4109848,32233
455,PetSmart,29.6229983,-82.3805296,32608
456,PetSmart,30.2711295,-81.3900309,32250
457,Pet Creations,30.4515094,-81.63737479999999,32218
458,Pet Supermarket,30.2848241,-81.4610276,32224
459,PetSmart,30.1995024,-81.82314559999999,32222
460,Pet Supermarket,30.2624511,-81.6237929,32217
461,Pet Supplies Plus Atlantic Beach,30.3259848,-81.4109848,32233
462,Pet Creations,30.4515094,-81.63737479999999,32218
463,Pet Supermarket,30.2873056,-81.7213709,32210
464,Pet Supermarket,30.2640955,-81.55840649999999,32216
465,Pet Supermarket,29.8795038,-81.326146,32084
466,Pet Supermarket,30.1875604,-81.62707739999999,32257
467,Pet Supermarket,30.2054568,-81.7591583,32244
468,Pet Supermarket,30.3175559,-81.4726537,32225
469,Pet Supermarket,30.2848241,-81.4610276,32224
470,Pet Supermarket,30.3524532,-81.5812534,32277
471,Pet Supplies Plus Orange Park,30.155529,-81.7490349,32073
472,Pet and Feed Store,30.2473951,-81.7999338,32210
473,Earth Pets Natural Pet Market - San Marco,30.3082793,-81.65425330000001,32207
474,Pet Supermarket,30.1422699,-81.7658136,32065
475,Pet Supplies Plus Brunswick,31.2187829,-81.4944343,31520
476,EarthWise Pet,30.2903108,-81.3923713,32250
477,Pet Supermarket,30.1929248,-81.5487701,32256
478,Pet Supermarket,30.2885374,-81.3956323,32250
479,Petco,30.17193219999999,-81.6266911,32223
480,Pet Supermarket,30.2624511,-81.6237929,32217
481,Pet Supplies Plus Atlantic Beach,30.3259848,-81.4109848,32233
482,Pet Supermarket,30.2873056,-81.7213709,32210
483,Pet Supermarket,30.2640955,-81.55840649999999,32216
484,Pet Supermarket,29.8795038,-81.326146,32084
485,Pet Supermarket,30.1875604,-81.62707739999999,32257
486,Pet Supermarket,30.2054568,-81.7591583,32244
487,Pet Supermarket,29.675545,-82.33880669999999,32609
488,Pet Supermarket,29.187339,-82.1098148,34470
489,Pet Supermarket,30.3175559,-81.4726537,32225
490,Pet Supermarket,29.5540932,-81.22952409999999,32137
491,Pet Supermarket,30.2848241,-81.4610276,32224
492,Pet Creations,30.4515094,-81.63737479999999,32218
493,Pet Supermarket,30.3524532,-81.5812534,32277
494,Petco,29.1435119,-82.1877512,34474
495,Pet Supplies Plus Orange Park,30.155529,-81.7490349,32073
496,Pet and Feed Store,30.2473951,-81.7999338,32210
497,Earth Pets Natural Pet Market - San Marco,30.3082793,-81.65425330000001,32207
498,Pet Supermarket,30.1422699,-81.7658136,32065
499,EarthWise Pet,30.2903108,-81.3923713,32250
500,Pet Supermarket,30.2624511,-81.6237929,32217
501,Pet Supplies Plus Atlantic Beach,30.3259848,-81.4109848,32233
502,Pet Supermarket,30.2873056,-81.7213709,32210
503,Pet Supermarket,30.2640955,-81.55840649999999,32216
504,Pet Supermarket,29.8795038,-81.326146,32084
505,Pet Supermarket,30.1875604,-81.62707739999999,32257
506,Pet Supermarket,30.2054568,-81.7591583,32244
507,Pet Supermarket,29.675545,-82.33880669999999,32609
508,Pet Supermarket,29.187339,-82.1098148,34470
509,Pet Supermarket,30.3175559,-81.4726537,32225
510,Pet Supermarket,29.5540932,-81.22952409999999,32137
511,Pet Supermarket,30.2848241,-81.4610276,32224
512,Pet Creations,30.4515094,-81.63737479999999,32218
513,Pet Supermarket,30.3524532,-81.5812534,32277
514,Petco,29.1435119,-82.1877512,34474
515,Pet Supplies Plus Orange Park,30.155529,-81.7490349,32073
516,Pet and Feed Store,30.2473951,-81.7999338,32210
517,Pet Supermarket,29.1263381,-81.00240389999999,32127
518,Earth Pets Natural Pet Market - San Marco,30.3082793,-81.65425330000001,32207
519,Pet Supermarket,30.1422699,-81.7658136,32065
520,Pet Supermarket,30.2624511,-81.6237929,32217
521,Pet Supplies Plus Atlantic Beach,30.3259848,-81.4109848,32233
522,Pet Supermarket,30.2873056,-81.7213709,32210
523,Pet Supermarket,30.2640955,-81.55840649999999,32216
524,Pet Supermarket,29.8795038,-81.326146,32084
525,Pet Supermarket,30.1875604,-81.62707739999999,32257
526,Pet Supermarket,30.2054568,-81.7591583,32244
527,Pet Supermarket,29.675545,-82.33880669999999,32609
528,Pet Supermarket,29.187339,-82.1098148,34470
529,Pet Supermarket,30.3175559,-81.4726537,32225
530,Pet Supermarket,29.5540932,-81.22952409999999,32137
531,Pet Supermarket,30.2848241,-81.4610276,32224
532,Pet Creations,30.4515094,-81.63737479999999,32218
533,Pet Supermarket,30.3524532,-81.5812534,32277
534,Petco,29.1435119,-82.1877512,34474
535,Pet Supplies Plus Orange Park,30.155529,-81.7490349,32073
536,Pet and Feed Store,30.2473951,-81.7999338,32210
537,Earth Pets Natural Pet Market - San Marco,30.3082793,-81.65425330000001,32207
538,Pet Supermarket,30.1422699,-81.7658136,32065
539,EarthWise Pet,30.2903108,-81.3923713,32250
540,Pet Supermarket,30.2624511,-81.6237929,32217
541,Pet Supplies Plus Atlantic Beach,30.3259848,-81.4109848,32233
542,Pet Creations,30.4515094,-81.63737479999999,32218
543,Pet Supermarket,30.2873056,-81.7213709,32210
544,Pet Supermarket,30.2640955,-81.55840649999999,32216
545,Pet Supermarket,29.8795038,-81.326146,32084
546,Pet Supermarket,30.1875604,-81.62707739999999,32257
547,Pet Supermarket,30.2054568,-81.7591583,32244
548,Pet Supermarket,30.3175559,-81.4726537,32225
549,Pet Supermarket,30.2848241,-81.4610276,32224
550,Pet Supermarket,30.3524532,-81.5812534,32277
551,Pet Supplies Plus Orange Park,30.155529,-81.7490349,32073
552,Pet and Feed Store,30.2473951,-81.7999338,32210
553,Earth Pets Natural Pet Market - San Marco,30.3082793,-81.65425330000001,32207
554,Pet Supermarket,30.1422699,-81.7658136,32065
555,Pet Supplies Plus Brunswick,31.2187829,-81.4944343,31520
556,EarthWise Pet,30.2903108,-81.3923713,32250
557,Pet Supermarket,30.1929248,-81.5487701,32256
558,Pet Supermarket,30.2885374,-81.3956323,32250
559,Petco,30.17193219999999,-81.6266911,32223
560,Pet Supermarket,30.2624511,-81.6237929,32217
561,Pet Supplies Plus Atlantic Beach,30.3259848,-81.4109848,32233
562,Pet Supermarket,30.2873056,-81.7213709,32210
563,Pet Supermarket,30.2640955,-81.55840649999999,32216
564,Pet Supermarket,29.8795038,-81.326146,32084
565,Pet Supermarket,30.1875604,-81.62707739999999,32257
566,Pet Supermarket,30.2054568,-81.7591583,32244
567,Pet Supermarket,29.675545,-82.33880669999999,32609
568,Pet Supermarket,29.187339,-82.1098148,34470
569,Pet Supermarket,30.3175559,-81.4726537,32225
570,Pet Supermarket,29.5540932,-81.22952409999999,32137
571,Pet Supermarket,30.2848241,-81.4610276,32224
572,Pet Creations,30.4515094,-81.63737479999999,32218
573,Pet Supermarket,30.3524532,-81.5812534,32277
574,Pet Supplies Plus Orange Park,30.155529,-81.7490349,32073
575,Pet and Feed Store,30.2473951,-81.7999338,32210
576,Earth Pets Natural Pet Market - San Marco,30.3082793,-81.65425330000001,32207
577,Pet Supermarket,30.1422699,-81.7658136,32065
578,EarthWise Pet,30.2903108,-81.3923713,32250
579,Petco,29.6571701,-82.4156051,32605
580,Pet Supermarket,30.2624511,-81.6237929,32217
581,Pet Supplies Plus Atlantic Beach,30.3259848,-81.4109848,32233
582,Pet Supermarket,30.2873056,-81.7213709,32210
583,Pet Supermarket,30.2640955,-81.55840649999999,32216
584,Pet Supermarket,29.8795038,-81.326146,32084
585,Pet Supermarket,30.1875604,-81.62707739999999,32257
586,Pet Supermarket,30.2054568,-81.7591583,32244
587,Pet Supermarket,29.675545,-82.33880669999999,32609
588,Pet Supermarket,29.187339,-82.1098148,34470
589,Pet Supermarket,30.3175559,-81.4726537,32225
590,Pet Supermarket,30.2848241,-81.4610276,32224
591,Pet Creations,30.4515094,-81.63737479999999,32218
592,Pet Supermarket,30.3524532,-81.5812534,32277
593,Petco,29.1435119,-82.1877512,34474
594,Pet Supplies Plus Orange Park,30.155529,-81.7490349,32073
595,Pet and Feed Store,30.2473951,-81.7999338,32210
596,Earth Pets Natural Pet Market - San Marco,30.3082793,-81.65425330000001,32207
597,Pet Supermarket,30.1422699,-81.7658136,32065
598,EarthWise Pet,30.2903108,-81.3923713,32250
599,Petco,29.6571701,-82.4156051,32605
600,Pet Supermarket,30.2624511,-81.6237929,32217
601,Pet Creations,30.4515094,-81.63737479999999,32218
602,Pet Supplies Plus Orange Park,30.155529,-81.7490349,32073
603,Pet and Feed Store,30.2473951,-81.7999338,32210
604,Earth Pets Natural Pet Market - San Marco,30.3082793,-81.65425330000001,32207
605,Pet Supermarket,30.2873056,-81.7213709,32210
606,Pet Supermarket,30.1875604,-81.62707739999999,32257
607,Pet Supermarket,30.2054568,-81.7591583,32244
608,Pet Supermarket,29.675545,-82.33880669999999,32609
609,Pet Supermarket,30.1422699,-81.7658136,32065
610,Petco,29.6571701,-82.4156051,32605
611,Petco,30.17193219999999,-81.6266911,32223
612,Lake City Pets and Supplies & Grooming,30.18679599999999,-82.6527431,32055
613,Pet Supplies Plus St. Mary's,30.77645,-81.6207945,31558
614,Pet Supermarket,30.1804526,-82.6671503,32055
615,PetSmart,29.6229983,-82.3805296,32608
616,PetSmart,29.6719119,-82.3878944,32605
617,Pet Supplies Plus University,30.2601804,-81.6431978,32217
618,Earth Pets Natural Pet Market Gainesville,29.6574197,-82.4070868,32607
619,PetSmart,30.188568,-81.7354083,32073
620,Pet Supermarket,30.2624511,-81.6237929,32217
621,Pet Creations,30.4515094,-81.63737479999999,32218
622,Pet Supplies Plus Orange Park,30.155529,-81.7490349,32073
623,Pet and Feed Store,30.2473951,-81.7999338,32210
624,Earth Pets Natural Pet Market - San Marco,30.3082793,-81.65425330000001,32207
625,Pet Supermarket,30.2873056,-81.7213709,32210
626,Pet Supermarket,30.1875604,-81.62707739999999,32257
627,Pet Supermarket,30.2054568,-81.7591583,32244
628,Pet Supermarket,29.675545,-82.33880669999999,32609
629,Pet Supermarket,30.1422699,-81.7658136,32065
630,Petco,29.6571701,-82.4156051,32605
631,Petco,30.17193219999999,-81.6266911,32223
632,Lake City Pets and Supplies & Grooming,30.18679599999999,-82.6527431,32055
633,Pet Supplies Plus St. Mary's,30.77645,-81.6207945,31558
634,Pet Supermarket,30.1804526,-82.6671503,32055
635,PetSmart,29.6229983,-82.3805296,32608
636,PetSmart,29.6719119,-82.3878944,32605
637,Pet Supplies Plus University,30.2601804,-81.6431978,32217
638,Earth Pets Natural Pet Market Gainesville,29.6574197,-82.4070868,32607
639,PetSmart,30.188568,-81.7354083,32073
640,Pet Supermarket,30.2624511,-81.6237929,32217
641,Pet Supplies Plus Atlantic Beach,30.3259848,-81.4109848,32233
642,Pet Supermarket,30.2873056,-81.7213709,32210
643,Pet Supermarket,30.2640955,-81.55840649999999,32216
644,Pet Supermarket,29.8795038,-81.326146,32084
645,Pet Supermarket,30.1875604,-81.62707739999999,32257
646,Pet Supermarket,30.2054568,-81.7591583,32244
647,Pet Supermarket,29.675545,-82.33880669999999,32609
648,Pet Supermarket,29.187339,-82.1098148,34470
649,Pet Supermarket,30.3175559,-81.4726537,32225
650,Pet Supermarket,29.5540932,-81.22952409999999,32137
651,Pet Supermarket,30.2848241,-81.4610276,32224
652,Pet Creations,30.4515094,-81.63737479999999,32218
653,Pet Supermarket,30.3524532,-81.5812534,32277
654,Petco,29.1435119,-82.1877512,34474
655,Pet Supplies Plus Orange Park,30.155529,-81.7490349,32073
656,Pet and Feed Store,30.2473951,-81.7999338,32210
657,Earth Pets Natural Pet Market - San Marco,30.3082793,-81.65425330000001,32207
658,Pet Supermarket,30.1422699,-81.7658136,32065
659,EarthWise Pet,30.2903108,-81.3923713,32250
660,Pet Supermarket,30.2624511,-81.6237929,32217
661,Pet Creations,30.4515094,-81.63737479999999,32218
662,Pet Supermarket,30.3524532,-81.5812534,32277
663,Pet Supermarket,30.2873056,-81.7213709,32210
664,Pet Supermarket,30.2640955,-81.55840649999999,32216
665,Pet Supermarket,30.1875604,-81.62707739999999,32257
666,Pet Supermarket,30.2054568,-81.7591583,32244
667,Pet Supermarket,29.675545,-82.33880669999999,32609
668,Pet Supermarket,30.3175559,-81.4726537,32225
669,Pet Supermarket,30.2848241,-81.4610276,32224
670,Pet Supplies Plus Orange Park,30.155529,-81.7490349,32073
671,Pet and Feed Store,30.2473951,-81.7999338,32210
672,Earth Pets Natural Pet Market - San Marco,30.3082793,-81.65425330000001,32207
673,Pet Supermarket,30.1422699,-81.7658136,32065
674,Petco,29.6571701,-82.4156051,32605
675,Pet Supermarket,30.1929248,-81.5487701,32256
676,Petco,30.17193219999999,-81.6266911,32223
677,Lake City Pets and Supplies & Grooming,30.18679599999999,-82.6527431,32055
678,Pet Supplies Plus St. Mary's,30.77645,-81.6207945,31558
679,Pet Supermarket,30.1804526,-82.6671503,32055
680,Pet Supermarket,30.2624511,-81.6237929,32217
681,Pet Supplies Plus Atlantic Beach,30.3259848,-81.4109848,32233
682,Pet Supermarket,30.2873056,-81.7213709,32210
683,Pet Supermarket,30.2640955,-81.55840649999999,32216
684,Pet Supermarket,29.8795038,-81.326146,32084
685,Pet Supermarket,30.1875604,-81.62707739999999,32257
686,Pet Supermarket,30.2054568,-81.7591583,32244
687,Pet Supermarket,29.675545,-82.33880669999999,32609
688,Pet Supermarket,30.3175559,-81.4726537,32225
689,Pet Supermarket,29.5540932,-81.22952409999999,32137
690,Pet Supermarket,30.2848241,-81.4610276,32224
691,Pet Creations,30.4515094,-81.63737479999999,32218
692,Pet Supermarket,30.3524532,-81.5812534,32277
693,Pet Supplies Plus Orange Park,30.155529,-81.7490349,32073
694,Pet and Feed Store,30.2473951,-81.7999338,32210
695,Earth Pets Natural Pet Market - San Marco,30.3082793,-81.65425330000001,32207
696,Pet Supermarket,30.1422699,-81.7658136,32065
697,EarthWise Pet,30.2903108,-81.3923713,32250
698,Petco,29.6571701,-82.4156051,32605
699,Pet Supermarket,30.1929248,-81.5487701,32256
700,Pet Supermarket,30.2624511,-81.6237929,32217
701,Pet Supermarket,30.2640955,-81.55840649999999,32216
702,Pet Supermarket,30.1875604,-81.62707739999999,32257
703,Pet Supermarket,30.2054568,-81.7591583,32244
704,Pet Supermarket,29.675545,-82.33880669999999,32609
705,Pet Supermarket,30.2873056,-81.7213709,32210
706,Pet Supermarket,29.8795038,-81.326146,32084
707,Pet Supermarket,30.2885374,-81.3956323,32250
708,Pet Supermarket,30.3175559,-81.4726537,32225
709,Pet Supermarket,30.1422699,-81.7658136,32065
710,Pet Supermarket,29.5540932,-81.22952409999999,32137
711,Pet Supermarket,29.2690141,-81.10086919999999,32174
712,PetSmart,30.3274361,-81.5482442,32225
713,PetSmart,30.4763902,-81.6426602,32218
714,Pet Supplies Plus Atlantic Beach,30.3259848,-81.4109848,32233
715,PetSmart,29.6229983,-82.3805296,32608
716,PetSmart,30.2711295,-81.3900309,32250
717,Pet Creations,30.4515094,-81.63737479999999,32218
718,Pet Supermarket,29.26164709999999,-81.02814049999999,32118
719,PetSmart,30.19998589999999,-81.5502113,32256
720,Pet Supermarket,30.2624511,-81.6237929,32217
721,Pet Supermarket,30.2640955,-81.55840649999999,32216
722,Pet Supermarket,30.1875604,-81.62707739999999,32257
723,Pet Supermarket,30.2054568,-81.7591583,32244
724,Pet Supermarket,29.675545,-82.33880669999999,32609
725,Pet Supermarket,30.2873056,-81.7213709,32210
726,Pet Supermarket,29.8795038,-81.326146,32084
727,Pet Supermarket,30.2885374,-81.3956323,32250
728,Pet Supermarket,30.3175559,-81.4726537,32225
729,Pet Supermarket,30.1422699,-81.7658136,32065
730,Pet Supermarket,29.5540932,-81.22952409999999,32137
731,Pet Supermarket,29.2690141,-81.10086919999999,32174
732,PetSmart,30.19998589999999,-81.5502113,32256
733,PetSmart,30.3274361,-81.5482442,32225
734,PetSmart,30.4763902,-81.6426602,32218
735,Pet Supplies Plus Atlantic Beach,30.3259848,-81.4109848,32233
736,PetSmart,29.6229983,-82.3805296,32608
737,PetSmart,30.2711295,-81.3900309,32250
738,Pet Creations,30.4515094,-81.63737479999999,32218
739,Pet Supermarket,29.26164709999999,-81.02814049999999,32118
740,Pet Supermarket,30.2624511,-81.6237929,32217
741,Pet Supplies Plus Atlantic Beach,30.3259848,-81.4109848,32233
742,Pet Supermarket,30.2873056,-81.7213709,32210
743,Pet Supermarket,30.2640955,-81.55840649999999,32216
744,Pet Supermarket,29.8795038,-81.326146,32084
745,Pet Supermarket,30.1875604,-81.62707739999999,32257
746,Pet Supermarket,30.2054568,-81.7591583,32244
747,Pet Supermarket,29.675545,-82.33880669999999,32609
748,Pet Supermarket,29.187339,-82.1098148,34470
749,Pet Supermarket,30.3175559,-81.4726537,32225
750,Pet Supermarket,29.5540932,-81.22952409999999,32137
751,Pet Supermarket,30.2848241,-81.4610276,32224
752,Pet Creations,30.4515094,-81.63737479999999,32218
753,Pet Supermarket,30.3524532,-81.5812534,32277
754,Pet Supplies Plus Orange Park,30.155529,-81.7490349,32073
755,Pet and Feed Store,30.2473951,-81.7999338,32210
756,Earth Pets Natural Pet Market - San Marco,30.3082793,-81.65425330000001,32207
757,Pet Supermarket,30.1422699,-81.7658136,32065
758,EarthWise Pet,30.2903108,-81.3923713,32250
759,Petco,29.6571701,-82.4156051,32605
760,Pet Supermarket,30.2624511,-81.6237929,32217
761,Pet Supplies Plus Atlantic Beach,30.3259848,-81.4109848,32233
762,Pet Creations,30.4515094,-81.63737479999999,32218
763,Pet Supermarket,30.2873056,-81.7213709,32210
764,Pet Supermarket,30.2640955,-81.55840649999999,32216
765,Pet Supermarket,30.1875604,-81.62707739999999,32257
766,Pet Supermarket,30.2054568,-81.7591583,32244
767,Pet Supermarket,29.675545,-82.33880669999999,32609
768,Pet Supermarket,30.3175559,-81.4726537,32225
769,Pet Supermarket,30.2848241,-81.4610276,32224
770,Pet Supermarket,30.3524532,-81.5812534,32277
771,Pet Supplies Plus Orange Park,30.155529,-81.7490349,32073
772,Pet and Feed Store,30.2473951,-81.7999338,32210
773,Earth Pets Natural Pet Market - San Marco,30.3082793,-81.65425330000001,32207
774,Pet Supermarket,30.1422699,-81.7658136,32065
775,EarthWise Pet,30.2903108,-81.3923713,32250
776,Petco,29.6571701,-82.4156051,32605
777,Pet Supermarket,30.1929248,-81.5487701,32256
778,Pet Supermarket,30.2885374,-81.3956323,32250
779,Petco,30.17193219999999,-81.6266911,32223
780,Pet Supermarket,30.2624511,-81.6237929,32217
781,Pet Supermarket,30.2640955,-81.55840649999999,32216
782,Pet Supermarket,30.1875604,-81.62707739999999,32257
783,Pet Supermarket,30.2054568,-81.7591583,32244
784,Pet Supermarket,29.675545,-82.33880669999999,32609
785,Pet Supermarket,30.2873056,-81.7213709,32210
786,Pet Supermarket,29.8795038,-81.326146,32084
787,Pet Supermarket,30.2885374,-81.3956323,32250
788,Pet Supermarket,30.3175559,-81.4726537,32225
789,Pet Supermarket,30.1422699,-81.7658136,32065
790,Pet Supermarket,29.5540932,-81.22952409999999,32137
791,Pet Supermarket,29.2690141,-81.10086919999999,32174
792,PetSmart,30.19998589999999,-81.5502113,32256
793,PetSmart,30.3274361,-81.5482442,32225
794,PetSmart,30.4763902,-81.6426602,32218
795,Pet Supplies Plus Atlantic Beach,30.3259848,-81.4109848,32233
796,PetSmart,29.6229983,-82.3805296,32608
797,PetSmart,30.2711295,-81.3900309,32250
798,Pet Creations,30.4515094,-81.63737479999999,32218
799,Pet Supermarket,29.26164709999999,-81.02814049999999,32118
800,Pet Supermarket,30.2624511,-81.6237929,32217
801,Pet Supplies Plus Atlantic Beach,30.3259848,-81.4109848,32233
802,Pet Supermarket,30.2873056,-81.7213709,32210
803,Pet Supermarket,30.2640955,-81.55840649999999,32216
804,Pet Supermarket,29.8795038,-81.326146,32084
805,Pet Supermarket,30.1875604,-81.62707739999999,32257
806,Pet Supermarket,30.2054568,-81.7591583,32244
807,Pet Supermarket,29.675545,-82.33880669999999,32609
808,Pet Supermarket,29.187339,-82.1098148,34470
809,Pet Supermarket,30.3175559,-81.4726537,32225
810,Pet Supermarket,29.5540932,-81.22952409999999,32137
811,Pet Supermarket,30.2848241,-81.4610276,32224
812,Pet Creations,30.4515094,-81.63737479999999,32218
813,Pet Supermarket,30.3524532,-81.5812534,32277
814,Petco,29.1435119,-82.1877512,34474
815,Pet Supplies Plus Orange Park,30.155529,-81.7490349,32073
816,Pet and Feed Store,30.2473951,-81.7999338,32210
817,Pet Supermarket,29.1263381,-81.00240389999999,32127
818,Earth Pets Natural Pet Market - San Marco,30.3082793,-81.65425330000001,32207
819,Pet Supermarket,30.1422699,-81.7658136,32065
820,Pet Supermarket,30.2624511,-81.6237929,32217
821,Pet Supplies Plus Atlantic Beach,30.3259848,-81.4109848,32233
822,Pet Supermarket,30.2873056,-81.7213709,32210
823,Pet Supermarket,30.2640955,-81.55840649999999,32216
824,Pet Supermarket,29.8795038,-81.326146,32084
825,Pet Supermarket,30.1875604,-81.62707739999999,32257
826,Pet Supermarket,30.2054568,-81.7591583,32244
827,Pet Supermarket,29.187339,-82.1098148,34470
828,Pet Supermarket,30.3175559,-81.4726537,32225
829,Pet Supermarket,29.5540932,-81.22952409999999,32137
830,Pet Supermarket,30.2848241,-81.4610276,32224
831,Pet Creations,30.4515094,-81.63737479999999,32218
832,Pet Supermarket,30.3524532,-81.5812534,32277
833,Petco,29.1435119,-82.1877512,34474
834,Pet Supermarket,28.9142272,-81.29114059999999,32763
835,Pet Supplies Plus Orange Park,30.155529,-81.7490349,32073
836,Pet and Feed Store,30.2473951,-81.7999338,32210
837,Pet Supermarket,29.1263381,-81.00240389999999,32127
838,Earth Pets Natural Pet Market - San Marco,30.3082793,-81.65425330000001,32207
839,Pet Supermarket,30.1422699,-81.7658136,32065
840,Pet Supermarket,30.2624511,-81.6237929,32217
841,Pet Supplies Plus Atlantic Beach,30.3259848,-81.4109848,32233
842,Pet Supermarket,30.2873056,-81.7213709,32210
843,Pet Supermarket,30.2640955,-81.55840649999999,32216
844,Pet Supermarket,29.8795038,-81.326146,32084
845,Pet Supermarket,30.1875604,-81.62707739999999,32257
846,Pet Supermarket,30.2054568,-81.7591583,32244
847,Pet Supermarket,29.675545,-82.33880669999999,32609
848,Pet Supermarket,29.187339,-82.1098148,34470
849,Pet Supermarket,30.3175559,-81.4726537,32225
850,Pet Supermarket,29.5540932,-81.22952409999999,32137
851,Pet Supermarket,30.2848241,-81.4610276,32224
852,Pet Creations,30.4515094,-81.63737479999999,32218
853,Pet Supermarket,30.3524532,-81.5812534,32277
854,Pet Supplies Plus Orange Park,30.155529,-81.7490349,32073
855,Pet and Feed Store,30.2473951,-81.7999338,32210
856,Earth Pets Natural Pet Market - San Marco,30.3082793,-81.65425330000001,32207
857,Pet Supermarket,30.1422699,-81.7658136,32065
858,EarthWise Pet,30.2903108,-81.3923713,32250
859,Petco,29.6571701,-82.4156051,32605
860,Pet Supermarket,30.2640955,-81.55840649999999,32216
861,Pet Supermarket,30.2848241,-81.4610276,32224
862,Pet Supermarket,30.1875604,-81.62707739999999,32257
863,Pet Supermarket,30.2054568,-81.7591583,32244
864,Pet Supermarket,30.2873056,-81.7213709,32210
865,Pet Supermarket,30.2624511,-81.6237929,32217
866,Pet Supermarket,30.3175559,-81.4726537,32225
867,Pet Supermarket,30.1929248,-81.5487701,32256
868,Pet Supermarket,29.675545,-82.33880669999999,32609
869,Pet Supermarket,29.8795038,-81.326146,32084
870,Pet Supermarket,30.3524532,-81.5812534,32277
871,Pet Supermarket,29.5540932,-81.22952409999999,32137
872,Pet Supermarket,30.1422699,-81.7658136,32065
873,EarthWise Pet Gainesville,29.6741944,-82.3866566,32606
874,Pet Supermarket,30.1896934,-81.3814926,32082
875,Pet Supplies Plus Atlantic Beach,30.3259848,-81.4109848,32233
876,Pet Supermarket,30.2885374,-81.3956323,32250
877,Pet Supplies Plus Orange Park,30.155529,-81.7490349,32073
878,Pet Supplies Plus University,30.2601804,-81.6431978,32217
879,EarthWise Pet,30.2903108,-81.3923713,32250
880,Pet Supermarket,30.2624511,-81.6237929,32217
881,Pet Supermarket,30.2640955,-81.55840649999999,32216
882,Pet Supermarket,30.1875604,-81.62707739999999,32257
883,Pet Supermarket,30.2054568,-81.7591583,32244
884,Pet Supermarket,29.675545,-82.33880669999999,32609
885,Pet Supermarket,30.2873056,-81.7213709,32210
886,Pet Supermarket,29.8795038,-81.326146,32084
887,Pet Supermarket,30.2885374,-81.3956323,32250
888,Pet Supermarket,30.3175559,-81.4726537,32225
889,Pet Supermarket,30.1422699,-81.7658136,32065
890,Pet Supermarket,29.5540932,-81.22952409999999,32137
891,PetSmart,30.19998589999999,-81.5502113,32256
892,PetSmart,30.3274361,-81.5482442,32225
893,Pet Supermarket,29.187339,-82.1098148,34470
894,PetSmart,30.4763902,-81.6426602,32218
895,Pet Supplies Plus Atlantic Beach,30.3259848,-81.4109848,32233
896,PetSmart,29.6229983,-82.3805296,32608
897,PetSmart,30.2711295,-81.3900309,32250
898,Pet Creations,30.4515094,-81.63737479999999,32218
899,Pet Supermarket,30.2848241,-81.4610276,32224
900,Pet Supermarket,30.2624511,-81.6237929,32217
901,Pet Supplies Plus Atlantic Beach,30.3259848,-81.4109848,32233
902,Pet Supermarket,30.2873056,-81.7213709,32210
903,Pet Supermarket,30.2640955,-81.55840649999999,32216
904,Pet Supermarket,29.8795038,-81.326146,32084
905,Pet Supermarket,30.1875604,-81.62707739999999,32257
906,Pet Supermarket,30.2054568,-81.7591583,32244
907,Pet Supermarket,29.675545,-82.33880669999999,32609
908,Pet Supermarket,29.187339,-82.1098148,34470
909,Pet Supermarket,30.3175559,-81.4726537,32225
910,Pet Supermarket,29.5540932,-81.22952409999999,32137
911,Pet Supermarket,30.2848241,-81.4610276,32224
912,Pet Creations,30.4515094,-81.63737479999999,32218
913,Pet Supermarket,30.3524532,-81.5812534,32277
914,Petco,29.1435119,-82.1877512,34474
915,Pet Supplies Plus Orange Park,30.155529,-81.7490349,32073
916,Pet and Feed Store,30.2473951,-81.7999338,32210
917,Pet Supermarket,29.1263381,-81.00240389999999,32127
918,Earth Pets Natural Pet Market - San Marco,30.3082793,-81.65425330000001,32207
919,Pet Supermarket,30.1422699,-81.7658136,32065
920,Pet Supermarket,30.2624511,-81.6237929,32217
921,Pet Supplies Plus Atlantic Beach,30.3259848,-81.4109848,32233
922,Pet Supermarket,30.2873056,-81.7213709,32210
923,Pet Supermarket,30.2640955,-81.55840649999999,32216
924,Pet Supermarket,29.8795038,-81.326146,32084
925,Pet Supermarket,30.1875604,-81.62707739999999,32257
926,Pet Supermarket,30.2054568,-81.7591583,32244
927,Pet Supermarket,29.675545,-82.33880669999999,32609
928,Pet Supermarket,29.187339,-82.1098148,34470
929,Pet Supermarket,30.3175559,-81.4726537,32225
930,Pet Supermarket,29.5540932,-81.22952409999999,32137
931,Pet Supermarket,30.2848241,-81.4610276,32224
932,Pet Creations,30.4515094,-81.63737479999999,32218
933,Pet Supermarket,30.3524532,-81.5812534,32277
934,Petco,29.1435119,-82.1877512,34474
935,Pet Supplies Plus Orange Park,30.155529,-81.7490349,32073
936,Pet and Feed Store,30.2473951,-81.7999338,32210
937,Pet Supermarket,29.1263381,-81.00240389999999,32127
938,Earth Pets Natural Pet Market - San Marco,30.3082793,-81.65425330000001,32207
939,Pet Supermarket,30.1422699,-81.7658136,32065
940,Pet Supermarket,30.2624511,-81.6237929,32217
941,Pet Supplies Plus Atlantic Beach,30.3259848,-81.4109848,32233
942,Pet Supermarket,30.2873056,-81.7213709,32210
943,Pet Supermarket,30.2640955,-81.55840649999999,32216
944,Pet Supermarket,29.8795038,-81.326146,32084
945,Pet Supermarket,30.1875604,-81.62707739999999,32257
946,Pet Supermarket,30.2054568,-81.7591583,32244
947,Pet Supermarket,29.187339,-82.1098148,34470
948,Pet Supermarket,30.3175559,-81.4726537,32225
949,Pet Supermarket,29.5540932,-81.22952409999999,32137
950,Pet Supermarket,30.2848241,-81.4610276,32224
951,Pet Creations,30.4515094,-81.63737479999999,32218
952,Pet Supermarket,30.3524532,-81.5812534,32277
953,Petco,29.1435119,-82.1877512,34474
954,Pet Supermarket,28.9142272,-81.29114059999999,32763
955,Pet Supplies Plus Orange Park,30.155529,-81.7490349,32073
956,Pet and Feed Store,30.2473951,-81.7999338,32210
957,Pet Supermarket,29.1263381,-81.00240389999999,32127
958,Earth Pets Natural Pet Market - San Marco,30.3082793,-81.65425330000001,32207
959,Pet Supermarket,30.1422699,-81.7658136,32065
960,Pet Supermarket,30.2624511,-81.6237929,32217
961,Pet Supermarket,30.2640955,-81.55840649999999,32216
962,Pet Supermarket,30.1875604,-81.62707739999999,32257
963,Pet Supermarket,30.2054568,-81.7591583,32244
964,Pet Supermarket,29.675545,-82.33880669999999,32609
965,Pet Supermarket,30.2873056,-81.7213709,32210
966,Pet Supermarket,29.8795038,-81.326146,32084
967,Pet Supermarket,30.2885374,-81.3956323,32250
968,Pet Supermarket,30.3175559,-81.4726537,32225
969,Pet Supermarket,30.1422699,-81.7658136,32065
970,Pet Supermarket,29.5540932,-81.22952409999999,32137
971,PetSmart,30.19998589999999,-81.5502113,32256
972,PetSmart,30.3274361,-81.5482442,32225
973,PetSmart,30.4763902,-81.6426602,32218
974,Pet Supplies Plus Atlantic Beach,30.3259848,-81.4109848,32233
975,PetSmart,29.6229983,-82.3805296,32608
976,PetSmart,30.2711295,-81.3900309,32250
977,Pet Creations,30.4515094,-81.63737479999999,32218
978,Pet Supermarket,30.2848241,-81.4610276,32224
979,PetSmart,30.1995024,-81.82314559999999,32222
980,Pet Supermarket,30.2624511,-81.6237929,32217
981,Pet Supplies Plus Atlantic Beach,30.3259848,-81.4109848,32233
982,Pet Supermarket,30.2873056,-81.7213709,32210
983,Pet Supermarket,30.2640955,-81.55840649999999,32216
984,Pet Supermarket,29.8795038,-81.326146,32084
985,Pet Supermarket,30.1875604,-81.62707739999999,32257
986,Pet Supermarket,30.2054568,-81.7591583,32244
987,Pet Supermarket,29.675545,-82.33880669999999,32609
988,Pet Supermarket,29.187339,-82.1098148,34470
989,Pet Supermarket,30.3175559,-81.4726537,32225
990,Pet Supermarket,29.5540932,-81.22952409999999,32137
991,Pet Supermarket,30.2848241,-81.4610276,32224
992,Pet Creations,30.4515094,-81.63737479999999,32218
993,Pet Supermarket,30.3524532,-81.5812534,32277
994,Petco,29.1435119,-82.1877512,34474
995,Pet Supplies Plus Orange Park,30.155529,-81.7490349,32073
996,Pet and Feed Store,30.2473951,-81.7999338,32210
997,Earth Pets Natural Pet Market - San Marco,30.3082793,-81.65425330000001,32207
998,Pet Supermarket,30.1422699,-81.7658136,32065
999,EarthWise Pet,30.2903108,-81.3923713,32250
1000,Pet Supermarket,30.2624511,-81.6237929,32217
1001,Pet Supplies Plus Atlantic Beach,30.3259848,-81.4109848,32233
1002,Pet Supermarket,30.2873056,-81.7213709,32210
1003,Pet Supermarket,30.2640955,-81.55840649999999,32216
1004,Pet Supermarket,29.8795038,-81.326146,32084
1005,Pet Supermarket,30.1875604,-81.62707739999999,32257
1006,Pet Supermarket,30.2054568,-81.7591583,32244
1007,Pet Supermarket,29.675545,-82.33880669999999,32609
1008,Pet Supermarket,29.187339,-82.1098148,34470
1009,Pet Supermarket,30.3175559,-81.4726537,32225
1010,Pet Supermarket,29.5540932,-81.22952409999999,32137
1011,Pet Supermarket,30.2848241,-81.4610276,32224
1012,Pet Creations,30.4515094,-81.63737479999999,32218
1013,Pet Supermarket,30.3524532,-81.5812534,32277
1014,Petco,29.1435119,-82.1877512,34474
1015,Pet Supplies Plus Orange Park,30.155529,-81.7490349,32073
1016,Pet and Feed Store,30.2473951,-81.7999338,32210
1017,Pet Supermarket,29.1263381,-81.00240389999999,32127
1018,Earth Pets Natural Pet Market - San Marco,30.3082793,-81.65425330000001,32207
1019,Pet Supermarket,30.1422699,-81.7658136,32065
1020,Pet Supermarket,30.2624511,-81.6237929,32217
1021,Pet Supplies Plus Atlantic Beach,30.3259848,-81.4109848,32233
1022,Pet Supermarket,30.2873056,-81.7213709,32210
1023,Pet Supermarket,30.2640955,-81.55840649999999,32216
1024,Pet Supermarket,29.8795038,-81.326146,32084
1025,Pet Supermarket,30.1875604,-81.62707739999999,32257
1026,Pet Supermarket,30.2054568,-81.7591583,32244
1027,Pet Supermarket,29.675545,-82.33880669999999,32609
1028,Pet Supermarket,29.187339,-82.1098148,34470
1029,Pet Supermarket,30.3175559,-81.4726537,32225
1030,Pet Supermarket,29.5540932,-81.22952409999999,32137
1031,Pet Supermarket,30.2848241,-81.4610276,32224
1032,Pet Creations,30.4515094,-81.63737479999999,32218
1033,Pet Supermarket,30.3524532,-81.5812534,32277
1034,Petco,29.1435119,-82.1877512,34474
1035,Pet Supplies Plus Orange Park,30.155529,-81.7490349,32073
1036,Pet and Feed Store,30.2473951,-81.7999338,32210
1037,Pet Supermarket,29.1263381,-81.00240389999999,32127
1038,Earth Pets Natural Pet Market - San Marco,30.3082793,-81.65425330000001,32207
1039,Pet Supermarket,30.1422699,-81.7658136,32065
1040,Pet Supermarket,30.2624511,-81.6237929,32217
1041,Pet Supplies Plus Atlantic Beach,30.3259848,-81.4109848,32233
1042,Pet Creations,30.4515094,-81.63737479999999,32218
1043,Pet Supermarket,30.2873056,-81.7213709,32210
1044,Pet Supermarket,30.2640955,-81.55840649999999,32216
1045,Pet Supermarket,29.8795038,-81.326146,32084
1046,Pet Supermarket,30.1875604,-81.62707739999999,32257
1047,Pet Supermarket,30.2054568,-81.7591583,32244
1048,Pet Supermarket,30.3175559,-81.4726537,32225
1049,Pet Supermarket,30.2848241,-81.4610276,32224
1050,Pet Supermarket,30.3524532,-81.5812534,32277
1051,Pet Supplies Plus Orange Park,30.155529,-81.7490349,32073
1052,Pet and Feed Store,30.2473951,-81.7999338,32210
1053,Earth Pets Natural Pet Market - San Marco,30.3082793,-81.65425330000001,32207
1054,Pet Supermarket,30.1422699,-81.7658136,32065
1055,Pet Supplies Plus Brunswick,31.2187829,-81.4944343,31520
1056,EarthWise Pet,30.2903108,-81.3923713,32250
1057,Pet Supermarket,30.1929248,-81.5487701,32256
1058,Pet Supermarket,30.2885374,-81.3956323,32250
1059,Petco,30.17193219999999,-81.6266911,32223
1060,Pet Supermarket,30.2624511,-81.6237929,32217
1061,Pet Supermarket,30.2640955,-81.55840649999999,32216
1062,Pet Supermarket,30.1875604,-81.62707739999999,32257
1063,Pet Supermarket,30.2054568,-81.7591583,32244
1064,Pet Supermarket,29.675545,-82.33880669999999,32609
1065,Pet Supermarket,30.2873056,-81.7213709,32210
1066,Pet Supermarket,29.8795038,-81.326146,32084
1067,Pet Supermarket,30.2885374,-81.3956323,32250
1068,Pet Supermarket,30.3175559,-81.4726537,32225
1069,Pet Supermarket,30.1422699,-81.7658136,32065
1070,Pet Supermarket,29.5540932,-81.22952409999999,32137
1071,Pet Supplies Plus Atlantic Beach,30.3259848,-81.4109848,32233
1072,PetSmart,30.3274361,-81.5482442,32225
1073,PetSmart,29.6229983,-82.3805296,32608
1074,PetSmart,30.2711295,-81.3900309,32250
1075,Pet Creations,30.4515094,-81.63737479999999,32218
1076,PetSmart,30.4763902,-81.6426602,32218
1077,PetSmart,30.19998589999999,-81.5502113,32256
1078,Pet Supermarket,30.2848241,-81.4610276,32224
1079,PetSmart,30.1995024,-81.82314559999999,32222
1080,Pet Supermarket,30.2624511,-81.6237929,32217
1081,Pet Supplies Plus Atlantic Beach,30.3259848,-81.4109848,32233
1082,Pet Supermarket,30.2873056,-81.7213709,32210
1083,Pet Supplies Plus Winter Park,28.612493,-81.27976029999999,32792
1084,Pet Supermarket,30.2640955,-81.55840649999999,32216
1085,Pet Supermarket,28.6545786,-81.2075655,32765
1086,Pet Supermarket,29.8795038,-81.326146,32084
1087,Pet Supermarket,30.1875604,-81.62707739999999,32257
1088,Pet Supermarket,30.2054568,-81.7591583,32244
1089,Pet Supermarket,29.187339,-82.1098148,34470
1090,Pet Supermarket,28.6015378,-81.3236531,32792
1091,Pet Supplies Plus Sanford,28.75908,-81.2842043,32773
1092,Pet Supermarket,30.3175559,-81.4726537,32225
1093,Pet Supermarket,29.5540932,-81.22952409999999,32137
1094,Pet Supermarket,30.2848241,-81.4610276,32224
1095,Pet Supermarket,30.3524532,-81.5812534,32277
1096,Petco,29.1435119,-82.1877512,34474
1097,Pet Supermarket,28.9142272,-81.29114059999999,32763
1098,Pet Supplies Plus Orange Park,30.155529,-81.7490349,32073
1099,Pet and Feed Store,30.2473951,-81.7999338,32210
1100,Pet Supermarket,30.2624511,-81.6237929,32217
1101,Pet Supplies Plus Sanford,28.75908,-81.2842043,32773
1102,PetSmart,29.1921942,-81.07495399999999,32114
1103,Pet Supermarket,30.2640955,-81.55840649999999,32216
1104,Pet Supermarket,30.1875604,-81.62707739999999,32257
1105,Pet Supermarket,30.2054568,-81.7591583,32244
1106,Pet Supermarket,30.2873056,-81.7213709,32210
1107,Pet Supermarket,29.8795038,-81.326146,32084
1108,Pet Supermarket,30.2885374,-81.3956323,32250
1109,Pet Supermarket,30.3175559,-81.4726537,32225
1110,Pet Supermarket,28.9142272,-81.29114059999999,32763
1111,Pet Supermarket,30.1422699,-81.7658136,32065
1112,Pet Supermarket,28.6718013,-81.4510753,32703
1113,Pet Supermarket,29.5540932,-81.22952409999999,32137
1114,Pet Supermarket,29.2690141,-81.10086919999999,32174
1115,Pet Supermarket,29.1263381,-81.00240389999999,32127
1116,PetSmart,30.19998589999999,-81.5502113,32256
1117,PetSmart,30.3274361,-81.5482442,32225
1118,Pet Supermarket,29.187339,-82.1098148,34470
1119,Our Pet World,28.6736037,-81.47923,32703
1120,Pet Supermarket,30.2624511,-81.6237929,32217
1121,Pet Supplies Plus Atlantic Beach,30.3259848,-81.4109848,32233
1122,Pet Supermarket,30.2873056,-81.7213709,32210
1123,Pet Supplies Plus Winter Park,28.612493,-81.27976029999999,32792
1124,Pet Supermarket,30.2640955,-81.55840649999999,32216
1125,Pet Supermarket,28.6545786,-81.2075655,32765
1126,Pet Supermarket,29.8795038,-81.326146,32084
1127,Pet Supermarket,30.1875604,-81.62707739999999,32257
1128,Pet Supermarket,30.2054568,-81.7591583,32244
1129,Pet Supermarket,29.187339,-82.1098148,34470
1130,Pet Supermarket,28.6015378,-81.3236531,32792
1131,Pet Supplies Plus Sanford,28.75908,-81.2842043,32773
1132,Pet Supermarket,30.3175559,-81.4726537,32225
1133,Pet Supermarket,29.5540932,-81.22952409999999,32137
1134,Pet Supermarket,30.2848241,-81.4610276,32224
1135,Pet Supermarket,30.3524532,-81.5812534,32277
1136,Pet Supermarket,28.9142272,-81.29114059999999,32763
1137,Pet Supplies Plus Orange Park,30.155529,-81.7490349,32073
1138,Pet and Feed Store,30.2473951,-81.7999338,32210
1139,Pet Supermarket,28.8207074,-81.6779207,32757
1140,Pet Supermarket,30.2624511,-81.6237929,32217
1141,Pet Supplies Plus Sanford,28.75908,-81.2842043,32773
1142,PetSmart,29.1921942,-81.07495399999999,32114
1143,Pet Supermarket,30.2640955,-81.55840649999999,32216
1144,Pet Supermarket,30.1875604,-81.62707739999999,32257
1145,Pet Supermarket,30.2054568,-81.7591583,32244
1146,Pet Supermarket,30.2873056,-81.7213709,32210
1147,Pet Supermarket,29.8795038,-81.326146,32084
1148,Pet Supermarket,30.2885374,-81.3956323,32250
1149,Pet Supermarket,30.3175559,-81.4726537,32225
1150,Pet Supermarket,28.9142272,-81.29114059999999,32763
1151,Pet Supermarket,30.1422699,-81.7658136,32065
1152,Pet Supermarket,28.6718013,-81.4510753,32703
1153,Pet Supermarket,29.5540932,-81.22952409999999,32137
1154,Pet Supermarket,29.2690141,-81.10086919999999,32174
1155,Pet Supermarket,29.1263381,-81.00240389999999,32127
1156,PetSmart,30.19998589999999,-81.5502113,32256
1157,PetSmart,30.3274361,-81.5482442,32225
1158,Pet Supermarket,29.187339,-82.1098148,34470
1159,Our Pet World,28.6736037,-81.47923,32703
1160,Pet Supermarket,30.2624511,-81.6237929,32217
1161,Pet Supplies Plus Sanford,28.75908,-81.2842043,32773
1162,PetSmart,29.1921942,-81.07495399999999,32114
1163,Pet Supermarket,30.2640955,-81.55840649999999,32216
1164,Pet Supermarket,30.1875604,-81.62707739999999,32257
1165,Pet Supermarket,30.2054568,-81.7591583,32244
1166,Pet Supermarket,30.2873056,-81.7213709,32210
1167,Pet Supermarket,29.8795038,-81.326146,32084
1168,Pet Supermarket,30.2885374,-81.3956323,32250
1169,Pet Supermarket,30.3175559,-81.4726537,32225
1170,Pet Supermarket,28.9142272,-81.29114059999999,32763
1171,Pet Supermarket,30.1422699,-81.7658136,32065
1172,Pet Supermarket,28.6718013,-81.4510753,32703
1173,Pet Supermarket,29.5540932,-81.22952409999999,32137
1174,Pet Supermarket,29.2690141,-81.10086919999999,32174
1175,Pet Supermarket,29.1263381,-81.00240389999999,32127
1176,PetSmart,30.19998589999999,-81.5502113,32256
1177,PetSmart,30.3274361,-81.5482442,32225
1178,Pet Supermarket,29.187339,-82.1098148,34470
1179,Our Pet World,28.6736037,-81.47923,32703
1180,Pet Supermarket,30.2624511,-81.6237929,32217
1181,Petco,28.5517522,-81.35161939999999,32803
1182,Pet Supermarket,30.2873056,-81.7213709,32210
1183,Pet Supermarket,30.2640955,-81.55840649999999,32216
1184,Pet Supermarket,28.6545786,-81.2075655,32765
1185,Pet Supermarket,28.548614,-81.73799590000002,34711
1186,Pet Supermarket,29.8795038,-81.326146,32084
1187,Pet Supermarket,30.1875604,-81.62707739999999,32257
1188,Pet Supermarket,30.2054568,-81.7591583,32244
1189,Pet Supermarket,29.187339,-82.1098148,34470
1190,Pet Supplies Plus Winter Park,28.612493,-81.27976029999999,32792
1191,Pet Supermarket,28.6015378,-81.3236531,32792
1192,Pet Supplies Plus Sanford,28.75908,-81.2842043,32773
1193,Pet Supermarket,30.3175559,-81.4726537,32225
1194,Pet Supermarket,29.5540932,-81.22952409999999,32137
1195,Pet Supermarket,30.2848241,-81.4610276,32224
1196,Petco,29.1435119,-82.1877512,34474
1197,Pet Supermarket,28.9142272,-81.29114059999999,32763
1198,Pet Supplies Plus Orange Park,30.155529,-81.7490349,32073
1199,Pet and Feed Store,30.2473951,-81.7999338,32210
1200,Pet Supermarket,30.2624511,-81.6237929,32217
1201,Pet Supplies Plus Atlantic Beach,30.3259848,-81.4109848,32233
1202,Pet Supermarket,30.2873056,-81.7213709,32210
1203,Pet Supermarket,30.2640955,-81.55840649999999,32216
1204,Pet Supermarket,29.8795038,-81.326146,32084
1205,Pet Supermarket,30.1875604,-81.62707739999999,32257
1206,Pet Supermarket,30.2054568,-81.7591583,32244
1207,Pet Supermarket,29.675545,-82.33880669999999,32609
1208,Pet Supermarket,29.187339,-82.1098148,34470
1209,Pet Supermarket,30.3175559,-81.4726537,32225
1210,Pet Supermarket,29.5540932,-81.22952409999999,32137
1211,Pet Supermarket,30.2848241,-81.4610276,32224
1212,Pet Creations,30.4515094,-81.63737479999999,32218
1213,Pet Supermarket,30.3524532,-81.5812534,32277
1214,Petco,29.1435119,-82.1877512,34474
1215,Pet Supermarket,28.9142272,-81.29114059999999,32763
1216,Pet Supplies Plus Orange Park,30.155529,-81.7490349,32073
1217,Pet and Feed Store,30.2473951,-81.7999338,32210
1218,Pet Supermarket,28.8207074,-81.6779207,32757
1219,Pet Supermarket,29.1263381,-81.00240389999999,32127
1220,Pet Supermarket,30.2624511,-81.6237929,32217
1221,Pet Supplies Plus Atlantic Beach,30.3259848,-81.4109848,32233
1222,Pet Supermarket,30.2873056,-81.7213709,32210
1223,Pet Supermarket,30.2640955,-81.55840649999999,32216
1224,Pet Supermarket,29.8795038,-81.326146,32084
1225,Pet Supermarket,30.1875604,-81.62707739999999,32257
1226,Pet Supermarket,30.2054568,-81.7591583,32244
1227,Pet Supermarket,29.675545,-82.33880669999999,32609
1228,Pet Supermarket,29.187339,-82.1098148,34470
1229,Pet Supermarket,30.3175559,-81.4726537,32225
1230,Pet Supermarket,29.5540932,-81.22952409999999,32137
1231,Pet Supermarket,30.2848241,-81.4610276,32224
1232,Pet Creations,30.4515094,-81.63737479999999,32218
1233,Pet Supermarket,30.3524532,-81.5812534,32277
1234,Petco,29.1435119,-82.1877512,34474
1235,Pet Supermarket,28.9142272,-81.29114059999999,32763
1236,Pet Supplies Plus Orange Park,30.155529,-81.7490349,32073
1237,Pet and Feed Store,30.2473951,-81.7999338,32210
1238,Pet Supermarket,29.1263381,-81.00240389999999,32127
1239,Earth Pets Natural Pet Market - San Marco,30.3082793,-81.65425330000001,32207
1240,Pet Supermarket,30.2624511,-81.6237929,32217
1241,Pet Supplies Plus Atlantic Beach,30.3259848,-81.4109848,32233
1242,Pet Supermarket,30.2873056,-81.7213709,32210
1243,Pet Supplies Plus Sanford,28.75908,-81.2842043,32773
1244,Pet Supermarket,30.2640955,-81.55840649999999,32216
1245,Pet Supermarket,28.6545786,-81.2075655,32765
1246,Pet Supermarket,29.8795038,-81.326146,32084
1247,Pet Supermarket,30.1875604,-81.62707739999999,32257
1248,Pet Supermarket,30.2054568,-81.7591583,32244
1249,Pet Supermarket,29.187339,-82.1098148,34470
1250,Pet Supermarket,30.3175559,-81.4726537,32225
1251,Pet Supermarket,29.5540932,-81.22952409999999,32137
1252,Pet Supermarket,30.2848241,-81.4610276,32224
1253,Pet Supermarket,30.3524532,-81.5812534,32277
1254,Petco,29.1435119,-82.1877512,34474
1255,Pet Supermarket,28.9142272,-81.29114059999999,32763
1256,Pet Supplies Plus Orange Park,30.155529,-81.7490349,32073
1257,Pet and Feed Store,30.2473951,-81.7999338,32210
1258,Pet Supermarket,28.8207074,-81.6779207,32757
1259,Pet Supermarket,29.1263381,-81.00240389999999,32127
1260,Pet Supermarket,30.2624511,-81.6237929,32217
1261,Pet Supermarket,30.2640955,-81.55840649999999,32216
1262,Pet Supermarket,30.1875604,-81.62707739999999,32257
1263,Pet Supermarket,30.2054568,-81.7591583,32244
1264,Pet Supermarket,29.675545,-82.33880669999999,32609
1265,Pet Supermarket,30.2873056,-81.7213709,32210
1266,Pet Supermarket,29.8795038,-81.326146,32084
1267,Pet Supermarket,30.2885374,-81.3956323,32250
1268,Pet Supermarket,30.3175559,-81.4726537,32225
1269,Pet Supermarket,30.1422699,-81.7658136,32065
1270,Pet Supermarket,29.5540932,-81.22952409999999,32137
1271,Pet Supplies Plus Atlantic Beach,30.3259848,-81.4109848,32233
1272,PetSmart,30.3274361,-81.5482442,32225
1273,PetSmart,29.6229983,-82.3805296,32608
1274,PetSmart,30.2711295,-81.3900309,32250
1275,Pet Creations,30.4515094,-81.63737479999999,32218
1276,PetSmart,30.4763902,-81.6426602,32218
1277,PetSmart,30.19998589999999,-81.5502113,32256
1278,Pet Supermarket,30.2848241,-81.4610276,32224
1279,PetSmart,30.1995024,-81.82314559999999,32222
1280,Pet Supermarket,30.2624511,-81.6237929,32217
1281,Pet Supermarket,30.2640955,-81.55840649999999,32216
1282,Pet Supermarket,30.1875604,-81.62707739999999,32257
1283,Pet Supermarket,30.2054568,-81.7591583,32244
1284,Pet Supermarket,29.675545,-82.33880669999999,32609
1285,Pet Supermarket,30.2873056,-81.7213709,32210
1286,Pet Supermarket,29.8795038,-81.326146,32084
1287,Pet Supermarket,30.2885374,-81.3956323,32250
1288,Pet Supermarket,30.3175559,-81.4726537,32225
1289,Pet Supermarket,30.1422699,-81.7658136,32065
1290,Pet Supermarket,29.5540932,-81.22952409999999,32137
1291,Pet Supplies Plus Atlantic Beach,30.3259848,-81.4109848,32233
1292,PetSmart,30.3274361,-81.5482442,32225
1293,PetSmart,29.6229983,-82.3805296,32608
1294,PetSmart,30.2711295,-81.3900309,32250
1295,Pet Creations,30.4515094,-81.63737479999999,32218
1296,PetSmart,30.4763902,-81.6426602,32218
1297,PetSmart,30.19998589999999,-81.5502113,32256
1298,Pet Supermarket,30.2848241,-81.4610276,32224
1299,PetSmart,30.1995024,-81.82314559999999,32222
1300,Pet Supermarket,30.2624511,-81.6237929,32217
1301,Pet Supplies Plus Atlantic Beach,30.3259848,-81.4109848,32233
1302,Pet Supermarket,30.2873056,-81.7213709,32210
1303,Pet Supermarket,30.2640955,-81.55840649999999,32216
1304,Pet Supermarket,29.8795038,-81.326146,32084
1305,Pet Supermarket,30.1875604,-81.62707739999999,32257
1306,Pet Supermarket,30.2054568,-81.7591583,32244
1307,Pet Supermarket,29.675545,-82.33880669999999,32609
1308,Pet Supermarket,30.3175559,-81.4726537,32225
1309,Pet Supermarket,29.5540932,-81.22952409999999,32137
1310,Pet Supermarket,30.2848241,-81.4610276,32224
1311,Pet Creations,30.4515094,-81.63737479999999,32218
1312,Pet Supermarket,30.3524532,-81.5812534,32277
1313,Pet Supplies Plus Orange Park,30.155529,-81.7490349,32073
1314,Pet and Feed Store,30.2473951,-81.7999338,32210
1315,Earth Pets Natural Pet Market - San Marco,30.3082793,-81.65425330000001,32207
1316,Pet Supermarket,30.1422699,-81.7658136,32065
1317,Pet Supplies Plus Brunswick,31.2187829,-81.4944343,31520
1318,EarthWise Pet,30.2903108,-81.3923713,32250
1319,Petco,29.6571701,-82.4156051,32605
1320,Pet Supermarket,30.2624511,-81.6237929,32217
1321,Pet Supplies Plus Atlantic Beach,30.3259848,-81.4109848,32233
1322,Pet Supermarket,30.2873056,-81.7213709,32210
1323,Pet Supermarket,30.2640955,-81.55840649999999,32216
1324,Pet Supermarket,29.8795038,-81.326146,32084
1325,Pet Supermarket,30.1875604,-81.62707739999999,32257
1326,Pet Supermarket,30.2054568,-81.7591583,32244
1327,Pet Supermarket,29.675545,-82.33880669999999,32609
1328,Pet Supermarket,30.3175559,-81.4726537,32225
1329,Pet Supermarket,29.5540932,-81.22952409999999,32137
1330,Pet Supermarket,30.2848241,-81.4610276,32224
1331,Pet Creations,30.4515094,-81.63737479999999,32218
1332,Pet Supermarket,30.3524532,-81.5812534,32277
1333,Pet Supplies Plus Orange Park,30.155529,-81.7490349,32073
1334,Pet and Feed Store,30.2473951,-81.7999338,32210
1335,Earth Pets Natural Pet Market - San Marco,30.3082793,-81.65425330000001,32207
1336,Pet Supermarket,30.1422699,-81.7658136,32065
1337,Pet Supplies Plus Brunswick,31.2187829,-81.4944343,31520
1338,EarthWise Pet,30.2903108,-81.3923713,32250
1339,Petco,29.6571701,-82.4156051,32605
1340,Pet Supermarket,30.2624511,-81.6237929,32217
1341,Pet Supplies Plus Atlantic Beach,30.3259848,-81.4109848,32233
1342,Pet Supermarket,30.2873056,-81.7213709,32210
1343,Pet Supermarket,30.2640955,-81.55840649999999,32216
1344,Pet Supermarket,29.8795038,-81.326146,32084
1345,Pet Supermarket,30.1875604,-81.62707739999999,32257
1346,Pet Supermarket,30.2054568,-81.7591583,32244
1347,Pet Supermarket,29.675545,-82.33880669999999,32609
1348,Pet Supermarket,30.3175559,-81.4726537,32225
1349,Pet Supermarket,29.5540932,-81.22952409999999,32137
1350,Pet Supermarket,30.2848241,-81.4610276,32224
1351,Pet Creations,30.4515094,-81.63737479999999,32218
1352,Pet Supermarket,30.3524532,-81.5812534,32277
1353,Pet Supplies Plus Orange Park,30.155529,-81.7490349,32073
1354,Pet and Feed Store,30.2473951,-81.7999338,32210
1355,Earth Pets Natural Pet Market - San Marco,30.3082793,-81.65425330000001,32207
1356,Pet Supermarket,30.1422699,-81.7658136,32065
1357,EarthWise Pet,30.2903108,-81.3923713,32250
1358,Petco,29.6571701,-82.4156051,32605
1359,Pet Supermarket,30.1929248,-81.5487701,32256
1360,Pet Supermarket,30.2624511,-81.6237929,32217
1361,Pet Supplies Plus Atlantic Beach,30.3259848,-81.4109848,32233
1362,Pet Supermarket,30.2873056,-81.7213709,32210
1363,Pet Supermarket,30.2640955,-81.55840649999999,32216
1364,Pet Supermarket,29.8795038,-81.326146,32084
1365,Pet Supermarket,30.1875604,-81.62707739999999,32257
1366,Pet Supermarket,30.2054568,-81.7591583,32244
1367,Pet Supermarket,29.675545,-82.33880669999999,32609
1368,Pet Supermarket,30.3175559,-81.4726537,32225
1369,Pet Supermarket,29.5540932,-81.22952409999999,32137
1370,Pet Supermarket,30.2848241,-81.4610276,32224
1371,Pet Creations,30.4515094,-81.63737479999999,32218
1372,Pet Supermarket,30.3524532,-81.5812534,32277
1373,Pet Supplies Plus Orange Park,30.155529,-81.7490349,32073
1374,Pet and Feed Store,30.2473951,-81.7999338,32210
1375,Earth Pets Natural Pet Market - San Marco,30.3082793,-81.65425330000001,32207
1376,Pet Supermarket,30.1422699,-81.7658136,32065
1377,Pet Supplies Plus Brunswick,31.2187829,-81.4944343,31520
1378,EarthWise Pet,30.2903108,-81.3923713,32250
1379,Petco,29.6571701,-82.4156051,32605
1380,Pet Supermarket,30.2624511,-81.6237929,32217
1381,Pet Supplies Plus Atlantic Beach,30.3259848,-81.4109848,32233
1382,Pet Supermarket,30.2873056,-81.7213709,32210
1383,Pet Supermarket,30.2640955,-81.55840649999999,32216
1384,Pet Supermarket,29.8795038,-81.326146,32084
1385,Pet Supermarket,30.1875604,-81.62707739999999,32257
1386,Pet Supermarket,30.2054568,-81.7591583,32244
1387,Pet Supermarket,29.675545,-82.33880669999999,32609
1388,Pet Supermarket,30.3175559,-81.4726537,32225
1389,Pet Supermarket,29.5540932,-81.22952409999999,32137
1390,Pet Supermarket,30.2848241,-81.4610276,32224
1391,Pet Creations,30.4515094,-81.63737479999999,32218
1392,Pet Supermarket,30.3524532,-81.5812534,32277
1393,Pet Supplies Plus Orange Park,30.155529,-81.7490349,32073
1394,Pet and Feed Store,30.2473951,-81.7999338,32210
1395,Earth Pets Natural Pet Market - San Marco,30.3082793,-81.65425330000001,32207
1396,Pet Supermarket,30.1422699,-81.7658136,32065
1397,EarthWise Pet,30.2903108,-81.3923713,32250
1398,Petco,29.6571701,-82.4156051,32605
1399,Pet Supermarket,30.1929248,-81.5487701,32256
1400,Pet Supermarket,30.2624511,-81.6237929,32217
1401,Pet Supplies Plus Atlantic Beach,30.3259848,-81.4109848,32233
1402,Pet Supermarket,30.2873056,-81.7213709,32210
1403,Pet Supermarket,30.2640955,-81.55840649999999,32216
1404,Pet Supermarket,29.8795038,-81.326146,32084
1405,Pet Supermarket,30.1875604,-81.62707739999999,32257
1406,Pet Supermarket,30.2054568,-81.7591583,32244
1407,Pet Supermarket,29.675545,-82.33880669999999,32609
1408,Pet Supermarket,30.3175559,-81.4726537,32225
1409,Pet Supermarket,29.5540932,-81.22952409999999,32137
1410,Pet Supermarket,30.2848241,-81.4610276,32224
1411,Pet Creations,30.4515094,-81.63737479999999,32218
1412,Pet Supermarket,30.3524532,-81.5812534,32277
1413,Pet Supplies Plus Orange Park,30.155529,-81.7490349,32073
1414,Pet and Feed Store,30.2473951,-81.7999338,32210
1415,Earth Pets Natural Pet Market - San Marco,30.3082793,-81.65425330000001,32207
1416,Pet Supermarket,30.1422699,-81.7658136,32065
1417,Pet Supplies Plus Brunswick,31.2187829,-81.4944343,31520
1418,EarthWise Pet,30.2903108,-81.3923713,32250
1419,Petco,29.6571701,-82.4156051,32605
1420,Pet Supermarket,30.2624511,-81.6237929,32217
1421,Pet Supplies Plus Atlantic Beach,30.3259848,-81.4109848,32233
1422,Pet Supermarket,30.2873056,-81.7213709,32210
1423,Pet Supermarket,30.2640955,-81.55840649999999,32216
1424,Pet Supermarket,29.8795038,-81.326146,32084
1425,Pet Supermarket,30.1875604,-81.62707739999999,32257
1426,Pet Supermarket,30.2054568,-81.7591583,32244
1427,Pet Supermarket,29.675545,-82.33880669999999,32609
1428,Pet Supermarket,30.3175559,-81.4726537,32225
1429,Pet Supermarket,29.5540932,-81.22952409999999,32137
1430,Pet Supermarket,30.2848241,-81.4610276,32224
1431,Pet Creations,30.4515094,-81.63737479999999,32218
1432,Pet Supermarket,30.3524532,-81.5812534,32277
1433,Pet Supplies Plus Orange Park,30.155529,-81.7490349,32073
1434,Pet and Feed Store,30.2473951,-81.7999338,32210
1435,Earth Pets Natural Pet Market - San Marco,30.3082793,-81.65425330000001,32207
1436,Pet Supermarket,30.1422699,-81.7658136,32065
1437,Pet Supplies Plus Brunswick,31.2187829,-81.4944343,31520
1438,EarthWise Pet,30.2903108,-81.3923713,32250
1439,Petco,29.6571701,-82.4156051,32605
1440,Pet Supermarket,30.2624511,-81.6237929,32217
1441,Pet Supplies Plus Atlantic Beach,30.3259848,-81.4109848,32233
1442,Pet Supermarket,30.2873056,-81.7213709,32210
1443,Pet Supermarket,30.2640955,-81.55840649999999,32216
1444,Pet Supermarket,29.8795038,-81.326146,32084
1445,Pet Supermarket,30.1875604,-81.62707739999999,32257
1446,Pet Supermarket,30.2054568,-81.7591583,32244
1447,Pet Supermarket,29.675545,-82.33880669999999,32609
1448,Pet Supermarket,30.3175559,-81.4726537,32225
1449,Pet Supermarket,29.5540932,-81.22952409999999,32137
1450,Pet Supermarket,30.2848241,-81.4610276,32224
1451,Pet Creations,30.4515094,-81.63737479999999,32218
1452,Pet Supermarket,30.3524532,-81.5812534,32277
1453,Pet Supplies Plus Orange Park,30.155529,-81.7490349,32073
1454,Pet and Feed Store,30.2473951,-81.7999338,32210
1455,Earth Pets Natural Pet Market - San Marco,30.3082793,-81.65425330000001,32207
1456,Pet Supermarket,30.1422699,-81.7658136,32065
1457,EarthWise Pet,30.2903108,-81.3923713,32250
1458,Petco,29.6571701,-82.4156051,32605
1459,Pet Supermarket,30.1929248,-81.5487701,32256
1460,Pet Supermarket,30.2624511,-81.6237929,32217
1461,Pet Supplies Plus Atlantic Beach,30.3259848,-81.4109848,32233
1462,Pet Supermarket,30.2873056,-81.7213709,32210
1463,Pet Supermarket,30.2640955,-81.55840649999999,32216
1464,Pet Supermarket,29.8795038,-81.326146,32084
1465,Pet Supermarket,30.1875604,-81.62707739999999,32257
1466,Pet Supermarket,30.2054568,-81.7591583,32244
1467,Pet Supermarket,29.675545,-82.33880669999999,32609
1468,Pet Supermarket,30.3175559,-81.4726537,32225
1469,Pet Supermarket,29.5540932,-81.22952409999999,32137
1470,Pet Supermarket,30.2848241,-81.4610276,32224
1471,Pet Creations,30.4515094,-81.63737479999999,32218
1472,Pet Supermarket,30.3524532,-81.5812534,32277
1473,Pet Supplies Plus Orange Park,30.155529,-81.7490349,32073
1474,Pet and Feed Store,30.2473951,-81.7999338,32210
1475,Earth Pets Natural Pet Market - San Marco,30.3082793,-81.65425330000001,32207
1476,Pet Supermarket,30.1422699,-81.7658136,32065
1477,Pet Supplies Plus Brunswick,31.2187829,-81.4944343,31520
1478,EarthWise Pet,30.2903108,-81.3923713,32250
1479,Petco,29.6571701,-82.4156051,32605
1480,Pet Supermarket,30.2624511,-81.6237929,32217
1481,Pet Supermarket,30.2640955,-81.55840649999999,32216
1482,Pet Supermarket,30.1875604,-81.62707739999999,32257
1483,Pet Supermarket,30.2054568,-81.7591583,32244
1484,Pet Supermarket,29.675545,-82.33880669999999,32609
1485,Pet Supermarket,30.2873056,-81.7213709,32210
1486,Pet Supermarket,29.8795038,-81.326146,32084
1487,Pet Supermarket,30.2885374,-81.3956323,32250
1488,Pet Supermarket,30.3175559,-81.4726537,32225
1489,Pet Supermarket,30.1422699,-81.7658136,32065
1490,Pet Supermarket,29.5540932,-81.22952409999999,32137
1491,PetSmart,30.19998589999999,-81.5502113,32256
1492,PetSmart,30.3274361,-81.5482442,32225
1493,PetSmart,30.4763902,-81.6426602,32218
1494,Pet Supplies Plus Atlantic Beach,30.3259848,-81.4109848,32233
1495,PetSmart,29.6229983,-82.3805296,32608
1496,PetSmart,30.2711295,-81.3900309,32250
1497,Pet Creations,30.4515094,-81.63737479999999,32218
1498,Pet Supermarket,30.2848241,-81.4610276,32224
1499,PetSmart,30.1995024,-81.82314559999999,32222
1500,Pet Supermarket,30.2624511,-81.6237929,32217
1501,Pet Supplies Plus Atlantic Beach,30.3259848,-81.4109848,32233
1502,Pet Supermarket,30.2873056,-81.7213709,32210
1503,Pet Supermarket,30.2640955,-81.55840649999999,32216
1504,Pet Supermarket,29.8795038,-81.326146,32084
1505,Pet Supermarket,30.1875604,-81.62707739999999,32257
1506,Pet Supermarket,30.2054568,-81.7591583,32244
1507,Pet Supermarket,29.675545,-82.33880669999999,32609
1508,Pet Supermarket,30.3175559,-81.4726537,32225
1509,Pet Supermarket,29.5540932,-81.22952409999999,32137
1510,Pet Supermarket,30.2848241,-81.4610276,32224
1511,Pet Creations,30.4515094,-81.63737479999999,32218
1512,Pet Supermarket,30.3524532,-81.5812534,32277
1513,Pet Supplies Plus Orange Park,30.155529,-81.7490349,32073
1514,Pet and Feed Store,30.2473951,-81.7999338,32210
1515,Earth Pets Natural Pet Market - San Marco,30.3082793,-81.65425330000001,32207
1516,Pet Supermarket,30.1422699,-81.7658136,32065
1517,EarthWise Pet,30.2903108,-81.3923713,32250
1518,Petco,29.6571701,-82.4156051,32605
1519,Pet Supermarket,30.1929248,-81.5487701,32256
1520,Pet Supermarket,30.2624511,-81.6237929,32217
1521,Pet Supermarket,30.2640955,-81.55840649999999,32216
1522,Pet Supermarket,30.1875604,-81.62707739999999,32257
1523,Pet Supermarket,30.2054568,-81.7591583,32244
1524,Pet Supermarket,29.675545,-82.33880669999999,32609
1525,Pet Supermarket,30.2873056,-81.7213709,32210
1526,Pet Supermarket,29.8795038,-81.326146,32084
1527,Pet Supermarket,30.2885374,-81.3956323,32250
1528,Pet Supermarket,30.3175559,-81.4726537,32225
1529,Pet Supermarket,30.1422699,-81.7658136,32065
1530,Pet Supermarket,29.5540932,-81.22952409999999,32137
1531,Pet Supplies Plus Atlantic Beach,30.3259848,-81.4109848,32233
1532,PetSmart,30.3274361,-81.5482442,32225
1533,PetSmart,29.6229983,-82.3805296,32608
1534,PetSmart,30.2711295,-81.3900309,32250
1535,Pet Creations,30.4515094,-81.63737479999999,32218
1536,PetSmart,30.4763902,-81.6426602,32218
1537,PetSmart,30.19998589999999,-81.5502113,32256
1538,Pet Supermarket,30.2848241,-81.4610276,32224
1539,PetSmart,30.1995024,-81.82314559999999,32222
1540,Pet Supermarket,30.2624511,-81.6237929,32217
1541,Pet Supplies Plus Atlantic Beach,30.3259848,-81.4109848,32233
1542,Pet Supermarket,30.2873056,-81.7213709,32210
1543,Pet Supermarket,30.2640955,-81.55840649999999,32216
1544,Pet Supermarket,29.8795038,-81.326146,32084
1545,Pet Supermarket,30.1875604,-81.62707739999999,32257
1546,Pet Supermarket,30.2054568,-81.7591583,32244
1547,Pet Supermarket,29.675545,-82.33880669999999,32609
1548,Pet Supermarket,30.3175559,-81.4726537,32225
1549,Pet Supermarket,29.5540932,-81.22952409999999,32137
1550,Pet Supermarket,30.2848241,-81.4610276,32224
1551,Pet Creations,30.4515094,-81.63737479999999,32218
1552,Pet Supermarket,30.3524532,-81.5812534,32277
1553,Pet Supplies Plus Orange Park,30.155529,-81.7490349,32073
1554,Pet and Feed Store,30.2473951,-81.7999338,32210
1555,Earth Pets Natural Pet Market - San Marco,30.3082793,-81.65425330000001,32207
1556,Pet Supermarket,30.1422699,-81.7658136,32065
1557,EarthWise Pet,30.2903108,-81.3923713,32250
1558,Petco,29.6571701,-82.4156051,32605
1559,Pet Supermarket,30.1929248,-81.5487701,32256
1560,Pet Supermarket,30.2624511,-81.6237929,32217
1561,Pet Supplies Plus Atlantic Beach,30.3259848,-81.4109848,32233
1562,Pet Supermarket,30.2873056,-81.7213709,32210
1563,Pet Supermarket,30.2640955,-81.55840649999999,32216
1564,Pet Supermarket,29.8795038,-81.326146,32084
1565,Pet Supermarket,30.1875604,-81.62707739999999,32257
1566,Pet Supermarket,30.2054568,-81.7591583,32244
1567,Pet Supermarket,29.675545,-82.33880669999999,32609
1568,Pet Supermarket,30.3175559,-81.4726537,32225
1569,Pet Supermarket,29.5540932,-81.22952409999999,32137
1570,Pet Supermarket,30.2848241,-81.4610276,32224
1571,Pet Creations,30.4515094,-81.63737479999999,32218
1572,Pet Supermarket,30.3524532,-81.5812534,32277
1573,Pet Supplies Plus Orange Park,30.155529,-81.7490349,32073
1574,Pet and Feed Store,30.2473951,-81.7999338,32210
1575,Earth Pets Natural Pet Market - San Marco,30.3082793,-81.65425330000001,32207
1576,Pet Supermarket,30.1422699,-81.7658136,32065
1577,EarthWise Pet,30.2903108,-81.3923713,32250
1578,Petco,29.6571701,-82.4156051,32605
1579,Pet Supermarket,30.1929248,-81.5487701,32256
1580,Pet Supermarket,30.2624511,-81.6237929,32217
1581,Pet Supplies Plus Atlantic Beach,30.3259848,-81.4109848,32233
1582,Pet Supermarket,30.2873056,-81.7213709,32210
1583,Pet Supermarket,30.2640955,-81.55840649999999,32216
1584,Pet Supermarket,29.8795038,-81.326146,32084
1585,Pet Supermarket,30.1875604,-81.62707739999999,32257
1586,Pet Supermarket,30.2054568,-81.7591583,32244
1587,Pet Supermarket,29.675545,-82.33880669999999,32609
1588,Pet Supermarket,30.3175559,-81.4726537,32225
1589,Pet Supermarket,30.2848241,-81.4610276,32224
1590,Pet Creations,30.4515094,-81.63737479999999,32218
1591,Pet Supermarket,30.3524532,-81.5812534,32277
1592,Pet Supplies Plus Orange Park,30.155529,-81.7490349,32073
1593,Pet and Feed Store,30.2473951,-81.7999338,32210
1594,Earth Pets Natural Pet Market - San Marco,30.3082793,-81.65425330000001,32207
1595,Pet Supermarket,30.1422699,-81.7658136,32065
1596,Pet Supplies Plus Brunswick,31.2187829,-81.4944343,31520
1597,EarthWise Pet,30.2903108,-81.3923713,32250
1598,Petco,29.6571701,-82.4156051,32605
1599,Pet Supermarket,30.1929248,-81.5487701,32256
1600,Pet Supermarket,30.2624511,-81.6237929,32217
1601,Pet Supplies Plus Atlantic Beach,30.3259848,-81.4109848,32233
1602,Pet Supermarket,30.2873056,-81.7213709,32210
1603,Pet Supermarket,30.2640955,-81.55840649999999,32216
1604,Pet Supermarket,29.8795038,-81.326146,32084
1605,Pet Supermarket,30.1875604,-81.62707739999999,32257
1606,Pet Supermarket,30.2054568,-81.7591583,32244
1607,Pet Supermarket,29.675545,-82.33880669999999,32609
1608,Pet Supermarket,30.3175559,-81.4726537,32225
1609,Pet Supermarket,29.5540932,-81.22952409999999,32137
1610,Pet Supermarket,30.2848241,-81.4610276,32224
1611,Pet Creations,30.4515094,-81.63737479999999,32218
1612,Pet Supermarket,30.3524532,-81.5812534,32277
1613,Pet Supplies Plus Orange Park,30.155529,-81.7490349,32073
1614,Pet and Feed Store,30.2473951,-81.7999338,32210
1615,Earth Pets Natural Pet Market - San Marco,30.3082793,-81.65425330000001,32207
1616,Pet Supermarket,30.1422699,-81.7658136,32065
1617,Pet Supplies Plus Brunswick,31.2187829,-81.4944343,31520
1618,EarthWise Pet,30.2903108,-81.3923713,32250
1619,Petco,29.6571701,-82.4156051,32605
1620,Pet Supermarket,30.2624511,-81.6237929,32217
1621,Pet Supplies Plus Atlantic Beach,30.3259848,-81.4109848,32233
1622,Pet Supermarket,30.2873056,-81.7213709,32210
1623,Pet Supermarket,30.2640955,-81.55840649999999,32216
1624,Pet Supermarket,29.8795038,-81.326146,32084
1625,Pet Supermarket,30.1875604,-81.62707739999999,32257
1626,Pet Supermarket,30.2054568,-81.7591583,32244
1627,Pet Supermarket,29.675545,-82.33880669999999,32609
1628,Pet Supermarket,30.3175559,-81.4726537,32225
1629,Pet Supermarket,29.5540932,-81.22952409999999,32137
1630,Pet Supermarket,30.2848241,-81.4610276,32224
1631,Pet Creations,30.4515094,-81.63737479999999,32218
1632,Pet Supermarket,30.3524532,-81.5812534,32277
1633,Pet Supplies Plus Orange Park,30.155529,-81.7490349,32073
1634,Pet and Feed Store,30.2473951,-81.7999338,32210
1635,Earth Pets Natural Pet Market - San Marco,30.3082793,-81.65425330000001,32207
1636,Pet Supermarket,30.1422699,-81.7658136,32065
1637,Pet Supplies Plus Brunswick,31.2187829,-81.4944343,31520
1638,EarthWise Pet,30.2903108,-81.3923713,32250
1639,Petco,29.6571701,-82.4156051,32605
1640,Pet Supermarket,30.2624511,-81.6237929,32217
1641,Pet Supermarket,30.2640955,-81.55840649999999,32216
1642,Pet Supermarket,30.1875604,-81.62707739999999,32257
1643,Pet Supermarket,30.2054568,-81.7591583,32244
1644,Pet Supermarket,29.675545,-82.33880669999999,32609
1645,Pet Supermarket,30.2873056,-81.7213709,32210
1646,Pet Supermarket,29.8795038,-81.326146,32084
1647,Pet Supermarket,30.2885374,-81.3956323,32250
1648,Pet Supermarket,30.3175559,-81.4726537,32225
1649,Pet Supermarket,30.1422699,-81.7658136,32065
1650,Pet Supermarket,29.5540932,-81.22952409999999,32137
1651,PetSmart,30.19998589999999,-81.5502113,32256
1652,PetSmart,30.3274361,-81.5482442,32225
1653,PetSmart,30.4763902,-81.6426602,32218
1654,Pet Supplies Plus Atlantic Beach,30.3259848,-81.4109848,32233
1655,PetSmart,29.6229983,-82.3805296,32608
1656,PetSmart,30.2711295,-81.3900309,32250
1657,Pet Creations,30.4515094,-81.63737479999999,32218
1658,Pet Supermarket,30.2848241,-81.4610276,32224
1659,PetSmart,30.1995024,-81.82314559999999,32222
1660,Pet Supermarket,30.2624511,-81.6237929,32217
1661,Pet Supplies Plus Atlantic Beach,30.3259848,-81.4109848,32233
1662,Pet Supermarket,30.2873056,-81.7213709,32210
1663,Pet Supermarket,30.2640955,-81.55840649999999,32216
1664,Pet Supermarket,29.8795038,-81.326146,32084
1665,Pet Supermarket,30.1875604,-81.62707739999999,32257
1666,Pet Supermarket,30.2054568,-81.7591583,32244
1667,Pet Supermarket,29.675545,-82.33880669999999,32609
1668,Pet Supermarket,30.3175559,-81.4726537,32225
1669,Pet Supermarket,29.5540932,-81.22952409999999,32137
1670,Pet Supermarket,30.2848241,-81.4610276,32224
1671,Pet Creations,30.4515094,-81.63737479999999,32218
1672,Pet Supermarket,30.3524532,-81.5812534,32277
1673,Pet Supplies Plus Orange Park,30.155529,-81.7490349,32073
1674,Pet and Feed Store,30.2473951,-81.7999338,32210
1675,Earth Pets Natural Pet Market - San Marco,30.3082793,-81.65425330000001,32207
1676,Pet Supermarket,30.1422699,-81.7658136,32065
1677,EarthWise Pet,30.2903108,-81.3923713,32250
1678,Petco,29.6571701,-82.4156051,32605
1679,Pet Supermarket,30.1929248,-81.5487701,32256
1680,Pet Supermarket,30.2624511,-81.6237929,32217
1681,Pet Supplies Plus Atlantic Beach,30.3259848,-81.4109848,32233
1682,Pet Supermarket,30.2873056,-81.7213709,32210
1683,Pet Supermarket,30.2640955,-81.55840649999999,32216
1684,Pet Supermarket,29.8795038,-81.326146,32084
1685,Pet Supermarket,30.1875604,-81.62707739999999,32257
1686,Pet Supermarket,30.2054568,-81.7591583,32244
1687,Pet Supermarket,29.675545,-82.33880669999999,32609
1688,Pet Supermarket,30.3175559,-81.4726537,32225
1689,Pet Supermarket,29.5540932,-81.22952409999999,32137
1690,Pet Supermarket,30.2848241,-81.4610276,32224
1691,Pet Creations,30.4515094,-81.63737479999999,32218
1692,Pet Supermarket,30.3524532,-81.5812534,32277
1693,Pet Supplies Plus Orange Park,30.155529,-81.7490349,32073
1694,Pet and Feed Store,30.2473951,-81.7999338,32210
1695,Earth Pets Natural Pet Market - San Marco,30.3082793,-81.65425330000001,32207
1696,Pet Supermarket,30.1422699,-81.7658136,32065
1697,EarthWise Pet,30.2903108,-81.3923713,32250
1698,Petco,29.6571701,-82.4156051,32605
1699,Pet Supermarket,30.1929248,-81.5487701,32256
1700,Pet Supermarket,30.2624511,-81.6237929,32217
1701,Pet Supplies Plus Atlantic Beach,30.3259848,-81.4109848,32233
1702,Pet Supermarket,30.2873056,-81.7213709,32210
1703,Pet Supermarket,30.2640955,-81.55840649999999,32216
1704,Pet Supermarket,29.8795038,-81.326146,32084
1705,Pet Supermarket,30.1875604,-81.62707739999999,32257
1706,Pet Supermarket,30.2054568,-81.7591583,32244
1707,Pet Supermarket,29.675545,-82.33880669999999,32609
1708,Pet Supermarket,30.3175559,-81.4726537,32225
1709,Pet Supermarket,29.5540932,-81.22952409999999,32137
1710,Pet Supermarket,30.2848241,-81.4610276,32224
1711,Pet Creations,30.4515094,-81.63737479999999,32218
1712,Pet Supermarket,30.3524532,-81.5812534,32277
1713,Pet Supplies Plus Orange Park,30.155529,-81.7490349,32073
1714,Pet and Feed Store,30.2473951,-81.7999338,32210
1715,Earth Pets Natural Pet Market - San Marco,30.3082793,-81.65425330000001,32207
1716,Pet Supermarket,30.1422699,-81.7658136,32065
1717,EarthWise Pet,30.2903108,-81.3923713,32250
1718,Petco,29.6571701,-82.4156051,32605
1719,Pet Supermarket,30.1929248,-81.5487701,32256
1720,Pet Supermarket,30.2624511,-81.6237929,32217
1721,Pet Supplies Plus Atlantic Beach,30.3259848,-81.4109848,32233
1722,Pet Supermarket,30.2873056,-81.7213709,32210
1723,Pet Supermarket,30.2640955,-81.55840649999999,32216
1724,Pet Supermarket,29.8795038,-81.326146,32084
1725,Pet Supermarket,30.1875604,-81.62707739999999,32257
1726,Pet Supermarket,30.2054568,-81.7591583,32244
1727,Pet Supermarket,29.675545,-82.33880669999999,32609
1728,Pet Supermarket,30.3175559,-81.4726537,32225
1729,Pet Supermarket,29.5540932,-81.22952409999999,32137
1730,Pet Supermarket,30.2848241,-81.4610276,32224
1731,Pet Creations,30.4515094,-81.63737479999999,32218
1732,Pet Supermarket,30.3524532,-81.5812534,32277
1733,Pet Supplies Plus Orange Park,30.155529,-81.7490349,32073
1734,Pet and Feed Store,30.2473951,-81.7999338,32210
1735,Earth Pets Natural Pet Market - San Marco,30.3082793,-81.65425330000001,32207
1736,Pet Supermarket,30.1422699,-81.7658136,32065
1737,Pet Supplies Plus Brunswick,31.2187829,-81.4944343,31520
1738,EarthWise Pet,30.2903108,-81.3923713,32250
1739,Petco,29.6571701,-82.4156051,32605
1740,Pet Supermarket,30.2624511,-81.6237929,32217
1741,Pet Supplies Plus Atlantic Beach,30.3259848,-81.4109848,32233
1742,Pet Supermarket,30.2873056,-81.7213709,32210
1743,Pet Supermarket,30.2640955,-81.55840649999999,32216
1744,Pet Supermarket,29.8795038,-81.326146,32084
1745,Pet Supermarket,30.1875604,-81.62707739999999,32257
1746,Pet Supermarket,30.2054568,-81.7591583,32244
1747,Pet Supermarket,29.675545,-82.33880669999999,32609
1748,Pet Supermarket,30.3175559,-81.4726537,32225
1749,Pet Supermarket,30.2848241,-81.4610276,32224
1750,Pet Creations,30.4515094,-81.63737479999999,32218
1751,Pet Supermarket,30.3524532,-81.5812534,32277
1752,Pet Supplies Plus Orange Park,30.155529,-81.7490349,32073
1753,Pet and Feed Store,30.2473951,-81.7999338,32210
1754,Earth Pets Natural Pet Market - San Marco,30.3082793,-81.65425330000001,32207
1755,Pet Supermarket,30.1422699,-81.7658136,32065
1756,Pet Supplies Plus Brunswick,31.2187829,-81.4944343,31520
1757,EarthWise Pet,30.2903108,-81.3923713,32250
1758,Petco,29.6571701,-82.4156051,32605
1759,Pet Supermarket,30.1929248,-81.5487701,32256
1760,Pet Supermarket,30.2624511,-81.6237929,32217
1761,Pet Supplies Plus Atlantic Beach,30.3259848,-81.4109848,32233
1762,Pet Supermarket,30.2873056,-81.7213709,32210
1763,Pet Supermarket,30.2640955,-81.55840649999999,32216
1764,Pet Supermarket,29.8795038,-81.326146,32084
1765,Pet Supermarket,30.1875604,-81.62707739999999,32257
1766,Pet Supermarket,30.2054568,-81.7591583,32244
1767,Pet Supermarket,29.675545,-82.33880669999999,32609
1768,Pet Supermarket,30.3175559,-81.4726537,32225
1769,Pet Supermarket,29.5540932,-81.22952409999999,32137
1770,Pet Supermarket,30.2848241,-81.4610276,32224
1771,Pet Creations,30.4515094,-81.63737479999999,32218
1772,Pet Supermarket,30.3524532,-81.5812534,32277
1773,Pet Supplies Plus Orange Park,30.155529,-81.7490349,32073
1774,Pet and Feed Store,30.2473951,-81.7999338,32210
1775,Earth Pets Natural Pet Market - San Marco,30.3082793,-81.65425330000001,32207
1776,Pet Supermarket,30.1422699,-81.7658136,32065
1777,Pet Supplies Plus Brunswick,31.2187829,-81.4944343,31520
1778,EarthWise Pet,30.2903108,-81.3923713,32250
1779,Petco,29.6571701,-82.4156051,32605
1780,Pet Supermarket,30.2624511,-81.6237929,32217
1781,Pet Supplies Plus Atlantic Beach,30.3259848,-81.4109848,32233
1782,Pet Supermarket,30.2873056,-81.7213709,32210
1783,Pet Supermarket,30.2640955,-81.55840649999999,32216
1784,Pet Supermarket,29.8795038,-81.326146,32084
1785,Pet Supermarket,30.1875604,-81.62707739999999,32257
1786,Pet Supermarket,30.2054568,-81.7591583,32244
1787,Pet Supermarket,29.675545,-82.33880669999999,32609
1788,Pet Supermarket,30.3175559,-81.4726537,32225
1789,Pet Supermarket,29.5540932,-81.22952409999999,32137
1790,Pet Supermarket,30.2848241,-81.4610276,32224
1791,Pet Creations,30.4515094,-81.63737479999999,32218
1792,Pet Supermarket,30.3524532,-81.5812534,32277
1793,Pet Supplies Plus Orange Park,30.155529,-81.7490349,32073
1794,Pet and Feed Store,30.2473951,-81.7999338,32210
1795,Earth Pets Natural Pet Market - San Marco,30.3082793,-81.65425330000001,32207
1796,Pet Supermarket,30.1422699,-81.7658136,32065
1797,Pet Supplies Plus Brunswick,31.2187829,-81.4944343,31520
1798,EarthWise Pet,30.2903108,-81.3923713,32250
1799,Petco,29.6571701,-82.4156051,32605
1800,Pet Supermarket,30.2624511,-81.6237929,32217
1801,Pet Supplies Plus Atlantic Beach,30.3259848,-81.4109848,32233
1802,Pet Supermarket,30.2873056,-81.7213709,32210
1803,Pet Supermarket,30.2640955,-81.55840649999999,32216
1804,Pet Supermarket,29.8795038,-81.326146,32084
1805,Pet Supermarket,30.1875604,-81.62707739999999,32257
1806,Pet Supermarket,30.2054568,-81.7591583,32244
1807,Pet Supermarket,29.675545,-82.33880669999999,32609
1808,Pet Supermarket,30.3175559,-81.4726537,32225
1809,Pet Supermarket,29.5540932,-81.22952409999999,32137
1810,Pet Supermarket,30.2848241,-81.4610276,32224
1811,Pet Creations,30.4515094,-81.63737479999999,32218
1812,Pet Supermarket,30.3524532,-81.5812534,32277
1813,Pet Supplies Plus Orange Park,30.155529,-81.7490349,32073
1814,Pet and Feed Store,30.2473951,-81.7999338,32210
1815,Earth Pets Natural Pet Market - San Marco,30.3082793,-81.65425330000001,32207
1816,Pet Supermarket,30.1422699,-81.7658136,32065
1817,Pet Supplies Plus Brunswick,31.2187829,-81.4944343,31520
1818,EarthWise Pet,30.2903108,-81.3923713,32250
1819,Petco,29.6571701,-82.4156051,32605
1820,Pet Supermarket,30.2624511,-81.6237929,32217
1821,Pet Supplies Plus Atlantic Beach,30.3259848,-81.4109848,32233
1822,Pet Supermarket,30.2873056,-81.7213709,32210
1823,Pet Supermarket,30.2640955,-81.55840649999999,32216
1824,Pet Supermarket,29.8795038,-81.326146,32084
1825,Pet Supermarket,30.1875604,-81.62707739999999,32257
1826,Pet Supermarket,30.2054568,-81.7591583,32244
1827,Pet Supermarket,29.675545,-82.33880669999999,32609
1828,Pet Supermarket,30.3175559,-81.4726537,32225
1829,Pet Supermarket,29.5540932,-81.22952409999999,32137
1830,Pet Supermarket,30.2848241,-81.4610276,32224
1831,Pet Creations,30.4515094,-81.63737479999999,32218
1832,Pet Supermarket,30.3524532,-81.5812534,32277
1833,Pet Supplies Plus Orange Park,30.155529,-81.7490349,32073
1834,Pet and Feed Store,30.2473951,-81.7999338,32210
1835,Earth Pets Natural Pet Market - San Marco,30.3082793,-81.65425330000001,32207
1836,Pet Supermarket,30.1422699,-81.7658136,32065
1837,Pet Supplies Plus Brunswick,31.2187829,-81.4944343,31520
1838,EarthWise Pet,30.2903108,-81.3923713,32250
1839,Petco,29.6571701,-82.4156051,32605
1840,Pet Supermarket,30.2624511,-81.6237929,32217
1841,Pet Supplies Plus Atlantic Beach,30.3259848,-81.4109848,32233
1842,Pet Supermarket,30.2873056,-81.7213709,32210
1843,Pet Supermarket,30.2640955,-81.55840649999999,32216
1844,Pet Supermarket,29.8795038,-81.326146,32084
1845,Pet Supermarket,30.1875604,-81.62707739999999,32257
1846,Pet Supermarket,30.2054568,-81.7591583,32244
1847,Pet Supermarket,29.675545,-82.33880669999999,32609
1848,Pet Supermarket,30.3175559,-81.4726537,32225
1849,Pet Supermarket,29.5540932,-81.22952409999999,32137
1850,Pet Supermarket,30.2848241,-81.4610276,32224
1851,Pet Creations,30.4515094,-81.63737479999999,32218
1852,Pet Supermarket,30.3524532,-81.5812534,32277
1853,Pet Supplies Plus Orange Park,30.155529,-81.7490349,32073
1854,Pet and Feed Store,30.2473951,-81.7999338,32210
1855,Earth Pets Natural Pet Market - San Marco,30.3082793,-81.65425330000001,32207
1856,Pet Supermarket,30.1422699,-81.7658136,32065
1857,Pet Supplies Plus Brunswick,31.2187829,-81.4944343,31520
1858,EarthWise Pet,30.2903108,-81.3923713,32250
1859,Petco,29.6571701,-82.4156051,32605
1860,Pet Supermarket,30.2624511,-81.6237929,32217
1861,Pet Supplies Plus Atlantic Beach,30.3259848,-81.4109848,32233
1862,Pet Supermarket,30.2873056,-81.7213709,32210
1863,Pet Supermarket,30.2640955,-81.55840649999999,32216
1864,Pet Supermarket,29.8795038,-81.326146,32084
1865,Pet Supermarket,30.1875604,-81.62707739999999,32257
1866,Pet Supermarket,30.2054568,-81.7591583,32244
1867,Pet Supermarket,29.675545,-82.33880669999999,32609
1868,Pet Supermarket,30.3175559,-81.4726537,32225
1869,Pet Supermarket,29.5540932,-81.22952409999999,32137
1870,Pet Supermarket,30.2848241,-81.4610276,32224
1871,Pet Creations,30.4515094,-81.63737479999999,32218
1872,Pet Supermarket,30.3524532,-81.5812534,32277
1873,Pet Supplies Plus Orange Park,30.155529,-81.7490349,32073
1874,Pet and Feed Store,30.2473951,-81.7999338,32210
1875,Earth Pets Natural Pet Market - San Marco,30.3082793,-81.65425330000001,32207
1876,Pet Supermarket,30.1422699,-81.7658136,32065
1877,Pet Supplies Plus Brunswick,31.2187829,-81.4944343,31520
1878,EarthWise Pet,30.2903108,-81.3923713,32250
1879,Petco,29.6571701,-82.4156051,32605
1880,Pet Supermarket,30.2624511,-81.6237929,32217
1881,Pet Supplies Plus Atlantic Beach,30.3259848,-81.4109848,32233
1882,Pet Supermarket,30.2873056,-81.7213709,32210
1883,Pet Supermarket,30.2640955,-81.55840649999999,32216
1884,Pet Supermarket,29.8795038,-81.326146,32084
1885,Pet Supermarket,30.1875604,-81.62707739999999,32257
1886,Pet Supermarket,30.2054568,-81.7591583,32244
1887,Pet Supermarket,29.675545,-82.33880669999999,32609
1888,Pet Supermarket,30.3175559,-81.4726537,32225
1889,Pet Supermarket,29.5540932,-81.22952409999999,32137
1890,Pet Supermarket,30.2848241,-81.4610276,32224
1891,Pet Creations,30.4515094,-81.63737479999999,32218
1892,Pet Supermarket,30.3524532,-81.5812534,32277
1893,Pet Supplies Plus Orange Park,30.155529,-81.7490349,32073
1894,Pet and Feed Store,30.2473951,-81.7999338,32210
1895,Earth Pets Natural Pet Market - San Marco,30.3082793,-81.65425330000001,32207
1896,Pet Supermarket,30.1422699,-81.7658136,32065
1897,Pet Supplies Plus Brunswick,31.2187829,-81.4944343,31520
1898,EarthWise Pet,30.2903108,-81.3923713,32250
1899,Petco,29.6571701,-82.4156051,32605
1900,Pet Supermarket,30.2624511,-81.6237929,32217
1901,Pet Supplies Plus Atlantic Beach,30.3259848,-81.4109848,32233
1902,Pet Supermarket,30.2873056,-81.7213709,32210
1903,Pet Supermarket,30.2640955,-81.55840649999999,32216
1904,Pet Supermarket,29.8795038,-81.326146,32084
1905,Pet Supermarket,30.1875604,-81.62707739999999,32257
1906,Pet Supermarket,30.2054568,-81.7591583,32244
1907,Pet Supermarket,29.675545,-82.33880669999999,32609
1908,Pet Supermarket,30.3175559,-81.4726537,32225
1909,Pet Supermarket,29.5540932,-81.22952409999999,32137
1910,Pet Supermarket,30.2848241,-81.4610276,32224
1911,Pet Creations,30.4515094,-81.63737479999999,32218
1912,Pet Supermarket,30.3524532,-81.5812534,32277
1913,Pet Supplies Plus Orange Park,30.155529,-81.7490349,32073
1914,Pet and Feed Store,30.2473951,-81.7999338,32210
1915,Earth Pets Natural Pet Market - San Marco,30.3082793,-81.65425330000001,32207
1916,Pet Supermarket,30.1422699,-81.7658136,32065
1917,EarthWise Pet,30.2903108,-81.3923713,32250
1918,Petco,29.6571701,-82.4156051,32605
1919,Pet Supermarket,30.1929248,-81.5487701,32256
1920,Pet Supermarket,30.2624511,-81.6237929,32217
1921,Pet Supplies Plus Atlantic Beach,30.3259848,-81.4109848,32233
1922,Pet Supermarket,30.2873056,-81.7213709,32210
1923,Pet Supermarket,30.2640955,-81.55840649999999,32216
1924,Pet Supermarket,29.8795038,-81.326146,32084
1925,Pet Supermarket,30.1875604,-81.62707739999999,32257
1926,Pet Supermarket,30.2054568,-81.7591583,32244
1927,Pet Supermarket,29.675545,-82.33880669999999,32609
1928,Pet Supermarket,30.3175559,-81.4726537,32225
1929,Pet Supermarket,29.5540932,-81.22952409999999,32137
1930,Pet Supermarket,30.2848241,-81.4610276,32224
1931,Pet Creations,30.4515094,-81.63737479999999,32218
1932,Pet Supermarket,30.3524532,-81.5812534,32277
1933,Pet Supplies Plus Orange Park,30.155529,-81.7490349,32073
1934,Pet and Feed Store,30.2473951,-81.7999338,32210
1935,Earth Pets Natural Pet Market - San Marco,30.3082793,-81.65425330000001,32207
1936,Pet Supermarket,30.1422699,-81.7658136,32065
1937,Pet Supplies Plus Brunswick,31.2187829,-81.4944343,31520
1938,EarthWise Pet,30.2903108,-81.3923713,32250
1939,Petco,29.6571701,-82.4156051,32605
1940,Pet Supermarket,30.2624511,-81.6237929,32217
1941,Pet Supplies Plus Atlantic Beach,30.3259848,-81.4109848,32233
1942,Pet Supermarket,30.2873056,-81.7213709,32210
1943,Pet Supermarket,30.2640955,-81.55840649999999,32216
1944,Pet Supermarket,29.8795038,-81.326146,32084
1945,Pet Supermarket,30.1875604,-81.62707739999999,32257
1946,Pet Supermarket,30.2054568,-81.7591583,32244
1947,Pet Supermarket,29.675545,-82.33880669999999,32609
1948,Pet Supermarket,30.3175559,-81.4726537,32225
1949,Pet Supermarket,29.5540932,-81.22952409999999,32137
1950,Pet Supermarket,30.2848241,-81.4610276,32224
1951,Pet Creations,30.4515094,-81.63737479999999,32218
1952,Pet Supermarket,30.3524532,-81.5812534,32277
1953,Pet Supplies Plus Orange Park,30.155529,-81.7490349,32073
1954,Pet and Feed Store,30.2473951,-81.7999338,32210
1955,Earth Pets Natural Pet Market - San Marco,30.3082793,-81.65425330000001,32207
1956,Pet Supermarket,30.1422699,-81.7658136,32065
1957,Pet Supplies Plus Brunswick,31.2187829,-81.4944343,31520
1958,EarthWise Pet,30.2903108,-81.3923713,32250
1959,Petco,29.6571701,-82.4156051,32605
1960,Pet Supermarket,30.2624511,-81.6237929,32217
1961,Pet Supplies Plus Atlantic Beach,30.3259848,-81.4109848,32233
1962,Pet Supermarket,30.2873056,-81.7213709,32210
1963,Pet Supermarket,30.2640955,-81.55840649999999,32216
1964,Pet Supermarket,29.8795038,-81.326146,32084
1965,Pet Supermarket,30.1875604,-81.62707739999999,32257
1966,Pet Supermarket,30.2054568,-81.7591583,32244
1967,Pet Supermarket,29.675545,-82.33880669999999,32609
1968,Pet Supermarket,30.3175559,-81.4726537,32225
1969,Pet Supermarket,29.5540932,-81.22952409999999,32137
1970,Pet Supermarket,30.2848241,-81.4610276,32224
1971,Pet Creations,30.4515094,-81.63737479999999,32218
1972,Pet Supermarket,30.3524532,-81.5812534,32277
1973,Pet Supplies Plus Orange Park,30.155529,-81.7490349,32073
1974,Pet and Feed Store,30.2473951,-81.7999338,32210
1975,Earth Pets Natural Pet Market - San Marco,30.3082793,-81.65425330000001,32207
1976,Pet Supermarket,30.1422699,-81.7658136,32065
1977,Pet Supplies Plus Brunswick,31.2187829,-81.4944343,31520
1978,EarthWise Pet,30.2903108,-81.3923713,32250
1979,Petco,29.6571701,-82.4156051,32605
1980,Pet Supermarket,30.2624511,-81.6237929,32217
1981,Pet Supplies Plus Atlantic Beach,30.3259848,-81.4109848,32233
1982,Pet Supermarket,30.2873056,-81.7213709,32210
1983,Pet Supermarket,30.2640955,-81.55840649999999,32216
1984,Pet Supermarket,29.8795038,-81.326146,32084
1985,Pet Supermarket,30.1875604,-81.62707739999999,32257
1986,Pet Supermarket,30.2054568,-81.7591583,32244
1987,Pet Supermarket,29.675545,-82.33880669999999,32609
1988,Pet Supermarket,30.3175559,-81.4726537,32225
1989,Pet Supermarket,29.5540932,-81.22952409999999,32137
1990,Pet Supermarket,30.2848241,-81.4610276,32224
1991,Pet Creations,30.4515094,-81.63737479999999,32218
1992,Pet Supermarket,30.3524532,-81.5812534,32277
1993,Pet Supplies Plus Orange Park,30.155529,-81.7490349,32073
1994,Pet and Feed Store,30.2473951,-81.7999338,32210
1995,Earth Pets Natural Pet Market - San Marco,30.3082793,-81.65425330000001,32207
1996,Pet Supermarket,30.1422699,-81.7658136,32065
1997,Pet Supplies Plus Brunswick,31.2187829,-81.4944343,31520
1998,EarthWise Pet,30.2903108,-81.3923713,32250
1999,Petco,29.6571701,-82.4156051,32605
2000,Pet Supermarket,30.2624511,-81.6237929,32217
2001,Pet Supplies Plus Atlantic Beach,30.3259848,-81.4109848,32233
2002,Pet Supermarket,30.2873056,-81.7213709,32210
2003,Pet Supermarket,30.2640955,-81.55840649999999,32216
2004,Pet Supermarket,29.8795038,-81.326146,32084
2005,Pet Supermarket,30.1875604,-81.62707739999999,32257
2006,Pet Supermarket,30.2054568,-81.7591583,32244
2007,Pet Supermarket,29.675545,-82.33880669999999,32609
2008,Pet Supermarket,30.3175559,-81.4726537,32225
2009,Pet Supermarket,29.5540932,-81.22952409999999,32137
2010,Pet Supermarket,30.2848241,-81.4610276,32224
2011,Pet Creations,30.4515094,-81.63737479999999,32218
2012,Pet Supermarket,30.3524532,-81.5812534,32277
2013,Pet Supplies Plus Orange Park,30.155529,-81.7490349,32073
2014,Pet and Feed Store,30.2473951,-81.7999338,32210
2015,Earth Pets Natural Pet Market - San Marco,30.3082793,-81.65425330000001,32207
2016,Pet Supermarket,30.1422699,-81.7658136,32065
2017,Pet Supplies Plus Brunswick,31.2187829,-81.4944343,31520
2018,EarthWise Pet,30.2903108,-81.3923713,32250
2019,Petco,29.6571701,-82.4156051,32605
2020,Pet Supermarket,30.2624511,-81.6237929,32217
2021,Pet Supplies Plus Atlantic Beach,30.3259848,-81.4109848,32233
2022,Pet Supermarket,30.2873056,-81.7213709,32210
2023,Pet Supermarket,30.2640955,-81.55840649999999,32216
2024,Pet Supermarket,29.8795038,-81.326146,32084
2025,Pet Supermarket,30.1875604,-81.62707739999999,32257
2026,Pet Supermarket,30.2054568,-81.7591583,32244
2027,Pet Supermarket,29.675545,-82.33880669999999,32609
2028,Pet Supermarket,30.3175559,-81.4726537,32225
2029,Pet Supermarket,29.5540932,-81.22952409999999,32137
2030,Pet Supermarket,30.2848241,-81.4610276,32224
2031,Pet Creations,30.4515094,-81.63737479999999,32218
2032,Pet Supermarket,30.3524532,-81.5812534,32277
2033,Pet Supplies Plus Orange Park,30.155529,-81.7490349,32073
2034,Pet and Feed Store,30.2473951,-81.7999338,32210
2035,Earth Pets Natural Pet Market - San Marco,30.3082793,-81.65425330000001,32207
2036,Pet Supermarket,30.1422699,-81.7658136,32065
2037,EarthWise Pet,30.2903108,-81.3923713,32250
2038,Petco,29.6571701,-82.4156051,32605
2039,Pet Supermarket,30.1929248,-81.5487701,32256
2040,Pet Supermarket,30.2624511,-81.6237929,32217
2041,Pet Supplies Plus Atlantic Beach,30.3259848,-81.4109848,32233
2042,Pet Supermarket,30.2873056,-81.7213709,32210
2043,Pet Supermarket,30.2640955,-81.55840649999999,32216
2044,Pet Supermarket,29.8795038,-81.326146,32084
2045,Pet Supermarket,30.1875604,-81.62707739999999,32257
2046,Pet Supermarket,30.2054568,-81.7591583,32244
2047,Pet Supermarket,29.675545,-82.33880669999999,32609
2048,Pet Supermarket,30.3175559,-81.4726537,32225
2049,Pet Supermarket,29.5540932,-81.22952409999999,32137
2050,Pet Supermarket,30.2848241,-81.4610276,32224
2051,Pet Creations,30.4515094,-81.63737479999999,32218
2052,Pet Supermarket,30.3524532,-81.5812534,32277
2053,Pet Supplies Plus Orange Park,30.155529,-81.7490349,32073
2054,Pet and Feed Store,30.2473951,-81.7999338,32210
2055,Earth Pets Natural Pet Market - San Marco,30.3082793,-81.65425330000001,32207
2056,Pet Supermarket,30.1422699,-81.7658136,32065
2057,Pet Supplies Plus Brunswick,31.2187829,-81.4944343,31520
2058,EarthWise Pet,30.2903108,-81.3923713,32250
2059,Petco,29.6571701,-82.4156051,32605
2060,Pet Supermarket,30.2624511,-81.6237929,32217
2061,Pet Supplies Plus Atlantic Beach,30.3259848,-81.4109848,32233
2062,Pet Supermarket,30.2873056,-81.7213709,32210
2063,Pet Supermarket,30.2640955,-81.55840649999999,32216
2064,Pet Supermarket,29.8795038,-81.326146,32084
2065,Pet Supermarket,30.1875604,-81.62707739999999,32257
2066,Pet Supermarket,30.2054568,-81.7591583,32244
2067,Pet Supermarket,29.675545,-82.33880669999999,32609
2068,Pet Supermarket,30.3175559,-81.4726537,32225
2069,Pet Supermarket,29.5540932,-81.22952409999999,32137
2070,Pet Supermarket,30.2848241,-81.4610276,32224
2071,Pet Creations,30.4515094,-81.63737479999999,32218
2072,Pet Supermarket,30.3524532,-81.5812534,32277
2073,Pet Supplies Plus Orange Park,30.155529,-81.7490349,32073
2074,Pet and Feed Store,30.2473951,-81.7999338,32210
2075,Earth Pets Natural Pet Market - San Marco,30.3082793,-81.65425330000001,32207
2076,Pet Supermarket,30.1422699,-81.7658136,32065
2077,EarthWise Pet,30.2903108,-81.3923713,32250
2078,Petco,29.6571701,-82.4156051,32605
2079,Pet Supermarket,30.1929248,-81.5487701,32256
2080,Pet Supermarket,30.2624511,-81.6237929,32217
2081,Pet Supplies Plus Atlantic Beach,30.3259848,-81.4109848,32233
2082,Pet Supermarket,30.2873056,-81.7213709,32210
2083,Pet Supermarket,30.2640955,-81.55840649999999,32216
2084,Pet Supermarket,29.8795038,-81.326146,32084
2085,Pet Supermarket,30.1875604,-81.62707739999999,32257
2086,Pet Supermarket,30.2054568,-81.7591583,32244
2087,Pet Supermarket,29.675545,-82.33880669999999,32609
2088,Pet Supermarket,30.3175559,-81.4726537,32225
2089,Pet Supermarket,29.5540932,-81.22952409999999,32137
2090,Pet Supermarket,30.2848241,-81.4610276,32224
2091,Pet Creations,30.4515094,-81.63737479999999,32218
2092,Pet Supermarket,30.3524532,-81.5812534,32277
2093,Pet Supplies Plus Orange Park,30.155529,-81.7490349,32073
2094,Pet and Feed Store,30.2473951,-81.7999338,32210
2095,Earth Pets Natural Pet Market - San Marco,30.3082793,-81.65425330000001,32207
2096,Pet Supermarket,30.1422699,-81.7658136,32065
2097,Pet Supplies Plus Brunswick,31.2187829,-81.4944343,31520
2098,EarthWise Pet,30.2903108,-81.3923713,32250
2099,Petco,29.6571701,-82.4156051,32605
2100,Pet Supermarket,30.2624511,-81.6237929,32217
2101,Pet Supplies Plus Atlantic Beach,30.3259848,-81.4109848,32233
2102,Pet Supermarket,30.2873056,-81.7213709,32210
2103,Pet Supermarket,30.2640955,-81.55840649999999,32216
2104,Pet Supermarket,29.8795038,-81.326146,32084
2105,Pet Supermarket,30.1875604,-81.62707739999999,32257
2106,Pet Supermarket,30.2054568,-81.7591583,32244
2107,Pet Supermarket,29.675545,-82.33880669999999,32609
2108,Pet Supermarket,30.3175559,-81.4726537,32225
2109,Pet Supermarket,29.5540932,-81.22952409999999,32137
2110,Pet Supermarket,30.2848241,-81.4610276,32224
2111,Pet Creations,30.4515094,-81.63737479999999,32218
2112,Pet Supermarket,30.3524532,-81.5812534,32277
2113,Pet Supplies Plus Orange Park,30.155529,-81.7490349,32073
2114,Pet and Feed Store,30.2473951,-81.7999338,32210
2115,Earth Pets Natural Pet Market - San Marco,30.3082793,-81.65425330000001,32207
2116,Pet Supermarket,30.1422699,-81.7658136,32065
2117,EarthWise Pet,30.2903108,-81.3923713,32250
2118,Petco,29.6571701,-82.4156051,32605
2119,Pet Supermarket,30.1929248,-81.5487701,32256
2120,Pet Supermarket,30.2624511,-81.6237929,32217
2121,Pet Supplies Plus Atlantic Beach,30.3259848,-81.4109848,32233
2122,Pet Supermarket,30.2873056,-81.7213709,32210
2123,Pet Supermarket,30.2640955,-81.55840649999999,32216
2124,Pet Supermarket,29.8795038,-81.326146,32084
2125,Pet Supermarket,30.1875604,-81.62707739999999,32257
2126,Pet Supermarket,30.2054568,-81.7591583,32244
2127,Pet Supermarket,29.675545,-82.33880669999999,32609
2128,Pet Supermarket,30.3175559,-81.4726537,32225
2129,Pet Supermarket,29.5540932,-81.22952409999999,32137
2130,Pet Supermarket,30.2848241,-81.4610276,32224
2131,Pet Creations,30.4515094,-81.63737479999999,32218
2132,Pet Supermarket,30.3524532,-81.5812534,32277
2133,Pet Supplies Plus Orange Park,30.155529,-81.7490349,32073
2134,Pet and Feed Store,30.2473951,-81.7999338,32210
2135,Earth Pets Natural Pet Market - San Marco,30.3082793,-81.65425330000001,32207
2136,Pet Supermarket,30.1422699,-81.7658136,32065
2137,Pet Supplies Plus Brunswick,31.2187829,-81.4944343,31520
2138,EarthWise Pet,30.2903108,-81.3923713,32250
2139,Petco,29.6571701,-82.4156051,32605
2140,Pet Supermarket,30.2624511,-81.6237929,32217
2141,Pet Supplies Plus Atlantic Beach,30.3259848,-81.4109848,32233
2142,Pet Supermarket,30.2873056,-81.7213709,32210
2143,Pet Supermarket,30.2640955,-81.55840649999999,32216
2144,Pet Supermarket,29.8795038,-81.326146,32084
2145,Pet Supermarket,30.1875604,-81.62707739999999,32257
2146,Pet Supermarket,30.2054568,-81.7591583,32244
2147,Pet Supermarket,29.675545,-82.33880669999999,32609
2148,Pet Supermarket,30.3175559,-81.4726537,32225
2149,Pet Supermarket,29.5540932,-81.22952409999999,32137
2150,Pet Supermarket,30.2848241,-81.4610276,32224
2151,Pet Creations,30.4515094,-81.63737479999999,32218
2152,Pet Supermarket,30.3524532,-81.5812534,32277
2153,Pet Supplies Plus Orange Park,30.155529,-81.7490349,32073
2154,Pet and Feed Store,30.2473951,-81.7999338,32210
2155,Earth Pets Natural Pet Market - San Marco,30.3082793,-81.65425330000001,32207
2156,Pet Supermarket,30.1422699,-81.7658136,32065
2157,EarthWise Pet,30.2903108,-81.3923713,32250
2158,Petco,29.6571701,-82.4156051,32605
2159,Pet Supermarket,30.1929248,-81.5487701,32256
2160,Pet Supermarket,30.2624511,-81.6237929,32217
2161,Pet Supermarket,30.2640955,-81.55840649999999,32216
2162,Pet Supermarket,30.1875604,-81.62707739999999,32257
2163,Pet Supermarket,30.2054568,-81.7591583,32244
2164,Pet Supermarket,29.675545,-82.33880669999999,32609
2165,Pet Supermarket,30.2873056,-81.7213709,32210
2166,Pet Supermarket,29.8795038,-81.326146,32084
2167,Pet Supermarket,30.2885374,-81.3956323,32250
2168,Pet Supermarket,30.3175559,-81.4726537,32225
2169,Pet Supermarket,30.1422699,-81.7658136,32065
2170,Pet Supermarket,29.5540932,-81.22952409999999,32137
2171,PetSmart,30.19998589999999,-81.5502113,32256
2172,PetSmart,30.3274361,-81.5482442,32225
2173,PetSmart,30.4763902,-81.6426602,32218
2174,Pet Supplies Plus Atlantic Beach,30.3259848,-81.4109848,32233
2175,PetSmart,29.6229983,-82.3805296,32608
2176,PetSmart,30.2711295,-81.3900309,32250
2177,Pet Creations,30.4515094,-81.63737479999999,32218
2178,Pet Supermarket,30.2848241,-81.4610276,32224
2179,PetSmart,30.1995024,-81.82314559999999,32222
2180,Pet Supermarket,30.2624511,-81.6237929,32217
2181,Pet Supplies Plus Atlantic Beach,30.3259848,-81.4109848,32233
2182,Pet Supermarket,30.2873056,-81.7213709,32210
2183,Pet Supermarket,30.2640955,-81.55840649999999,32216
2184,Pet Supermarket,29.8795038,-81.326146,32084
2185,Pet Supermarket,30.1875604,-81.62707739999999,32257
2186,Pet Supermarket,30.2054568,-81.7591583,32244
2187,Pet Supermarket,29.675545,-82.33880669999999,32609
2188,Pet Supermarket,30.3175559,-81.4726537,32225
2189,Pet Supermarket,29.5540932,-81.22952409999999,32137
2190,Pet Supermarket,30.2848241,-81.4610276,32224
2191,Pet Creations,30.4515094,-81.63737479999999,32218
2192,Pet Supermarket,30.3524532,-81.5812534,32277
2193,Pet Supplies Plus Orange Park,30.155529,-81.7490349,32073
2194,Pet and Feed Store,30.2473951,-81.7999338,32210
2195,Earth Pets Natural Pet Market - San Marco,30.3082793,-81.65425330000001,32207
2196,Pet Supermarket,30.1422699,-81.7658136,32065
2197,Pet Supplies Plus Brunswick,31.2187829,-81.4944343,31520
2198,EarthWise Pet,30.2903108,-81.3923713,32250
2199,Petco,29.6571701,-82.4156051,32605
2200,Pet Supermarket,30.2624511,-81.6237929,32217
2201,Pet Supplies Plus Atlantic Beach,30.3259848,-81.4109848,32233
2202,Pet Supermarket,30.2873056,-81.7213709,32210
2203,Pet Supermarket,30.2640955,-81.55840649999999,32216
2204,Pet Supermarket,29.8795038,-81.326146,32084
2205,Pet Supermarket,30.1875604,-81.62707739999999,32257
2206,Pet Supermarket,30.2054568,-81.7591583,32244
2207,Pet Supermarket,29.675545,-82.33880669999999,32609
2208,Pet Supermarket,30.3175559,-81.4726537,32225
2209,Pet Supermarket,29.5540932,-81.22952409999999,32137
2210,Pet Supermarket,30.2848241,-81.4610276,32224
2211,Pet Creations,30.4515094,-81.63737479999999,32218
2212,Pet Supermarket,30.3524532,-81.5812534,32277
2213,Pet Supplies Plus Orange Park,30.155529,-81.7490349,32073
2214,Pet and Feed Store,30.2473951,-81.7999338,32210
2215,Earth Pets Natural Pet Market - San Marco,30.3082793,-81.65425330000001,32207
2216,Pet Supermarket,30.1422699,-81.7658136,32065
2217,EarthWise Pet,30.2903108,-81.3923713,32250
2218,Petco,29.6571701,-82.4156051,32605
2219,Pet Supermarket,30.1929248,-81.5487701,32256
2220,Pet Supermarket,30.2624511,-81.6237929,32217
2221,Pet Supermarket,30.2640955,-81.55840649999999,32216
2222,Pet Supermarket,30.1875604,-81.62707739999999,32257
2223,Pet Supermarket,30.2054568,-81.7591583,32244
2224,Pet Supermarket,29.675545,-82.33880669999999,32609
2225,Pet Supermarket,30.2873056,-81.7213709,32210
2226,Pet Supermarket,29.8795038,-81.326146,32084
2227,Pet Supermarket,30.2885374,-81.3956323,32250
2228,Pet Supermarket,30.3175559,-81.4726537,32225
2229,Pet Supermarket,30.1422699,-81.7658136,32065
2230,Pet Supermarket,29.5540932,-81.22952409999999,32137
2231,PetSmart,30.4763902,-81.6426602,32218
2232,Pet Supplies Plus Atlantic Beach,30.3259848,-81.4109848,32233
2233,PetSmart,30.3274361,-81.5482442,32225
2234,PetSmart,29.6229983,-82.3805296,32608
2235,PetSmart,30.2711295,-81.3900309,32250
2236,Pet Creations,30.4515094,-81.63737479999999,32218
2237,PetSmart,30.19998589999999,-81.5502113,32256
2238,Pet Supermarket,30.2848241,-81.4610276,32224
2239,PetSmart,30.1995024,-81.82314559999999,32222
2240,Pet Supermarket,30.2624511,-81.6237929,32217
2241,Pet Supermarket,30.2640955,-81.55840649999999,32216
2242,Pet Supermarket,30.1875604,-81.62707739999999,32257
2243,Pet Supermarket,30.2054568,-81.7591583,32244
2244,Pet Supermarket,29.675545,-82.33880669999999,32609
2245,Pet Supermarket,30.2873056,-81.7213709,32210
2246,Pet Supermarket,29.8795038,-81.326146,32084
2247,Pet Supermarket,30.2885374,-81.3956323,32250
2248,Pet Supermarket,30.3175559,-81.4726537,32225
2249,Pet Supermarket,30.1422699,-81.7658136,32065
2250,Pet Supermarket,29.5540932,-81.22952409999999,32137
2251,Pet Supermarket,29.2690141,-81.10086919999999,32174
2252,PetSmart,30.4763902,-81.6426602,32218
2253,Pet Supplies Plus Atlantic Beach,30.3259848,-81.4109848,32233
2254,PetSmart,30.3274361,-81.5482442,32225
2255,PetSmart,29.6229983,-82.3805296,32608
2256,PetSmart,30.2711295,-81.3900309,32250
2257,Pet Creations,30.4515094,-81.63737479999999,32218
2258,Pet Supermarket,29.26164709999999,-81.02814049999999,32118
2259,PetSmart,30.19998589999999,-81.5502113,32256
2260,Pet Supermarket,30.2624511,-81.6237929,32217
2261,Pet Supplies Plus Atlantic Beach,30.3259848,-81.4109848,32233
2262,Pet Supermarket,30.2873056,-81.7213709,32210
2263,Pet Supermarket,30.2640955,-81.55840649999999,32216
2264,Pet Supermarket,29.8795038,-81.326146,32084
2265,Pet Supermarket,30.1875604,-81.62707739999999,32257
2266,Pet Supermarket,30.2054568,-81.7591583,32244
2267,Pet Supermarket,29.675545,-82.33880669999999,32609
2268,Pet Supermarket,29.187339,-82.1098148,34470
2269,Pet Supermarket,30.3175559,-81.4726537,32225
2270,Pet Supermarket,29.5540932,-81.22952409999999,32137
2271,Pet Supermarket,30.2848241,-81.4610276,32224
2272,Pet Creations,30.4515094,-81.63737479999999,32218
2273,Pet Supermarket,30.3524532,-81.5812534,32277
2274,Pet Supplies Plus Orange Park,30.155529,-81.7490349,32073
2275,Pet and Feed Store,30.2473951,-81.7999338,32210
2276,Earth Pets Natural Pet Market - San Marco,30.3082793,-81.65425330000001,32207
2277,Pet Supermarket,30.1422699,-81.7658136,32065
2278,EarthWise Pet,30.2903108,-81.3923713,32250
2279,Petco,29.6571701,-82.4156051,32605
2280,Pet Supermarket,30.2624511,-81.6237929,32217
2281,Pet Supplies Plus Atlantic Beach,30.3259848,-81.4109848,32233
2282,Pet Supermarket,30.2873056,-81.7213709,32210
2283,Pet Supermarket,30.2640955,-81.55840649999999,32216
2284,Pet Supermarket,29.8795038,-81.326146,32084
2285,Pet Supermarket,30.1875604,-81.62707739999999,32257
2286,Pet Supermarket,30.2054568,-81.7591583,32244
2287,Pet Supermarket,29.675545,-82.33880669999999,32609
2288,Pet Supermarket,30.3175559,-81.4726537,32225
2289,Pet Supermarket,29.5540932,-81.22952409999999,32137
2290,Pet Supermarket,30.2848241,-81.4610276,32224
2291,Pet Creations,30.4515094,-81.63737479999999,32218
2292,Pet Supermarket,30.3524532,-81.5812534,32277
2293,Pet Supplies Plus Orange Park,30.155529,-81.7490349,32073
2294,Pet and Feed Store,30.2473951,-81.7999338,32210
2295,Earth Pets Natural Pet Market - San Marco,30.3082793,-81.65425330000001,32207
2296,Pet Supermarket,30.1422699,-81.7658136,32065
2297,Pet Supplies Plus Brunswick,31.2187829,-81.4944343,31520
2298,EarthWise Pet,30.2903108,-81.3923713,32250
2299,Petco,29.6571701,-82.4156051,32605
2300,Pet Supermarket,30.2624511,-81.6237929,32217
2301,Pet Supplies Plus Atlantic Beach,30.3259848,-81.4109848,32233
2302,Pet Supermarket,30.2873056,-81.7213709,32210
2303,Pet Supermarket,30.2640955,-81.55840649999999,32216
2304,Pet Supermarket,29.8795038,-81.326146,32084
2305,Pet Supermarket,30.1875604,-81.62707739999999,32257
2306,Pet Supermarket,30.2054568,-81.7591583,32244
2307,Pet Supermarket,29.675545,-82.33880669999999,32609
2308,Pet Supermarket,30.3175559,-81.4726537,32225
2309,Pet Supermarket,29.5540932,-81.22952409999999,32137
2310,Pet Supermarket,30.2848241,-81.4610276,32224
2311,Pet Creations,30.4515094,-81.63737479999999,32218
2312,Pet Supermarket,30.3524532,-81.5812534,32277
2313,Pet Supplies Plus Orange Park,30.155529,-81.7490349,32073
2314,Pet and Feed Store,30.2473951,-81.7999338,32210
2315,Earth Pets Natural Pet Market - San Marco,30.3082793,-81.65425330000001,32207
2316,Pet Supermarket,30.1422699,-81.7658136,32065
2317,EarthWise Pet,30.2903108,-81.3923713,32250
2318,Petco,29.6571701,-82.4156051,32605
2319,Pet Supermarket,30.1929248,-81.5487701,32256
2320,Pet Supermarket,30.2624511,-81.6237929,32217
2321,Pet Supermarket,30.2640955,-81.55840649999999,32216
2322,Pet Supermarket,30.1875604,-81.62707739999999,32257
2323,Pet Supermarket,30.2054568,-81.7591583,32244
2324,Pet Supermarket,29.675545,-82.33880669999999,32609
2325,Pet Supermarket,30.2873056,-81.7213709,32210
2326,Pet Supermarket,29.8795038,-81.326146,32084
2327,Pet Supermarket,30.2885374,-81.3956323,32250
2328,Pet Supermarket,30.3175559,-81.4726537,32225
2329,Pet Supermarket,30.1422699,-81.7658136,32065
2330,Pet Supermarket,29.5540932,-81.22952409999999,32137
2331,Pet Supplies Plus Atlantic Beach,30.3259848,-81.4109848,32233
2332,PetSmart,30.3274361,-81.5482442,32225
2333,PetSmart,29.6229983,-82.3805296,32608
2334,Pet Creations,30.4515094,-81.63737479999999,32218
2335,PetSmart,30.4763902,-81.6426602,32218
2336,PetSmart,30.19998589999999,-81.5502113,32256
2337,Pet Supermarket,30.2848241,-81.4610276,32224
2338,PetSmart,30.1995024,-81.82314559999999,32222
2339,PetSmart,29.8694993,-81.3253654,32084
2340,Pet Supermarket,30.2624511,-81.6237929,32217
2341,Pet Supplies Plus Atlantic Beach,30.3259848,-81.4109848,32233
2342,Pet Supermarket,30.2873056,-81.7213709,32210
2343,Pet Supermarket,30.2640955,-81.55840649999999,32216
2344,Pet Supermarket,29.8795038,-81.326146,32084
2345,Pet Supermarket,30.1875604,-81.62707739999999,32257
2346,Pet Supermarket,30.2054568,-81.7591583,32244
2347,Pet Supermarket,29.675545,-82.33880669999999,32609
2348,Pet Supermarket,30.3175559,-81.4726537,32225
2349,Pet Supermarket,29.5540932,-81.22952409999999,32137
2350,Pet Supermarket,30.2848241,-81.4610276,32224
2351,Pet Creations,30.4515094,-81.63737479999999,32218
2352,Pet Supermarket,30.3524532,-81.5812534,32277
2353,Pet Supplies Plus Orange Park,30.155529,-81.7490349,32073
2354,Pet and Feed Store,30.2473951,-81.7999338,32210
2355,Earth Pets Natural Pet Market - San Marco,30.3082793,-81.65425330000001,32207
2356,Pet Supermarket,30.1422699,-81.7658136,32065
2357,Pet Supplies Plus Brunswick,31.2187829,-81.4944343,31520
2358,EarthWise Pet,30.2903108,-81.3923713,32250
2359,Petco,29.6571701,-82.4156051,32605
2360,Pet Supermarket,30.2624511,-81.6237929,32217
2361,Pet Supplies Plus Atlantic Beach,30.3259848,-81.4109848,32233
2362,Pet Supermarket,30.2873056,-81.7213709,32210
2363,Pet Supermarket,30.2640955,-81.55840649999999,32216
2364,Pet Supermarket,29.8795038,-81.326146,32084
2365,Pet Supermarket,30.1875604,-81.62707739999999,32257
2366,Pet Supermarket,30.2054568,-81.7591583,32244
2367,Pet Supermarket,29.675545,-82.33880669999999,32609
2368,Pet Supermarket,30.3175559,-81.4726537,32225
2369,Pet Supermarket,29.5540932,-81.22952409999999,32137
2370,Pet Supermarket,30.2848241,-81.4610276,32224
2371,Pet Creations,30.4515094,-81.63737479999999,32218
2372,Pet Supermarket,30.3524532,-81.5812534,32277
2373,Pet Supplies Plus Orange Park,30.155529,-81.7490349,32073
2374,Pet and Feed Store,30.2473951,-81.7999338,32210
2375,Earth Pets Natural Pet Market - San Marco,30.3082793,-81.65425330000001,32207
2376,Pet Supermarket,30.1422699,-81.7658136,32065
2377,Pet Supplies Plus Brunswick,31.2187829,-81.4944343,31520
2378,EarthWise Pet,30.2903108,-81.3923713,32250
2379,Petco,29.6571701,-82.4156051,32605
2380,Pet Supermarket,30.2624511,-81.6237929,32217
2381,Pet Supplies Plus Atlantic Beach,30.3259848,-81.4109848,32233
2382,Pet Supermarket,30.2873056,-81.7213709,32210
2383,Pet Supermarket,30.2640955,-81.55840649999999,32216
2384,Pet Supermarket,29.8795038,-81.326146,32084
2385,Pet Supermarket,30.1875604,-81.62707739999999,32257
2386,Pet Supermarket,30.2054568,-81.7591583,32244
2387,Pet Supermarket,29.675545,-82.33880669999999,32609
2388,Pet Supermarket,29.187339,-82.1098148,34470
2389,Pet Supermarket,30.3175559,-81.4726537,32225
2390,Pet Supermarket,30.2848241,-81.4610276,32224
2391,Pet Creations,30.4515094,-81.63737479999999,32218
2392,Pet Supermarket,30.3524532,-81.5812534,32277
2393,Petco,29.1435119,-82.1877512,34474
2394,Pet Supermarket,28.9142272,-81.29114059999999,32763
2395,Pet Supplies Plus Orange Park,30.155529,-81.7490349,32073
2396,Pet and Feed Store,30.2473951,-81.7999338,32210
2397,Pet Supermarket,28.8207074,-81.6779207,32757
2398,Earth Pets Natural Pet Market - San Marco,30.3082793,-81.65425330000001,32207
2399,Pet Supermarket,30.1422699,-81.7658136,32065
2400,Pet Supermarket,30.2624511,-81.6237929,32217
2401,Pet Supplies Plus Atlantic Beach,30.3259848,-81.4109848,32233
2402,Pet Supermarket,30.2873056,-81.7213709,32210
2403,Pet Supermarket,30.2640955,-81.55840649999999,32216
2404,Pet Supermarket,29.8795038,-81.326146,32084
2405,Pet Supermarket,30.1875604,-81.62707739999999,32257
2406,Pet Supermarket,30.2054568,-81.7591583,32244
2407,Pet Supermarket,29.675545,-82.33880669999999,32609
2408,Pet Supermarket,29.187339,-82.1098148,34470
2409,Pet Supermarket,30.3175559,-81.4726537,32225
2410,Pet Supermarket,30.2848241,-81.4610276,32224
2411,Pet Creations,30.4515094,-81.63737479999999,32218
2412,Pet Supermarket,30.3524532,-81.5812534,32277
2413,Petco,29.1435119,-82.1877512,34474
2414,Pet Supplies Plus Orange Park,30.155529,-81.7490349,32073
2415,Pet and Feed Store,30.2473951,-81.7999338,32210
2416,Pet Supermarket,28.8207074,-81.6779207,32757
2417,Earth Pets Natural Pet Market - San Marco,30.3082793,-81.65425330000001,32207
2418,Pet Supermarket,30.1422699,-81.7658136,32065
2419,EarthWise Pet,30.2903108,-81.3923713,32250
2420,Pet Supermarket,30.2624511,-81.6237929,32217
2421,Pet Supermarket,30.2640955,-81.55840649999999,32216
2422,Pet Supermarket,30.1875604,-81.62707739999999,32257
2423,Pet Supermarket,30.2054568,-81.7591583,32244
2424,Pet Supermarket,29.675545,-82.33880669999999,32609
2425,Pet Supermarket,30.2873056,-81.7213709,32210
2426,Pet Supermarket,29.8795038,-81.326146,32084
2427,Pet Supermarket,30.2885374,-81.3956323,32250
2428,Pet Supermarket,30.3175559,-81.4726537,32225
2429,Pet Supermarket,30.1422699,-81.7658136,32065
2430,PetSmart,30.19998589999999,-81.5502113,32256
2431,PetSmart,30.3274361,-81.5482442,32225
2432,Pet Supermarket,29.187339,-82.1098148,34470
2433,PetSmart,30.4763902,-81.6426602,32218
2434,Pet Supplies Plus Atlantic Beach,30.3259848,-81.4109848,32233
2435,Pet Supermarket,28.8207074,-81.6779207,32757
2436,Pet Creations,30.4515094,-81.63737479999999,32218
2437,PetSmart,28.9300474,-82.0197625,32162
2438,Pet Supermarket,30.2848241,-81.4610276,32224
2439,PetSmart,30.1995024,-81.82314559999999,32222
2440,Pet Supermarket,30.2624511,-81.6237929,32217
2441,Pet Supplies Plus Atlantic Beach,30.3259848,-81.4109848,32233
2442,Pet Supermarket,30.2873056,-81.7213709,32210
2443,Pet Supermarket,30.2640955,-81.55840649999999,32216
2444,Pet Supermarket,29.8795038,-81.326146,32084
2445,Pet Supermarket,30.1875604,-81.62707739999999,32257
2446,Pet Supermarket,30.2054568,-81.7591583,32244
2447,Pet Supermarket,29.675545,-82.33880669999999,32609
2448,Pet Supermarket,29.187339,-82.1098148,34470
2449,Pet Supermarket,30.3175559,-81.4726537,32225
2450,Pet Supermarket,30.2848241,-81.4610276,32224
2451,Pet Creations,30.4515094,-81.63737479999999,32218
2452,Pet Supermarket,30.3524532,-81.5812534,32277
2453,Petco,29.1435119,-82.1877512,34474
2454,Pet Supplies Plus Orange Park,30.155529,-81.7490349,32073
2455,Pet and Feed Store,30.2473951,-81.7999338,32210
2456,Pet Supermarket,28.8207074,-81.6779207,32757
2457,Earth Pets Natural Pet Market - San Marco,30.3082793,-81.65425330000001,32207
2458,Pet Supermarket,30.1422699,-81.7658136,32065
2459,EarthWise Pet,30.2903108,-81.3923713,32250
2460,Pet Supermarket,30.2624511,-81.6237929,32217
2461,Pet Supplies Plus Atlantic Beach,30.3259848,-81.4109848,32233
2462,Pet Supermarket,30.2873056,-81.7213709,32210
2463,Pet Supermarket,30.2640955,-81.55840649999999,32216
2464,Pet Supermarket,30.1875604,-81.62707739999999,32257
2465,Pet Supermarket,30.2054568,-81.7591583,32244
2466,Pet Supermarket,29.675545,-82.33880669999999,32609
2467,Pet Supermarket,29.187339,-82.1098148,34470
2468,Pet Supermarket,30.3175559,-81.4726537,32225
2469,Pet Supermarket,30.2848241,-81.4610276,32224
2470,Pet Creations,30.4515094,-81.63737479999999,32218
2471,Pet Supermarket,30.3524532,-81.5812534,32277
2472,Petco,29.1435119,-82.1877512,34474
2473,Pet Supplies Plus Orange Park,30.155529,-81.7490349,32073
2474,Pet and Feed Store,30.2473951,-81.7999338,32210
2475,Pet Supermarket,28.8207074,-81.6779207,32757
2476,Earth Pets Natural Pet Market - San Marco,30.3082793,-81.65425330000001,32207
2477,Pet Supermarket,30.1422699,-81.7658136,32065
2478,EarthWise Pet,30.2903108,-81.3923713,32250
2479,Petco,29.6571701,-82.4156051,32605
2480,Pet Supermarket,30.2624511,-81.6237929,32217
2481,Pet Supplies Plus Atlantic Beach,30.3259848,-81.4109848,32233
2482,Pet Supermarket,30.2873056,-81.7213709,32210
2483,Pet Supermarket,30.2640955,-81.55840649999999,32216
2484,Pet Supermarket,30.1875604,-81.62707739999999,32257
2485,Pet Supermarket,30.2054568,-81.7591583,32244
2486,Pet Supermarket,29.675545,-82.33880669999999,32609
2487,Pet Supermarket,29.187339,-82.1098148,34470
2488,Pet Supermarket,30.3175559,-81.4726537,32225
2489,Pet Supermarket,30.2848241,-81.4610276,32224
2490,Pet Creations,30.4515094,-81.63737479999999,32218
2491,Pet Supermarket,30.3524532,-81.5812534,32277
2492,Petco,29.1435119,-82.1877512,34474
2493,Pet Supplies Plus Orange Park,30.155529,-81.7490349,32073
2494,Pet and Feed Store,30.2473951,-81.7999338,32210
2495,Pet Supermarket,28.8207074,-81.6779207,32757
2496,Earth Pets Natural Pet Market - San Marco,30.3082793,-81.65425330000001,32207
2497,Pet Supermarket,30.1422699,-81.7658136,32065
2498,Petco,29.6571701,-82.4156051,32605
2499,Pet Supermarket,28.8559781,-82.38938309999999,34453
2500,Pet Supermarket,30.2624511,-81.6237929,32217
2501,Pet Supplies Plus Atlantic Beach,30.3259848,-81.4109848,32233
2502,Pet Supermarket,30.2873056,-81.7213709,32210
2503,Pet Supermarket,30.2640955,-81.55840649999999,32216
2504,Pet Supermarket,30.1875604,-81.62707739999999,32257
2505,Pet Supermarket,30.2054568,-81.7591583,32244
2506,Pet Supermarket,29.675545,-82.33880669999999,32609
2507,Pet Supermarket,29.187339,-82.1098148,34470
2508,Pet Supermarket,30.3175559,-81.4726537,32225
2509,Pet Supermarket,30.2848241,-81.4610276,32224
2510,Pet Creations,30.4515094,-81.63737479999999,32218
2511,Pet Supermarket,30.3524532,-81.5812534,32277
2512,Petco,29.1435119,-82.1877512,34474
2513,Pet Supplies Plus Orange Park,30.155529,-81.7490349,32073
2514,Pet and Feed Store,30.2473951,-81.7999338,32210
2515,Pet Supermarket,28.8207074,-81.6779207,32757
2516,Earth Pets Natural Pet Market - San Marco,30.3082793,-81.65425330000001,32207
2517,Pet Supermarket,30.1422699,-81.7658136,32065
2518,EarthWise Pet,30.2903108,-81.3923713,32250
2519,Petco,29.6571701,-82.4156051,32605
2520,Pet Supermarket,30.2624511,-81.6237929,32217
2521,Pet Supplies Plus Atlantic Beach,30.3259848,-81.4109848,32233
2522,Pet Supermarket,30.2873056,-81.7213709,32210
2523,Pet Supermarket,30.2640955,-81.55840649999999,32216
2524,Pet Supermarket,30.1875604,-81.62707739999999,32257
2525,Pet Supermarket,30.2054568,-81.7591583,32244
2526,Pet Supermarket,29.675545,-82.33880669999999,32609
2527,Pet Supermarket,29.187339,-82.1098148,34470
2528,Pet Supermarket,30.3175559,-81.4726537,32225
2529,Pet Supermarket,30.2848241,-81.4610276,32224
2530,Pet Creations,30.4515094,-81.63737479999999,32218
2531,Pet Supermarket,30.3524532,-81.5812534,32277
2532,Petco,29.1435119,-82.1877512,34474
2533,Pet Supplies Plus Orange Park,30.155529,-81.7490349,32073
2534,Pet and Feed Store,30.2473951,-81.7999338,32210
2535,Pet Supermarket,28.8207074,-81.6779207,32757
2536,Earth Pets Natural Pet Market - San Marco,30.3082793,-81.65425330000001,32207
2537,Pet Supermarket,30.1422699,-81.7658136,32065
2538,EarthWise Pet,30.2903108,-81.3923713,32250
2539,Petco,29.6571701,-82.4156051,32605
2540,Pet Supermarket,30.2624511,-81.6237929,32217
2541,Pet Supplies Plus Atlantic Beach,30.3259848,-81.4109848,32233
2542,Pet Supermarket,30.2873056,-81.7213709,32210
2543,Pet Supermarket,30.2640955,-81.55840649999999,32216
2544,Pet Supermarket,29.8795038,-81.326146,32084
2545,Pet Supermarket,30.1875604,-81.62707739999999,32257
2546,Pet Supermarket,30.2054568,-81.7591583,32244
2547,Pet Supermarket,29.675545,-82.33880669999999,32609
2548,Pet Supermarket,29.187339,-82.1098148,34470
2549,Pet Supermarket,30.3175559,-81.4726537,32225
2550,Pet Supermarket,30.2848241,-81.4610276,32224
2551,Pet Creations,30.4515094,-81.63737479999999,32218
2552,Pet Supermarket,30.3524532,-81.5812534,32277
2553,Petco,29.1435119,-82.1877512,34474
2554,Pet Supplies Plus Orange Park,30.155529,-81.7490349,32073
2555,Pet and Feed Store,30.2473951,-81.7999338,32210
2556,Pet Supermarket,28.8207074,-81.6779207,32757
2557,Earth Pets Natural Pet Market - San Marco,30.3082793,-81.65425330000001,32207
2558,Pet Supermarket,30.1422699,-81.7658136,32065
2559,EarthWise Pet,30.2903108,-81.3923713,32250
2560,Pet Supermarket,30.2624511,-81.6237929,32217
2561,Pet Supplies Plus Atlantic Beach,30.3259848,-81.4109848,32233
2562,Pet Supermarket,30.2873056,-81.7213709,32210
2563,Pet Supermarket,30.2640955,-81.55840649999999,32216
2564,Pet Supermarket,29.8795038,-81.326146,32084
2565,Pet Supermarket,30.1875604,-81.62707739999999,32257
2566,Pet Supermarket,30.2054568,-81.7591583,32244
2567,Pet Supermarket,29.675545,-82.33880669999999,32609
2568,Pet Supermarket,29.187339,-82.1098148,34470
2569,Pet Supermarket,30.3175559,-81.4726537,32225
2570,Pet Supermarket,30.2848241,-81.4610276,32224
2571,Pet Creations,30.4515094,-81.63737479999999,32218
2572,Pet Supermarket,30.3524532,-81.5812534,32277
2573,Petco,29.1435119,-82.1877512,34474
2574,Pet Supplies Plus Orange Park,30.155529,-81.7490349,32073
2575,Pet and Feed Store,30.2473951,-81.7999338,32210
2576,Pet Supermarket,28.8207074,-81.6779207,32757
2577,Earth Pets Natural Pet Market - San Marco,30.3082793,-81.65425330000001,32207
2578,Pet Supermarket,30.1422699,-81.7658136,32065
2579,EarthWise Pet,30.2903108,-81.3923713,32250
2580,Pet Supermarket,30.2624511,-81.6237929,32217
2581,Pet Supplies Plus Atlantic Beach,30.3259848,-81.4109848,32233
2582,Pet Supermarket,30.2873056,-81.7213709,32210
2583,Pet Supermarket,30.2640955,-81.55840649999999,32216
2584,Pet Supermarket,29.8795038,-81.326146,32084
2585,Pet Supermarket,30.1875604,-81.62707739999999,32257
2586,Pet Supermarket,30.2054568,-81.7591583,32244
2587,Pet Supermarket,29.675545,-82.33880669999999,32609
2588,Pet Supermarket,29.187339,-82.1098148,34470
2589,Pet Supermarket,30.3175559,-81.4726537,32225
2590,Pet Supermarket,30.2848241,-81.4610276,32224
2591,Pet Creations,30.4515094,-81.63737479999999,32218
2592,Pet Supermarket,30.3524532,-81.5812534,32277
2593,Petco,29.1435119,-82.1877512,34474
2594,Pet Supplies Plus Orange Park,30.155529,-81.7490349,32073
2595,Pet and Feed Store,30.2473951,-81.7999338,32210
2596,Pet Supermarket,28.8207074,-81.6779207,32757
2597,Earth Pets Natural Pet Market - San Marco,30.3082793,-81.65425330000001,32207
2598,Pet Supermarket,30.1422699,-81.7658136,32065
2599,EarthWise Pet,30.2903108,-81.3923713,32250
2600,Pet Supermarket,30.2624511,-81.6237929,32217
2601,Pet Supermarket,30.2640955,-81.55840649999999,32216
2602,Pet Supermarket,30.1875604,-81.62707739999999,32257
2603,Pet Supermarket,30.2054568,-81.7591583,32244
2604,Pet Supermarket,29.675545,-82.33880669999999,32609
2605,Pet Supermarket,30.2873056,-81.7213709,32210
2606,Pet Supermarket,29.8795038,-81.326146,32084
2607,Pet Supermarket,30.2885374,-81.3956323,32250
2608,Pet Supermarket,30.3175559,-81.4726537,32225
2609,Pet Supermarket,30.1422699,-81.7658136,32065
2610,PetSmart,30.19998589999999,-81.5502113,32256
2611,PetSmart,30.3274361,-81.5482442,32225
2612,Pet Supermarket,29.187339,-82.1098148,34470
2613,PetSmart,30.4763902,-81.6426602,32218
2614,Pet Supplies Plus Atlantic Beach,30.3259848,-81.4109848,32233
2615,Pet Supermarket,28.8207074,-81.6779207,32757
2616,PetSmart,29.6229983,-82.3805296,32608
2617,Pet Creations,30.4515094,-81.63737479999999,32218
2618,PetSmart,28.9300474,-82.0197625,32162
2619,Pet Supermarket,30.2848241,-81.4610276,32224
2620,Pet Supermarket,30.2624511,-81.6237929,32217
2621,Pet Supplies Plus Atlantic Beach,30.3259848,-81.4109848,32233
2622,Pet Supermarket,30.2873056,-81.7213709,32210
2623,Pet Supermarket,30.2640955,-81.55840649999999,32216
2624,Pet Supermarket,29.8795038,-81.326146,32084
2625,Pet Supermarket,30.1875604,-81.62707739999999,32257
2626,Pet Supermarket,30.2054568,-81.7591583,32244
2627,Pet Supermarket,29.675545,-82.33880669999999,32609
2628,Pet Supermarket,29.187339,-82.1098148,34470
2629,Pet Supermarket,30.3175559,-81.4726537,32225
2630,Pet Supermarket,30.2848241,-81.4610276,32224
2631,Pet Creations,30.4515094,-81.63737479999999,32218
2632,Pet Supermarket,30.3524532,-81.5812534,32277
2633,Petco,29.1435119,-82.1877512,34474
2634,Pet Supplies Plus Orange Park,30.155529,-81.7490349,32073
2635,Pet and Feed Store,30.2473951,-81.7999338,32210
2636,Pet Supermarket,28.8207074,-81.6779207,32757
2637,Earth Pets Natural Pet Market - San Marco,30.3082793,-81.65425330000001,32207
2638,Pet Supermarket,30.1422699,-81.7658136,32065
2639,EarthWise Pet,30.2903108,-81.3923713,32250
2640,Pet Supermarket,30.2624511,-81.6237929,32217
2641,Pet Supplies Plus Atlantic Beach,30.3259848,-81.4109848,32233
2642,Pet Supermarket,30.2873056,-81.7213709,32210
2643,Pet Supermarket,30.2640955,-81.55840649999999,32216
2644,Pet Supermarket,29.8795038,-81.326146,32084
2645,Pet Supermarket,30.1875604,-81.62707739999999,32257
2646,Pet Supermarket,30.2054568,-81.7591583,32244
2647,Pet Supermarket,29.675545,-82.33880669999999,32609
2648,Pet Supermarket,29.187339,-82.1098148,34470
2649,Pet Supermarket,30.3175559,-81.4726537,32225
2650,Pet Supermarket,30.2848241,-81.4610276,32224
2651,Pet Creations,30.4515094,-81.63737479999999,32218
2652,Pet Supermarket,30.3524532,-81.5812534,32277
2653,Petco,29.1435119,-82.1877512,34474
2654,Pet Supplies Plus Orange Park,30.155529,-81.7490349,32073
2655,Pet and Feed Store,30.2473951,-81.7999338,32210
2656,Pet Supermarket,28.8207074,-81.6779207,32757
2657,Earth Pets Natural Pet Market - San Marco,30.3082793,-81.65425330000001,32207
2658,Pet Supermarket,30.1422699,-81.7658136,32065
2659,EarthWise Pet,30.2903108,-81.3923713,32250
2660,Pet Supermarket,30.2624511,-81.6237929,32217
2661,Pet Creations,30.4515094,-81.63737479999999,32218
2662,Pet Supermarket,30.2873056,-81.7213709,32210
2663,Pet Supermarket,30.2640955,-81.55840649999999,32216
2664,Pet Supermarket,30.1875604,-81.62707739999999,32257
2665,Pet Supermarket,30.2054568,-81.7591583,32244
2666,Pet Supermarket,29.675545,-82.33880669999999,32609
2667,Pet Supermarket,29.187339,-82.1098148,34470
2668,Pet Supermarket,30.3175559,-81.4726537,32225
2669,Pet Supermarket,30.2848241,-81.4610276,32224
2670,Pet Supermarket,30.3524532,-81.5812534,32277
2671,Petco,29.1435119,-82.1877512,34474
2672,Pet Supplies Plus Orange Park,30.155529,-81.7490349,32073
2673,Pet and Feed Store,30.2473951,-81.7999338,32210
2674,Earth Pets Natural Pet Market - San Marco,30.3082793,-81.65425330000001,32207
2675,Pet Supermarket,30.1422699,-81.7658136,32065
2676,Petco,29.6571701,-82.4156051,32605
2677,Pet Supermarket,30.1929248,-81.5487701,32256
2678,Petco,30.17193219999999,-81.6266911,32223
2679,PetSmart,29.1524562,-82.18069539999999,34474
2680,Pet Supermarket,30.2624511,-81.6237929,32217
2681,Pet Creations,30.4515094,-81.63737479999999,32218
2682,Pet Supermarket,30.3524532,-81.5812534,32277
2683,Pet Supermarket,30.2873056,-81.7213709,32210
2684,Pet Supermarket,30.2640955,-81.55840649999999,32216
2685,Pet Supermarket,30.1875604,-81.62707739999999,32257
2686,Pet Supermarket,30.2054568,-81.7591583,32244
2687,Pet Supermarket,29.675545,-82.33880669999999,32609
2688,Pet Supermarket,29.187339,-82.1098148,34470
2689,Pet Supermarket,30.3175559,-81.4726537,32225
2690,Petco,29.1435119,-82.1877512,34474
2691,Pet Supplies Plus Orange Park,30.155529,-81.7490349,32073
2692,Pet and Feed Store,30.2473951,-81.7999338,32210
2693,Earth Pets Natural Pet Market - San Marco,30.3082793,-81.65425330000001,32207
2694,Pet Supermarket,30.1422699,-81.7658136,32065
2695,Petco,29.6571701,-82.4156051,32605
2696,Pet Supermarket,30.1929248,-81.5487701,32256
2697,Petco,30.17193219999999,-81.6266911,32223
2698,PetSmart,29.1524562,-82.18069539999999,34474
2699,Lake City Pets and Supplies & Grooming,30.18679599999999,-82.6527431,32055
2700,Pet Supermarket,30.2624511,-81.6237929,32217
2701,PetSmart,30.19998589999999,-81.5502113,32256
2702,Pet Supermarket,30.2640955,-81.55840649999999,32216
2703,PetSmart,30.3274361,-81.5482442,32225
2704,Pet Supermarket,30.1875604,-81.62707739999999,32257
2705,Pet Supermarket,30.2054568,-81.7591583,32244
2706,Pet Supermarket,29.675545,-82.33880669999999,32609
2707,Pet Supermarket,30.2873056,-81.7213709,32210
2708,Pet Supermarket,30.1422699,-81.7658136,32065
2709,Pet Supermarket,29.187339,-82.1098148,34470
2710,Our Pet World,28.6736037,-81.47923,32703
2711,Pet Supermarket,28.8207074,-81.6779207,32757
2712,PetSmart,29.6229983,-82.3805296,32608
2713,PetSmart,28.9300474,-82.0197625,32162
2714,PetSmart,30.1995024,-81.82314559999999,32222
2715,PetSmart,28.8248905,-81.7853573,34788
2716,PetSmart,30.188568,-81.7354083,32073
2717,Pet Supermarket,30.3524532,-81.5812534,32277
2718,PetSmart,29.1524562,-82.18069539999999,34474
2719,Pet Supermarket,30.1929248,-81.5487701,32256
2720,Pet Supermarket,30.2640955,-81.55840649999999,32216
2721,Pet Supermarket,29.187339,-82.1098148,34470
2722,Pet Supermarket,30.2848241,-81.4610276,32224
2723,Pet Supermarket,30.1875604,-81.62707739999999,32257
2724,Pet Supermarket,30.2054568,-81.7591583,32244
2725,Pet Supermarket,30.2873056,-81.7213709,32210
2726,Pet Supermarket,30.2624511,-81.6237929,32217
2727,Pet Supermarket,30.3175559,-81.4726537,32225
2728,Pet Supermarket,30.1929248,-81.5487701,32256
2729,Pet Supermarket,29.675545,-82.33880669999999,32609
2730,Pet Supermarket,28.9870754,-81.2975503,32720
2731,Pet Supermarket,29.8795038,-81.326146,32084
2732,Pet Supermarket,30.3524532,-81.5812534,32277
2733,Pet Supermarket,30.1422699,-81.7658136,32065
2734,EarthWise Pet Gainesville,29.6741944,-82.3866566,32606
2735,Pet Supermarket,29.0558548,-81.3037931,32720
2736,Pet Supermarket,30.1896934,-81.3814926,32082
2737,Pet Supplies Plus Atlantic Beach,30.3259848,-81.4109848,32233
2738,Pet Supermarket,30.2885374,-81.3956323,32250
2739,Pet Supplies Plus Orange Park,30.155529,-81.7490349,32073
2740,Pet Supermarket,30.2624511,-81.6237929,32217
2741,Pet Supplies Plus Atlantic Beach,30.3259848,-81.4109848,32233
2742,Pet Supermarket,30.2873056,-81.7213709,32210
2743,Pet Supermarket,30.2640955,-81.55840649999999,32216
2744,Pet Supermarket,29.8795038,-81.326146,32084
2745,Pet Supermarket,30.1875604,-81.62707739999999,32257
2746,Pet Supermarket,30.2054568,-81.7591583,32244
2747,Pet Supermarket,29.675545,-82.33880669999999,32609
2748,Pet Supermarket,29.187339,-82.1098148,34470
2749,Pet Supermarket,30.3175559,-81.4726537,32225
2750,Pet Supermarket,30.2848241,-81.4610276,32224
2751,Pet Creations,30.4515094,-81.63737479999999,32218
2752,Pet Supermarket,30.3524532,-81.5812534,32277
2753,Petco,29.1435119,-82.1877512,34474
2754,Pet Supplies Plus Orange Park,30.155529,-81.7490349,32073
2755,Pet and Feed Store,30.2473951,-81.7999338,32210
2756,Pet Supermarket,28.8207074,-81.6779207,32757
2757,Earth Pets Natural Pet Market - San Marco,30.3082793,-81.65425330000001,32207
2758,Pet Supermarket,30.1422699,-81.7658136,32065
2759,EarthWise Pet,30.2903108,-81.3923713,32250
2760,Pet Supermarket,30.2624511,-81.6237929,32217
2761,PetSmart,29.1921942,-81.07495399999999,32114
2762,Pet Supermarket,30.2640955,-81.55840649999999,32216
2763,Pet Supermarket,30.1875604,-81.62707739999999,32257
2764,Pet Supermarket,30.2054568,-81.7591583,32244
2765,Pet Supermarket,29.675545,-82.33880669999999,32609
2766,Pet Supermarket,30.2873056,-81.7213709,32210
2767,Pet Supermarket,29.8795038,-81.326146,32084
2768,Pet Supermarket,30.2885374,-81.3956323,32250
2769,Pet Supermarket,30.3175559,-81.4726537,32225
2770,Pet Supermarket,28.9142272,-81.29114059999999,32763
2771,Pet Supermarket,30.1422699,-81.7658136,32065
2772,Pet Supermarket,29.5540932,-81.22952409999999,32137
2773,Pet Supermarket,29.2690141,-81.10086919999999,32174
2774,PetSmart,30.19998589999999,-81.5502113,32256
2775,PetSmart,30.3274361,-81.5482442,32225
2776,Pet Supermarket,29.187339,-82.1098148,34470
2777,PetSmart,30.4763902,-81.6426602,32218
2778,Pet Supplies Plus Atlantic Beach,30.3259848,-81.4109848,32233
2779,Pet Supermarket,28.8207074,-81.6779207,32757
2780,Pet Supermarket,30.2624511,-81.6237929,32217
2781,Pet Supplies Plus Atlantic Beach,30.3259848,-81.4109848,32233
2782,Pet Supermarket,30.2873056,-81.7213709,32210
2783,Pet Supermarket,30.2640955,-81.55840649999999,32216
2784,Pet Supermarket,29.8795038,-81.326146,32084
2785,Pet Supermarket,30.1875604,-81.62707739999999,32257
2786,Pet Supermarket,30.2054568,-81.7591583,32244
2787,Pet Supermarket,29.675545,-82.33880669999999,32609
2788,Pet Supermarket,29.187339,-82.1098148,34470
2789,Pet Supermarket,30.3175559,-81.4726537,32225
2790,Pet Supermarket,30.2848241,-81.4610276,32224
2791,Pet Creations,30.4515094,-81.63737479999999,32218
2792,Pet Supermarket,30.3524532,-81.5812534,32277
2793,Petco,29.1435119,-82.1877512,34474
2794,Pet Supplies Plus Orange Park,30.155529,-81.7490349,32073
2795,Pet and Feed Store,30.2473951,-81.7999338,32210
2796,Pet Supermarket,28.8207074,-81.6779207,32757
2797,Earth Pets Natural Pet Market - San Marco,30.3082793,-81.65425330000001,32207
2798,Pet Supermarket,30.1422699,-81.7658136,32065
2799,EarthWise Pet,30.2903108,-81.3923713,32250
2800,Pet Supermarket,30.2624511,-81.6237929,32217
2801,Pet Supplies Plus Atlantic Beach,30.3259848,-81.4109848,32233
2802,Pet Supermarket,30.2873056,-81.7213709,32210
2803,Pet Supplies Plus Sanford,28.75908,-81.2842043,32773
2804,Pet Supermarket,30.2640955,-81.55840649999999,32216
2805,Pet Supermarket,29.8795038,-81.326146,32084
2806,Pet Supermarket,30.1875604,-81.62707739999999,32257
2807,Pet Supermarket,30.2054568,-81.7591583,32244
2808,Pet Supermarket,29.675545,-82.33880669999999,32609
2809,Pet Supermarket,29.187339,-82.1098148,34470
2810,Pet Supermarket,30.3175559,-81.4726537,32225
2811,Pet Supermarket,29.5540932,-81.22952409999999,32137
2812,Pet Supermarket,30.2848241,-81.4610276,32224
2813,Pet Creations,30.4515094,-81.63737479999999,32218
2814,Pet Supermarket,30.3524532,-81.5812534,32277
2815,Petco,29.1435119,-82.1877512,34474
2816,Pet Supermarket,28.9142272,-81.29114059999999,32763
2817,Pet Supplies Plus Orange Park,30.155529,-81.7490349,32073
2818,Pet and Feed Store,30.2473951,-81.7999338,32210
2819,Pet Supermarket,28.8207074,-81.6779207,32757
2820,Pet Supermarket,30.2624511,-81.6237929,32217
2821,Pet Creations,30.4515094,-81.63737479999999,32218
2822,Pet Supermarket,30.3524532,-81.5812534,32277
2823,Petco,29.1435119,-82.1877512,34474
2824,Pet Supermarket,30.2873056,-81.7213709,32210
2825,Pet Supermarket,30.2640955,-81.55840649999999,32216
2826,Pet Supermarket,30.1875604,-81.62707739999999,32257
2827,Pet Supermarket,30.2054568,-81.7591583,32244
2828,Pet Supermarket,29.675545,-82.33880669999999,32609
2829,Pet Supermarket,29.187339,-82.1098148,34470
2830,Pet Supplies Plus Orange Park,30.155529,-81.7490349,32073
2831,Pet and Feed Store,30.2473951,-81.7999338,32210
2832,Earth Pets Natural Pet Market - San Marco,30.3082793,-81.65425330000001,32207
2833,Pet Supermarket,30.1422699,-81.7658136,32065
2834,Petco,29.6571701,-82.4156051,32605
2835,Petco,30.17193219999999,-81.6266911,32223
2836,PetSmart,29.1524562,-82.18069539999999,34474
2837,Lake City Pets and Supplies & Grooming,30.18679599999999,-82.6527431,32055
2838,Pet Supermarket,30.1804526,-82.6671503,32055
2839,PetSmart,29.6229983,-82.3805296,32608
2840,Pet Supermarket,30.2624511,-81.6237929,32217
2841,Pet Supplies Plus Atlantic Beach,30.3259848,-81.4109848,32233
2842,Pet Supermarket,30.2873056,-81.7213709,32210
2843,Pet Supermarket,30.2640955,-81.55840649999999,32216
2844,Pet Supermarket,30.1875604,-81.62707739999999,32257
2845,Pet Supermarket,30.2054568,-81.7591583,32244
2846,Pet Supermarket,29.675545,-82.33880669999999,32609
2847,Pet Supermarket,29.187339,-82.1098148,34470
2848,Pet Supermarket,30.3175559,-81.4726537,32225
2849,Pet Supermarket,30.2848241,-81.4610276,32224
2850,Pet Creations,30.4515094,-81.63737479999999,32218
2851,Pet Supermarket,30.3524532,-81.5812534,32277
2852,Petco,29.1435119,-82.1877512,34474
2853,Pet Supplies Plus Orange Park,30.155529,-81.7490349,32073
2854,Pet and Feed Store,30.2473951,-81.7999338,32210
2855,Earth Pets Natural Pet Market - San Marco,30.3082793,-81.65425330000001,32207
2856,Pet Supermarket,30.1422699,-81.7658136,32065
2857,EarthWise Pet,30.2903108,-81.3923713,32250
2858,Petco,29.6571701,-82.4156051,32605
2859,Pet Supermarket,28.8559781,-82.38938309999999,34453
2860,Pet Supermarket,30.2624511,-81.6237929,32217
2861,Pet Supplies Plus Sanford,28.75908,-81.2842043,32773
2862,Pet Supermarket,30.2640955,-81.55840649999999,32216
2863,Pet Supermarket,30.1875604,-81.62707739999999,32257
2864,Pet Supermarket,30.2054568,-81.7591583,32244
2865,Pet Supermarket,29.675545,-82.33880669999999,32609
2866,Pet Supermarket,30.2873056,-81.7213709,32210
2867,Pet Supermarket,29.8795038,-81.326146,32084
2868,Pet Supermarket,30.2885374,-81.3956323,32250
2869,Pet Supermarket,30.3175559,-81.4726537,32225
2870,Pet Supermarket,28.9142272,-81.29114059999999,32763
2871,Pet Supermarket,30.1422699,-81.7658136,32065
2872,Pet Supermarket,29.5540932,-81.22952409999999,32137
2873,Pet Supermarket,29.2690141,-81.10086919999999,32174
2874,PetSmart,30.19998589999999,-81.5502113,32256
2875,PetSmart,30.3274361,-81.5482442,32225
2876,Pet Supermarket,29.187339,-82.1098148,34470
2877,PetSmart,30.4763902,-81.6426602,32218
2878,Pet Supplies Plus Atlantic Beach,30.3259848,-81.4109848,32233
2879,Pet Supermarket,28.8207074,-81.6779207,32757
2880,Pet Supermarket,30.2624511,-81.6237929,32217
2881,Pet Creations,30.4515094,-81.63737479999999,32218
2882,Pet Supermarket,30.3524532,-81.5812534,32277
2883,Petco,29.1435119,-82.1877512,34474
2884,Pet Supermarket,30.2873056,-81.7213709,32210
2885,Pet Supermarket,30.2640955,-81.55840649999999,32216
2886,Pet Supermarket,30.1875604,-81.62707739999999,32257
2887,Pet Supermarket,30.2054568,-81.7591583,32244
2888,Pet Supermarket,29.675545,-82.33880669999999,32609
2889,Pet Supermarket,29.187339,-82.1098148,34470
2890,Pet Supplies Plus Orange Park,30.155529,-81.7490349,32073
2891,Pet and Feed Store,30.2473951,-81.7999338,32210
2892,Earth Pets Natural Pet Market - San Marco,30.3082793,-81.65425330000001,32207
2893,Pet Supermarket,30.1422699,-81.7658136,32065
2894,Petco,29.6571701,-82.4156051,32605
2895,Petco,30.17193219999999,-81.6266911,32223
2896,PetSmart,29.1524562,-82.18069539999999,34474
2897,Lake City Pets and Supplies & Grooming,30.18679599999999,-82.6527431,32055
2898,Pet Supermarket,30.1804526,-82.6671503,32055
2899,PetSmart,29.6229983,-82.3805296,32608
2900,Pet Supermarket,30.2624511,-81.6237929,32217
2901,Pet Supplies Plus Atlantic Beach,30.3259848,-81.4109848,32233
2902,Pet Supermarket,30.2873056,-81.7213709,32210
2903,Pet Supermarket,30.2640955,-81.55840649999999,32216
2904,Pet Supermarket,29.8795038,-81.326146,32084
2905,Pet Supermarket,30.1875604,-81.62707739999999,32257
2906,Pet Supermarket,30.2054568,-81.7591583,32244
2907,Pet Supermarket,29.675545,-82.33880669999999,32609
2908,Pet Supermarket,29.187339,-82.1098148,34470
2909,Pet Supermarket,30.3175559,-81.4726537,32225
2910,Pet Supermarket,29.5540932,-81.22952409999999,32137
2911,Pet Supermarket,30.2848241,-81.4610276,32224
2912,Pet Creations,30.4515094,-81.63737479999999,32218
2913,Pet Supermarket,30.3524532,-81.5812534,32277
2914,Petco,29.1435119,-82.1877512,34474
2915,Pet Supermarket,28.9142272,-81.29114059999999,32763
2916,Pet Supplies Plus Orange Park,30.155529,-81.7490349,32073
2917,Pet and Feed Store,30.2473951,-81.7999338,32210
2918,Pet Supermarket,29.1263381,-81.00240389999999,32127
2919,Earth Pets Natural Pet Market - San Marco,30.3082793,-81.65425330000001,32207
2920,Pet Supermarket,30.2624511,-81.6237929,32217
2921,Pet Supplies Plus Atlantic Beach,30.3259848,-81.4109848,32233
2922,Pet Supermarket,30.2873056,-81.7213709,32210
2923,Pet Supermarket,30.2640955,-81.55840649999999,32216
2924,Pet Supermarket,30.1875604,-81.62707739999999,32257
2925,Pet Supermarket,30.2054568,-81.7591583,32244
2926,Pet Supermarket,29.675545,-82.33880669999999,32609
2927,Pet Supermarket,29.187339,-82.1098148,34470
2928,Pet Supermarket,30.3175559,-81.4726537,32225
2929,Pet Supermarket,30.2848241,-81.4610276,32224
2930,Pet Creations,30.4515094,-81.63737479999999,32218
2931,Pet Supermarket,30.3524532,-81.5812534,32277
2932,Petco,29.1435119,-82.1877512,34474
2933,Pet Supplies Plus Orange Park,30.155529,-81.7490349,32073
2934,Pet and Feed Store,30.2473951,-81.7999338,32210
2935,Earth Pets Natural Pet Market - San Marco,30.3082793,-81.65425330000001,32207
2936,Pet Supermarket,30.1422699,-81.7658136,32065
2937,EarthWise Pet,30.2903108,-81.3923713,32250
2938,Petco,29.6571701,-82.4156051,32605
2939,Pet Supermarket,30.1929248,-81.5487701,32256
2940,Pet Supermarket,30.2624511,-81.6237929,32217
2941,Pet Supplies Plus Atlantic Beach,30.3259848,-81.4109848,32233
2942,Pet Supermarket,30.2873056,-81.7213709,32210
2943,Pet Supermarket,30.2640955,-81.55840649999999,32216
2944,Pet Supermarket,28.6545786,-81.2075655,32765
2945,Pet Supermarket,29.8795038,-81.326146,32084
2946,Pet Supermarket,30.1875604,-81.62707739999999,32257
2947,Pet Supermarket,30.2054568,-81.7591583,32244
2948,Pet Supermarket,29.675545,-82.33880669999999,32609
2949,Pet Supermarket,29.187339,-82.1098148,34470
2950,Pet Supplies Plus Winter Park,28.612493,-81.27976029999999,32792
2951,Pet Supplies Plus Sanford,28.75908,-81.2842043,32773
2952,Pet Supermarket,30.3175559,-81.4726537,32225
2953,Pet Supermarket,29.5540932,-81.22952409999999,32137
2954,Pet Supermarket,30.2848241,-81.4610276,32224
2955,Pet Supermarket,30.3524532,-81.5812534,32277
2956,Petco,29.1435119,-82.1877512,34474
2957,Pet Supermarket,28.9142272,-81.29114059999999,32763
2958,Pet Supplies Plus Orange Park,30.155529,-81.7490349,32073
2959,Pet and Feed Store,30.2473951,-81.7999338,32210
2960,Pet Supermarket,30.2624511,-81.6237929,32217
2961,Pet Supplies Plus Atlantic Beach,30.3259848,-81.4109848,32233
2962,Pet Supermarket,30.2873056,-81.7213709,32210
2963,Pet Supplies Plus Winter Park,28.612493,-81.27976029999999,32792
2964,Pet Supermarket,30.2640955,-81.55840649999999,32216
2965,Pet Supermarket,29.8795038,-81.326146,32084
2966,Pet Supermarket,30.1875604,-81.62707739999999,32257
2967,Pet Supermarket,30.2054568,-81.7591583,32244
2968,Pet Supermarket,29.675545,-82.33880669999999,32609
2969,Pet Supermarket,29.187339,-82.1098148,34470
2970,Pet Supermarket,28.6015378,-81.3236531,32792
2971,Pet Supplies Plus Sanford,28.75908,-81.2842043,32773
2972,Pet Supermarket,30.3175559,-81.4726537,32225
2973,Pet Supermarket,30.2848241,-81.4610276,32224
2974,Pet Supermarket,30.3524532,-81.5812534,32277
2975,Petco,29.1435119,-82.1877512,34474
2976,Pet Supermarket,28.9142272,-81.29114059999999,32763
2977,Pet Supplies Plus Orange Park,30.155529,-81.7490349,32073
2978,Pet and Feed Store,30.2473951,-81.7999338,32210
2979,Pet Supermarket,28.8207074,-81.6779207,32757
2980,Pet Supermarket,30.2624511,-81.6237929,32217
2981,Pet Creations,30.4515094,-81.63737479999999,32218
2982,Pet Supermarket,30.3524532,-81.5812534,32277
2983,Petco,29.1435119,-82.1877512,34474
2984,Pet Supplies Plus Orange Park,30.155529,-81.7490349,32073
2985,Pet Supermarket,30.2873056,-81.7213709,32210
2986,Pet Supermarket,30.1875604,-81.62707739999999,32257
2987,Pet Supermarket,30.2054568,-81.7591583,32244
2988,Pet Supermarket,29.675545,-82.33880669999999,32609
2989,Pet Supermarket,29.187339,-82.1098148,34470
2990,Pet and Feed Store,30.2473951,-81.7999338,32210
2991,Pet Supermarket,28.8207074,-81.6779207,32757
2992,Earth Pets Natural Pet Market - San Marco,30.3082793,-81.65425330000001,32207
2993,Pet Supermarket,30.1422699,-81.7658136,32065
2994,Petco,29.6571701,-82.4156051,32605
2995,Pet Supermarket,28.8559781,-82.38938309999999,34453
2996,Petco,30.17193219999999,-81.6266911,32223
2997,PetSmart,29.1524562,-82.18069539999999,34474
2998,Lake City Pets and Supplies & Grooming,30.18679599999999,-82.6527431,32055
2999,Pet Supermarket,30.1804526,-82.6671503,32055
3000,Pet Supermarket,30.2624511,-81.6237929,32217
3001,Pet Supplies Plus Atlantic Beach,30.3259848,-81.4109848,32233
3002,Pet Supermarket,30.2873056,-81.7213709,32210
3003,Pet Supermarket,30.2640955,-81.55840649999999,32216
3004,Pet Supermarket,29.8795038,-81.326146,32084
3005,Pet Supermarket,30.1875604,-81.62707739999999,32257
3006,Pet Supermarket,30.2054568,-81.7591583,32244
3007,Pet Supermarket,29.675545,-82.33880669999999,32609
3008,Pet Supermarket,29.187339,-82.1098148,34470
3009,Pet Supermarket,30.3175559,-81.4726537,32225
3010,Pet Supermarket,29.5540932,-81.22952409999999,32137
3011,Pet Supermarket,30.2848241,-81.4610276,32224
3012,Pet Creations,30.4515094,-81.63737479999999,32218
3013,Pet Supermarket,30.3524532,-81.5812534,32277
3014,Petco,29.1435119,-82.1877512,34474
3015,Pet Supermarket,28.9142272,-81.29114059999999,32763
3016,Pet Supplies Plus Orange Park,30.155529,-81.7490349,32073
3017,Pet and Feed Store,30.2473951,-81.7999338,32210
3018,Earth Pets Natural Pet Market - San Marco,30.3082793,-81.65425330000001,32207
3019,Pet Supermarket,30.1422699,-81.7658136,32065
3020,Pet Supermarket,30.2624511,-81.6237929,32217
3021,Pet Supplies Plus Atlantic Beach,30.3259848,-81.4109848,32233
3022,Pet Supermarket,30.2873056,-81.7213709,32210
3023,Pet Supermarket,30.2640955,-81.55840649999999,32216
3024,Pet Supermarket,30.1875604,-81.62707739999999,32257
3025,Pet Supermarket,30.2054568,-81.7591583,32244
3026,Pet Supermarket,29.675545,-82.33880669999999,32609
3027,Pet Supermarket,29.187339,-82.1098148,34470
3028,Pet Supermarket,30.3175559,-81.4726537,32225
3029,Pet Supermarket,30.2848241,-81.4610276,32224
3030,Pet Creations,30.4515094,-81.63737479999999,32218
3031,Pet Supermarket,30.3524532,-81.5812534,32277
3032,Petco,29.1435119,-82.1877512,34474
3033,Pet Supplies Plus Orange Park,30.155529,-81.7490349,32073
3034,Pet and Feed Store,30.2473951,-81.7999338,32210
3035,Earth Pets Natural Pet Market - San Marco,30.3082793,-81.65425330000001,32207
3036,Pet Supermarket,30.1422699,-81.7658136,32065
3037,EarthWise Pet,30.2903108,-81.3923713,32250
3038,Petco,29.6571701,-82.4156051,32605
3039,Pet Supermarket,30.1929248,-81.5487701,32256
3040,Pet Supermarket,31.2349476,-85.4523043,36305
3041,Petsense by Tractor Supply,31.3216615,-85.8323695,36330
3042,PetSmart,31.2458691,-85.42342909999999,36303
3043,Pet Supplies Plus Albany,31.6146382,-84.2064286,31707
3044,For Pets Sake,31.2278854,-85.4292555,36301
3045,Jeffers Pet,31.1608828,-85.40736869999999,36301
3046,Pet Supermarket,31.6099481,-84.2120288,31707
3047,PetSmart,31.620801,-84.2224506,31707
3048,Petsense by Tractor Supply,30.855637,-83.9477544,31792
3049,Petsense by Tractor Supply,30.8871849,-84.56793449999999,39819
3050,Wet Pets Dothan,31.2394133,-85.4077088,36303
3051,Dream Puppys,31.2558128,-85.4338676,36303
3052,Lit'l Critters Pet Shop,30.7836838,-85.26536670000002,32448
3053,Over The Top Aquatics Pet Store,32.0719737,-84.20655219999999,31709
3054,Pets-N-Pals,31.6184484,-84.217011,31707
3055,Fuller Supply Co,31.1816311,-85.4091511,36301
3056,i.d. SPOT,31.2350195,-85.4523299,36305
3057,Pampered Pets Albany Ga,31.5781721,-84.1775679,31707
3058,Quick-Tag,31.3155678,-85.8270701,36330
3059,The Perfect Collar,31.62206239999999,-84.209281,31707
3060,Pet Supermarket,31.2349476,-85.4523043,36305
3061,PetSmart,31.2458691,-85.42342909999999,36303
3062,Pet Supplies Plus Albany,31.6146382,-84.2064286,31707
3063,For Pets Sake,31.2278854,-85.4292555,36301
3064,Petsense by Tractor Supply,31.3216615,-85.8323695,36330
3065,Wet Pets Dothan,31.2394133,-85.4077088,36303
3066,Pet Supermarket,32.4820419,-84.9446632,31906
3067,PetSmart,31.620801,-84.2224506,31707
3068,Petsense by Tractor Supply,30.855637,-83.9477544,31792
3069,Pet Supermarket,31.6099481,-84.2120288,31707
3070,Jeffers Pet,31.1608828,-85.40736869999999,36301
3071,Petsense by Tractor Supply,31.7806469,-85.9550737,36081
3072,Petsense by Tractor Supply,30.8871849,-84.56793449999999,39819
3073,Animal Cove Pets & Pet Grooming,32.496735,-85.0166808,36867
3074,Lit'l Critters Pet Shop,30.7836838,-85.26536670000002,32448
3075,Dream Puppys,31.2558128,-85.4338676,36303
3076,Troy Pets,31.7904728,-85.9652674,36081
3077,Fuller Supply Co,31.1816311,-85.4091511,36301
3078,Pampered Pets Albany Ga,31.5781721,-84.1775679,31707
3079,Pets-N-Pals,31.6184484,-84.217011,31707
3080,Pet Supermarket,32.4820419,-84.9446632,31906
3081,Petco,32.5433908,-84.9446165,31909
3082,Petland Columbus,32.5232267,-84.9583856,31904
3083,Petsense by Tractor Supply,31.3216615,-85.8323695,36330
3084,PetSmart,31.2458691,-85.42342909999999,36303
3085,Pet Supplies Plus Albany,31.6146382,-84.2064286,31707
3086,Pet Supermarket,31.2349476,-85.4523043,36305
3087,PetSmart,31.620801,-84.2224506,31707
3088,Pet Supermarket,31.6099481,-84.2120288,31707
3089,PetSmart,32.5348244,-84.9706459,31904
3090,Petco,32.617378,-85.4074472,36801
3091,Petsense by Tractor Supply,31.7806469,-85.9550737,36081
3092,For Pets Sake,31.2278854,-85.4292555,36301
3093,PetSmart,32.6203176,-85.4086483,36801
3094,Animal Cove Pets & Pet Grooming,32.496735,-85.0166808,36867
3095,Pet Supplies Plus Auburn,32.6247302,-85.44366989999999,36830
3096,Jeffers Pet,31.1608828,-85.40736869999999,36301
3097,Wet Pets Dothan,31.2394133,-85.4077088,36303
3098,Dream Puppys,31.2558128,-85.4338676,36303
3099,Troy Pets,31.7904728,-85.9652674,36081
3100,Panhandle Pet Supply,30.4974319,-84.3261134,32303
3101,Panhandle Pet Supply,30.441368,-84.2280974,32301
3102,Petco,30.4409184,-84.25471759999999,32301
3103,Pet Supermarket,30.4421748,-84.32022359999999,32304
3104,Pet Supermarket,31.6099481,-84.2120288,31707
3105,Carol's Critters,30.4407396,-84.3263791,32304
3106,Tifton Pet Center,31.4588431,-83.5252347,31794
3107,PetSmart,30.495686,-84.2471896,32308
3108,Petsense by Tractor Supply,31.453108,-83.52924279999999,31794
3109,PetSmart,31.620801,-84.2224506,31707
3110,The Naturally Healthy Pet,30.4647562,-84.27138599999999,32303
3111,Pet Supplies Plus Albany,31.6146382,-84.2064286,31707
3112,Petsense by Tractor Supply,30.855637,-83.9477544,31792
3113,EarthWise Pet Supply / Tallahassee,30.5613571,-84.2199481,32312
3114,PetSmart,30.4308065,-84.2508454,32301
3115,PetSmart,30.84287569999999,-83.3197313,31601
3116,Petco,30.5114943,-84.25038920000001,32312
3117,Hollywood Feed,30.4646236,-84.2697702,32303
3118,Jeffers Pet,31.1608828,-85.40736869999999,36301
3119,Petsense by Tractor Supply,31.1861796,-83.7595426,31788
